{"type":"FeatureCollection","features":[{"type":"Feature","properties":{"name":"\"DATO' KERAMAT\"","routes":["KJ"],"names":["LRT Kelana Jaya Line"],"colors":["#D50032"],"color":"#D50032","interchange":false,"oku":true,"lines":[{"r":"KJ","to":"Gombak","seq":31,"first":"07:22","last":{"MonFri":"00:36","Sat":"00:36","Sun":"00:36"},"freq":{"MonFri":[4,7],"Sat":[7,7],"Sun":[7,7]}},{"r":"KJ","to":"Putra Heights","seq":7,"first":"06:16","last":{"MonFri":"23:31","Sat":"23:31","Sun":"23:31"},"freq":{"MonFri":[4,7],"Sat":[7,7],"Sun":[7,7]}}]},"geometry":{"type":"Point","coordinates":[101.73184,3.16509]}},{"type":"Feature","properties":{"name":"16 SIERRA","routes":["PYL"],"names":["MRT Putrajaya Line"],"colors":["#FFCD00"],"color":"#FFCD00","interchange":false,"oku":true,"lines":[{"r":"PYL","to":"Kwasa Damansara","seq":4,"first":"06:06","last":{"MonFri":"00:05","Sat":"23:00","Sun":"23:00"},"freq":{"MonFri":[4,14],"Sat":[10,10],"Sun":[10,10]}},{"r":"PYL","to":"Putrajaya","seq":33,"first":"07:02","last":{"MonFri":"01:02","Sat":"23:57","Sun":"23:57"},"freq":{"MonFri":[5,12],"Sat":[10,10],"Sun":[10,10]}}]},"geometry":{"type":"Point","coordinates":[101.65481,2.96497]}},{"type":"Feature","properties":{"name":"ABDULLAH HUKUM","routes":["KJ"],"names":["LRT Kelana Jaya Line"],"colors":["#D50032"],"color":"#D50032","interchange":false,"oku":true,"lines":[{"r":"KJ","to":"Gombak","seq":21,"first":"06:56","last":{"MonFri":"00:10","Sat":"00:10","Sun":"00:10"},"freq":{"MonFri":[4,7],"Sat":[7,7],"Sun":[7,7]}},{"r":"KJ","to":"Putra Heights","seq":17,"first":"06:42","last":{"MonFri":"23:57","Sat":"23:57","Sun":"23:57"},"freq":{"MonFri":[4,7],"Sat":[7,7],"Sun":[7,7]}}]},"geometry":{"type":"Point","coordinates":[101.6729,3.11874]}},{"type":"Feature","properties":{"name":"ALAM MEGAH","routes":["KJ"],"names":["LRT Kelana Jaya Line"],"colors":["#D50032"],"color":"#D50032","interchange":false,"oku":true,"lines":[{"r":"KJ","to":"Gombak","seq":3,"first":"06:06","last":{"MonFri":"23:20","Sat":"23:20","Sun":"23:20"},"freq":{"MonFri":[4,7],"Sat":[7,7],"Sun":[7,7]}},{"r":"KJ","to":"Putra Heights","seq":35,"first":"07:32","last":{"MonFri":"00:47","Sat":"00:47","Sun":"00:47"},"freq":{"MonFri":[4,7],"Sat":[7,7],"Sun":[7,7]}}]},"geometry":{"type":"Point","coordinates":[101.57203,3.02315]}},{"type":"Feature","properties":{"name":"ALAM SUTERA","routes":["PH"],"names":["LRT Sri Petaling Line"],"colors":["#76232f"],"color":"#76232f","interchange":false,"oku":true,"lines":[{"r":"PH","to":"Putra Heights","seq":21,"first":"06:39","last":{"MonFri":"00:38","Sat":"00:38","Sun":"00:38"},"freq":{"MonFri":[3,5],"Sat":[5,5],"Sun":[5,5]}},{"r":"PH","to":"Sentul Timur","seq":9,"first":"06:21","last":{"MonFri":"00:21","Sat":"00:21","Sun":"00:21"},"freq":{"MonFri":[3,5],"Sat":[5,5],"Sun":[5,5]}}]},"geometry":{"type":"Point","coordinates":[101.65647,3.0547]}},{"type":"Feature","properties":{"name":"AMPANG","routes":["AG"],"names":["LRT Ampang Line"],"colors":["#e57200"],"color":"#e57200","interchange":false,"oku":true,"lines":[{"r":"AG","to":"Ampang","seq":18,"first":"06:28","last":{"MonFri":"23:53","Sat":"23:53","Sun":"23:53"},"freq":{"MonFri":[3,5],"Sat":[5,5],"Sun":[5,5]}},{"r":"AG","to":"Sentul Timur","seq":1,"first":"06:00","last":{"MonFri":"23:25","Sat":"23:25","Sun":"23:25"},"freq":{"MonFri":[3,5],"Sat":[5,5],"Sun":[5,5]}}]},"geometry":{"type":"Point","coordinates":[101.76005,3.15032]}},{"type":"Feature","properties":{"name":"AMPANG PARK","routes":["KJ","PYL"],"names":["LRT Kelana Jaya Line","MRT Putrajaya Line"],"colors":["#D50032","#FFCD00"],"color":"#D50032","interchange":true,"oku":true,"lines":[{"r":"KJ","to":"Gombak","seq":29,"first":"07:17","last":{"MonFri":"00:32","Sat":"00:32","Sun":"00:32"},"freq":{"MonFri":[4,7],"Sat":[7,7],"Sun":[7,7]}},{"r":"KJ","to":"Putra Heights","seq":9,"first":"06:22","last":{"MonFri":"23:36","Sat":"23:36","Sun":"23:36"},"freq":{"MonFri":[4,7],"Sat":[7,7],"Sun":[7,7]}},{"r":"PYL","to":"Kwasa Damansara","seq":18,"first":"06:37","last":{"MonFri":"00:37","Sat":"23:32","Sun":"23:32"},"freq":{"MonFri":[4,14],"Sat":[10,10],"Sun":[10,10]}},{"r":"PYL","to":"Putrajaya","seq":19,"first":"06:31","last":{"MonFri":"00:30","Sat":"23:25","Sun":"23:25"},"freq":{"MonFri":[5,12],"Sat":[10,10],"Sun":[10,10]}}]},"geometry":{"type":"Point","coordinates":[101.71841,3.16107]}},{"type":"Feature","properties":{"name":"ARA DAMANSARA","routes":["KJ"],"names":["LRT Kelana Jaya Line"],"colors":["#D50032"],"color":"#D50032","interchange":false,"oku":true,"lines":[{"r":"KJ","to":"Gombak","seq":12,"first":"06:34","last":{"MonFri":"23:48","Sat":"23:48","Sun":"23:48"},"freq":{"MonFri":[4,7],"Sat":[7,7],"Sun":[7,7]}},{"r":"KJ","to":"Putra Heights","seq":26,"first":"07:05","last":{"MonFri":"00:19","Sat":"00:19","Sun":"00:19"},"freq":{"MonFri":[4,7],"Sat":[7,7],"Sun":[7,7]}}]},"geometry":{"type":"Point","coordinates":[101.58637,3.10864]}},{"type":"Feature","properties":{"name":"ASIA JAYA","routes":["KJ"],"names":["LRT Kelana Jaya Line"],"colors":["#D50032"],"color":"#D50032","interchange":false,"oku":true,"lines":[{"r":"KJ","to":"Gombak","seq":17,"first":"06:46","last":{"MonFri":"00:00","Sat":"00:00","Sun":"00:00"},"freq":{"MonFri":[4,7],"Sat":[7,7],"Sun":[7,7]}},{"r":"KJ","to":"Putra Heights","seq":21,"first":"06:52","last":{"MonFri":"00:06","Sat":"00:06","Sun":"00:06"},"freq":{"MonFri":[4,7],"Sat":[7,7],"Sun":[7,7]}}]},"geometry":{"type":"Point","coordinates":[101.6377,3.10434]}},{"type":"Feature","properties":{"name":"AWAN BESAR","routes":["PH"],"names":["LRT Sri Petaling Line"],"colors":["#76232f"],"color":"#76232f","interchange":false,"oku":true,"lines":[{"r":"PH","to":"Putra Heights","seq":19,"first":"06:34","last":{"MonFri":"00:34","Sat":"00:34","Sun":"00:34"},"freq":{"MonFri":[3,5],"Sat":[5,5],"Sun":[5,5]}},{"r":"PH","to":"Sentul Timur","seq":11,"first":"06:26","last":{"MonFri":"00:25","Sat":"00:25","Sun":"00:25"},"freq":{"MonFri":[3,5],"Sat":[5,5],"Sun":[5,5]}}]},"geometry":{"type":"Point","coordinates":[101.67056,3.06213]}},{"type":"Feature","properties":{"name":"BANDAR BARU KLANG","routes":["SA"],"names":["LRT Shah Alam Line"],"colors":["#00A9E0"],"color":"#00A9E0","interchange":false,"oku":true,"lines":[{"r":"SA","to":"Bandar Utama","seq":10,"first":"06:24","last":{"MonFri":"00:04","Sat":"00:04","Sun":"23:34"},"freq":{"MonFri":[8,10],"Sat":[10,10],"Sun":[10,10]}},{"r":"SA","to":"Johan Setia","seq":15,"first":"06:41","last":{"MonFri":"00:41","Sat":"00:41","Sun":"00:11"},"freq":{"MonFri":[8,10],"Sat":[10,10],"Sun":[10,10]}}]},"geometry":{"type":"Point","coordinates":[101.46556,3.0625]}},{"type":"Feature","properties":{"name":"BANDAR BUKIT TINGGI","routes":["SA"],"names":["LRT Shah Alam Line"],"colors":["#00A9E0"],"color":"#00A9E0","interchange":false,"oku":true,"lines":[{"r":"SA","to":"Bandar Utama","seq":3,"first":"06:05","last":{"MonFri":"23:44","Sat":"23:44","Sun":"23:14"},"freq":{"MonFri":[8,10],"Sat":[10,10],"Sun":[10,10]}},{"r":"SA","to":"Johan Setia","seq":22,"first":"07:01","last":{"MonFri":"01:01","Sat":"01:01","Sun":"00:31"},"freq":{"MonFri":[8,10],"Sat":[10,10],"Sun":[10,10]}}]},"geometry":{"type":"Point","coordinates":[101.44583,2.99306]}},{"type":"Feature","properties":{"name":"BANDAR PUTERI","routes":["PH"],"names":["LRT Sri Petaling Line"],"colors":["#76232f"],"color":"#76232f","interchange":false,"oku":true,"lines":[{"r":"PH","to":"Putra Heights","seq":26,"first":"06:51","last":{"MonFri":"00:51","Sat":"00:51","Sun":"00:51"},"freq":{"MonFri":[3,5],"Sat":[5,5],"Sun":[5,5]}},{"r":"PH","to":"Sentul Timur","seq":4,"first":"06:09","last":{"MonFri":"00:08","Sat":"00:08","Sun":"00:08"},"freq":{"MonFri":[3,5],"Sat":[5,5],"Sun":[5,5]}}]},"geometry":{"type":"Point","coordinates":[101.61286,3.01711]}},{"type":"Feature","properties":{"name":"BANDAR TASIK SELATAN","routes":["PH"],"names":["LRT Sri Petaling Line"],"colors":["#76232f"],"color":"#76232f","interchange":false,"oku":true,"lines":[{"r":"PH","to":"Putra Heights","seq":15,"first":"06:25","last":{"MonFri":"00:25","Sat":"00:25","Sun":"00:25"},"freq":{"MonFri":[3,5],"Sat":[5,5],"Sun":[5,5]}},{"r":"PH","to":"Sentul Timur","seq":15,"first":"06:34","last":{"MonFri":"00:34","Sat":"00:34","Sun":"00:34"},"freq":{"MonFri":[3,5],"Sat":[5,5],"Sun":[5,5]}}]},"geometry":{"type":"Point","coordinates":[101.71111,3.07606]}},{"type":"Feature","properties":{"name":"BANDAR TUN RAZAK","routes":["PH"],"names":["LRT Sri Petaling Line"],"colors":["#76232f"],"color":"#76232f","interchange":false,"oku":true,"lines":[{"r":"PH","to":"Putra Heights","seq":14,"first":"06:23","last":{"MonFri":"00:22","Sat":"00:22","Sun":"00:22"},"freq":{"MonFri":[3,5],"Sat":[5,5],"Sun":[5,5]}},{"r":"PH","to":"Sentul Timur","seq":16,"first":"06:36","last":{"MonFri":"00:36","Sat":"00:36","Sun":"00:36"},"freq":{"MonFri":[3,5],"Sat":[5,5],"Sun":[5,5]}}]},"geometry":{"type":"Point","coordinates":[101.71247,3.08958]}},{"type":"Feature","properties":{"name":"BANDAR UTAMA","routes":["SA"],"names":["LRT Shah Alam Line"],"colors":["#00A9E0"],"color":"#00A9E0","interchange":false,"oku":true,"lines":[{"r":"KGL","to":"Kajang","seq":6,"first":"06:14","last":{"MonFri":"00:14","Sat":"23:09","Sun":"23:09"},"freq":{"MonFri":[6,10],"Sat":[10,10],"Sun":[10,10]}},{"r":"KGL","to":"Kwasa Damansara","seq":24,"first":"07:14","last":{"MonFri":"01:14","Sat":"00:09","Sun":"00:09"},"freq":{"MonFri":[6,10],"Sat":[10,10],"Sun":[10,10]}},{"r":"SA","to":"Bandar Utama","seq":24,"first":"07:06","last":{"MonFri":"00:45","Sat":"00:45","Sun":"00:15"},"freq":{"MonFri":[8,10],"Sat":[10,10],"Sun":[10,10]}},{"r":"SA","to":"Johan Setia","seq":1,"first":"06:00","last":{"MonFri":"00:00","Sat":"00:00","Sun":"23:30"},"freq":{"MonFri":[8,10],"Sat":[10,10],"Sun":[10,10]}}]},"geometry":{"type":"Point","coordinates":[101.61861,3.14472]}},{"type":"Feature","properties":{"name":"BANDAR UTAMA 11","routes":["SA"],"names":["LRT Shah Alam Line"],"colors":["#00A9E0"],"color":"#00A9E0","interchange":false,"oku":true,"lines":[{"r":"SA","to":"Bandar Utama","seq":22,"first":"07:01","last":{"MonFri":"00:41","Sat":"00:41","Sun":"00:11"},"freq":{"MonFri":[8,10],"Sat":[10,10],"Sun":[10,10]}},{"r":"SA","to":"Johan Setia","seq":3,"first":"06:05","last":{"MonFri":"00:04","Sat":"00:04","Sun":"23:34"},"freq":{"MonFri":[8,10],"Sat":[10,10],"Sun":[10,10]}}]},"geometry":{"type":"Point","coordinates":[101.60444,3.13333]}},{"type":"Feature","properties":{"name":"BANDARAYA - UOB","routes":["AG","PH"],"names":["LRT Ampang Line","LRT Sri Petaling Line"],"colors":["#e57200","#76232f"],"color":"#e57200","interchange":true,"oku":true,"lines":[{"r":"AG","to":"Ampang","seq":6,"first":"06:07","last":{"MonFri":"23:32","Sat":"23:32","Sun":"23:32"},"freq":{"MonFri":[3,5],"Sat":[5,5],"Sun":[5,5]}},{"r":"AG","to":"Sentul Timur","seq":13,"first":"06:20","last":{"MonFri":"23:45","Sat":"23:45","Sun":"23:45"},"freq":{"MonFri":[3,5],"Sat":[5,5],"Sun":[5,5]}},{"r":"PH","to":"Putra Heights","seq":6,"first":"06:07","last":{"MonFri":"00:07","Sat":"00:07","Sun":"00:07"},"freq":{"MonFri":[3,5],"Sat":[5,5],"Sun":[5,5]}},{"r":"PH","to":"Sentul Timur","seq":24,"first":"06:52","last":{"MonFri":"00:52","Sat":"00:52","Sun":"00:52"},"freq":{"MonFri":[3,5],"Sat":[5,5],"Sun":[5,5]}}]},"geometry":{"type":"Point","coordinates":[101.69449,3.15557]}},{"type":"Feature","properties":{"name":"BANGSAR - BANK RAKYAT","routes":["KJ"],"names":["LRT Kelana Jaya Line"],"colors":["#D50032"],"color":"#D50032","interchange":false,"oku":true,"lines":[{"r":"KJ","to":"Gombak","seq":22,"first":"06:58","last":{"MonFri":"00:13","Sat":"00:13","Sun":"00:13"},"freq":{"MonFri":[4,7],"Sat":[7,7],"Sun":[7,7]}},{"r":"KJ","to":"Putra Heights","seq":16,"first":"06:40","last":{"MonFri":"23:54","Sat":"23:54","Sun":"23:54"},"freq":{"MonFri":[4,7],"Sat":[7,7],"Sun":[7,7]}}]},"geometry":{"type":"Point","coordinates":[101.67906,3.12759]}},{"type":"Feature","properties":{"name":"BUKIT BINTANG ","routes":["MR"],"names":["KL Monorail Line"],"colors":["#84bd00"],"color":"#84bd00","interchange":false,"oku":true,"lines":[{"r":"KGL","to":"Kajang","seq":14,"first":"06:42","last":{"MonFri":"00:42","Sat":"23:37","Sun":"23:37"},"freq":{"MonFri":[6,10],"Sat":[10,10],"Sun":[10,10]}},{"r":"KGL","to":"Kwasa Damansara","seq":16,"first":"06:46","last":{"MonFri":"00:45","Sat":"23:40","Sun":"23:40"},"freq":{"MonFri":[6,10],"Sat":[10,10],"Sun":[10,10]}},{"r":"MR","to":"KL Sentral","seq":6,"first":"06:12","last":{"MonFri":"23:42","Sat":"23:42","Sun":"23:42"},"freq":{"MonFri":[7,10],"Sat":[12,12],"Sun":[12,12]}},{"r":"MR","to":"Titiwangsa","seq":6,"first":"06:13","last":{"MonFri":"23:43","Sat":"23:43","Sun":"23:43"},"freq":{"MonFri":[7,10],"Sat":[12,12],"Sun":[12,12]}}]},"geometry":{"type":"Point","coordinates":[101.7115,3.14602]}},{"type":"Feature","properties":{"name":"BUKIT JALIL","routes":["PH"],"names":["LRT Sri Petaling Line"],"colors":["#76232f"],"color":"#76232f","interchange":false,"oku":true,"lines":[{"r":"PH","to":"Putra Heights","seq":17,"first":"06:30","last":{"MonFri":"00:30","Sat":"00:30","Sun":"00:30"},"freq":{"MonFri":[3,5],"Sat":[5,5],"Sun":[5,5]}},{"r":"PH","to":"Sentul Timur","seq":13,"first":"06:29","last":{"MonFri":"00:29","Sat":"00:29","Sun":"00:29"},"freq":{"MonFri":[3,5],"Sat":[5,5],"Sun":[5,5]}}]},"geometry":{"type":"Point","coordinates":[101.69213,3.0582]}},{"type":"Feature","properties":{"name":"BUKIT NANAS","routes":["MR"],"names":["KL Monorail Line"],"colors":["#84bd00"],"color":"#84bd00","interchange":false,"oku":true,"lines":[{"r":"MR","to":"KL Sentral","seq":4,"first":"06:08","last":{"MonFri":"23:37","Sat":"23:37","Sun":"23:37"},"freq":{"MonFri":[7,10],"Sat":[12,12],"Sun":[12,12]}},{"r":"MR","to":"Titiwangsa","seq":8,"first":"06:18","last":{"MonFri":"23:48","Sat":"23:48","Sun":"23:48"},"freq":{"MonFri":[7,10],"Sat":[12,12],"Sun":[12,12]}}]},"geometry":{"type":"Point","coordinates":[101.70481,3.15621]}},{"type":"Feature","properties":{"name":"CAHAYA","routes":["AG"],"names":["LRT Ampang Line"],"colors":["#e57200"],"color":"#e57200","interchange":false,"oku":true,"lines":[{"r":"AG","to":"Ampang","seq":17,"first":"06:26","last":{"MonFri":"23:50","Sat":"23:50","Sun":"23:50"},"freq":{"MonFri":[3,5],"Sat":[5,5],"Sun":[5,5]}},{"r":"AG","to":"Sentul Timur","seq":2,"first":"06:02","last":{"MonFri":"23:27","Sat":"23:27","Sun":"23:27"},"freq":{"MonFri":[3,5],"Sat":[5,5],"Sun":[5,5]}}]},"geometry":{"type":"Point","coordinates":[101.75668,3.14058]}},{"type":"Feature","properties":{"name":"CEMPAKA","routes":["AG"],"names":["LRT Ampang Line"],"colors":["#e57200"],"color":"#e57200","interchange":false,"oku":true,"lines":[{"r":"AG","to":"Ampang","seq":16,"first":"06:24","last":{"MonFri":"23:49","Sat":"23:49","Sun":"23:49"},"freq":{"MonFri":[3,5],"Sat":[5,5],"Sun":[5,5]}},{"r":"AG","to":"Sentul Timur","seq":3,"first":"06:03","last":{"MonFri":"23:28","Sat":"23:28","Sun":"23:28"},"freq":{"MonFri":[3,5],"Sat":[5,5],"Sun":[5,5]}}]},"geometry":{"type":"Point","coordinates":[101.75298,3.13832]}},{"type":"Feature","properties":{"name":"CHAN SOW LIN","routes":["AG","PH","PYL"],"names":["LRT Ampang Line","LRT Sri Petaling Line","MRT Putrajaya Line"],"colors":["#e57200","#76232f","#FFCD00"],"color":"#e57200","interchange":true,"oku":true,"lines":[{"r":"AG","to":"Ampang","seq":11,"first":"06:16","last":{"MonFri":"23:40","Sat":"23:40","Sun":"23:40"},"freq":{"MonFri":[3,5],"Sat":[5,5],"Sun":[5,5]}},{"r":"AG","to":"Sentul Timur","seq":8,"first":"06:12","last":{"MonFri":"23:36","Sat":"23:36","Sun":"23:36"},"freq":{"MonFri":[3,5],"Sat":[5,5],"Sun":[5,5]}},{"r":"PH","to":"Putra Heights","seq":11,"first":"06:16","last":{"MonFri":"00:15","Sat":"00:15","Sun":"00:15"},"freq":{"MonFri":[3,5],"Sat":[5,5],"Sun":[5,5]}},{"r":"PH","to":"Sentul Timur","seq":19,"first":"06:43","last":{"MonFri":"00:43","Sat":"00:43","Sun":"00:43"},"freq":{"MonFri":[3,5],"Sat":[5,5],"Sun":[5,5]}},{"r":"PYL","to":"Kwasa Damansara","seq":14,"first":"06:31","last":{"MonFri":"00:31","Sat":"23:26","Sun":"23:26"},"freq":{"MonFri":[4,14],"Sat":[10,10],"Sun":[10,10]}},{"r":"PYL","to":"Putrajaya","seq":23,"first":"06:36","last":{"MonFri":"00:36","Sat":"23:31","Sun":"23:31"},"freq":{"MonFri":[5,12],"Sat":[10,10],"Sun":[10,10]}}]},"geometry":{"type":"Point","coordinates":[101.71597,3.1282]}},{"type":"Feature","properties":{"name":"CHERAS","routes":["PH"],"names":["LRT Sri Petaling Line"],"colors":["#76232f"],"color":"#76232f","interchange":false,"oku":true,"lines":[{"r":"PH","to":"Putra Heights","seq":12,"first":"06:18","last":{"MonFri":"00:18","Sat":"00:18","Sun":"00:18"},"freq":{"MonFri":[3,5],"Sat":[5,5],"Sun":[5,5]}},{"r":"PH","to":"Sentul Timur","seq":18,"first":"06:41","last":{"MonFri":"00:41","Sat":"00:41","Sun":"00:41"},"freq":{"MonFri":[3,5],"Sat":[5,5],"Sun":[5,5]}}]},"geometry":{"type":"Point","coordinates":[101.71418,3.11261]}},{"type":"Feature","properties":{"name":"CHOW KIT","routes":["MR"],"names":["KL Monorail Line"],"colors":["#84bd00"],"color":"#84bd00","interchange":false,"oku":true,"lines":[{"r":"MR","to":"KL Sentral","seq":2,"first":"06:03","last":{"MonFri":"23:32","Sat":"23:32","Sun":"23:32"},"freq":{"MonFri":[7,10],"Sat":[12,12],"Sun":[12,12]}},{"r":"MR","to":"Titiwangsa","seq":10,"first":"06:23","last":{"MonFri":"23:53","Sat":"23:53","Sun":"23:53"},"freq":{"MonFri":[7,10],"Sat":[12,12],"Sun":[12,12]}}]},"geometry":{"type":"Point","coordinates":[101.69838,3.16736]}},{"type":"Feature","properties":{"name":"CONLAY","routes":["PYL"],"names":["MRT Putrajaya Line"],"colors":["#FFCD00"],"color":"#FFCD00","interchange":false,"oku":true,"lines":[{"r":"PYL","to":"Kwasa Damansara","seq":16,"first":"06:35","last":{"MonFri":"00:34","Sat":"23:29","Sun":"23:29"},"freq":{"MonFri":[4,14],"Sat":[10,10],"Sun":[10,10]}},{"r":"PYL","to":"Putrajaya","seq":21,"first":"06:33","last":{"MonFri":"00:32","Sat":"23:27","Sun":"23:27"},"freq":{"MonFri":[5,12],"Sat":[10,10],"Sun":[10,10]}}]},"geometry":{"type":"Point","coordinates":[101.71801,3.15145]}},{"type":"Feature","properties":{"name":"CYBERJAYA CITY CENTRE","routes":["PYL"],"names":["MRT Putrajaya Line"],"colors":["#FFCD00"],"color":"#FFCD00","interchange":false,"oku":true,"lines":[{"r":"PYL","to":"Kwasa Damansara","seq":2,"first":"06:01","last":{"MonFri":"00:01","Sat":"22:56","Sun":"22:56"},"freq":{"MonFri":[4,14],"Sat":[10,10],"Sun":[10,10]}},{"r":"PYL","to":"Putrajaya","seq":35,"first":"07:07","last":{"MonFri":"01:06","Sat":"00:01","Sun":"00:01"},"freq":{"MonFri":[5,12],"Sat":[10,10],"Sun":[10,10]}}]},"geometry":{"type":"Point","coordinates":[101.6659,2.9384]}},{"type":"Feature","properties":{"name":"CYBERJAYA UTARA","routes":["PYL"],"names":["MRT Putrajaya Line"],"colors":["#FFCD00"],"color":"#FFCD00","interchange":false,"oku":true,"lines":[{"r":"PYL","to":"Kwasa Damansara","seq":3,"first":"06:03","last":{"MonFri":"00:03","Sat":"22:58","Sun":"22:58"},"freq":{"MonFri":[4,14],"Sat":[10,10],"Sun":[10,10]}},{"r":"PYL","to":"Putrajaya","seq":34,"first":"07:04","last":{"MonFri":"01:04","Sat":"23:59","Sun":"23:59"},"freq":{"MonFri":[5,12],"Sat":[10,10],"Sun":[10,10]}}]},"geometry":{"type":"Point","coordinates":[101.6573,2.95]}},{"type":"Feature","properties":{"name":"DAMAI","routes":["KJ"],"names":["LRT Kelana Jaya Line"],"colors":["#D50032"],"color":"#D50032","interchange":false,"oku":true,"lines":[{"r":"KJ","to":"Gombak","seq":30,"first":"07:19","last":{"MonFri":"00:34","Sat":"00:34","Sun":"00:34"},"freq":{"MonFri":[4,7],"Sat":[7,7],"Sun":[7,7]}},{"r":"KJ","to":"Putra Heights","seq":8,"first":"06:19","last":{"MonFri":"23:33","Sat":"23:33","Sun":"23:33"},"freq":{"MonFri":[4,7],"Sat":[7,7],"Sun":[7,7]}}]},"geometry":{"type":"Point","coordinates":[101.72449,3.16441]}},{"type":"Feature","properties":{"name":"DAMANSARA DAMAI","routes":["PYL"],"names":["MRT Putrajaya Line"],"colors":["#FFCD00"],"color":"#FFCD00","interchange":false,"oku":true,"lines":[{"r":"PYL","to":"Kwasa Damansara","seq":33,"first":"07:01","last":{"MonFri":"01:00","Sat":"23:55","Sun":"23:55"},"freq":{"MonFri":[4,14],"Sat":[10,10],"Sun":[10,10]}},{"r":"PYL","to":"Putrajaya","seq":4,"first":"06:07","last":{"MonFri":"00:07","Sat":"23:02","Sun":"23:02"},"freq":{"MonFri":[5,12],"Sat":[10,10],"Sun":[10,10]}}]},"geometry":{"type":"Point","coordinates":[101.59262,3.19989]}},{"type":"Feature","properties":{"name":"DAMANSARA IDAMAN","routes":["SA"],"names":["LRT Shah Alam Line"],"colors":["#00A9E0"],"color":"#00A9E0","interchange":false,"oku":true,"lines":[{"r":"SA","to":"Bandar Utama","seq":21,"first":"06:58","last":{"MonFri":"00:37","Sat":"00:37","Sun":"00:07"},"freq":{"MonFri":[8,10],"Sat":[10,10],"Sun":[10,10]}},{"r":"SA","to":"Johan Setia","seq":4,"first":"06:08","last":{"MonFri":"00:07","Sat":"00:07","Sun":"23:37"},"freq":{"MonFri":[8,10],"Sat":[10,10],"Sun":[10,10]}}]},"geometry":{"type":"Point","coordinates":[101.59417,3.12278]}},{"type":"Feature","properties":{"name":"DANG WANGI","routes":["KJ"],"names":["LRT Kelana Jaya Line"],"colors":["#D50032"],"color":"#D50032","interchange":false,"oku":true,"lines":[{"r":"KJ","to":"Gombak","seq":26,"first":"07:10","last":{"MonFri":"00:25","Sat":"00:25","Sun":"00:25"},"freq":{"MonFri":[4,7],"Sat":[7,7],"Sun":[7,7]}},{"r":"KJ","to":"Putra Heights","seq":12,"first":"06:28","last":{"MonFri":"23:43","Sat":"23:43","Sun":"23:43"},"freq":{"MonFri":[4,7],"Sat":[7,7],"Sun":[7,7]}}]},"geometry":{"type":"Point","coordinates":[101.70198,3.15694]}},{"type":"Feature","properties":{"name":"DATO' MENTERI - SA SENTRAL","routes":["SA"],"names":["LRT Shah Alam Line"],"colors":["#00A9E0"],"color":"#00A9E0","interchange":false,"oku":true,"lines":[{"r":"SA","to":"Bandar Utama","seq":14,"first":"06:36","last":{"MonFri":"00:16","Sat":"00:16","Sun":"23:46"},"freq":{"MonFri":[8,10],"Sat":[10,10],"Sun":[10,10]}},{"r":"SA","to":"Johan Setia","seq":11,"first":"06:29","last":{"MonFri":"00:29","Sat":"00:29","Sun":"23:59"},"freq":{"MonFri":[8,10],"Sat":[10,10],"Sun":[10,10]}}]},"geometry":{"type":"Point","coordinates":[101.52111,3.06972]}},{"type":"Feature","properties":{"name":"GLENMARIE","routes":["KJ"],"names":["LRT Kelana Jaya Line"],"colors":["#D50032"],"color":"#D50032","interchange":false,"oku":true,"lines":[{"r":"KJ","to":"Gombak","seq":11,"first":"06:30","last":{"MonFri":"23:45","Sat":"23:45","Sun":"23:45"},"freq":{"MonFri":[4,7],"Sat":[7,7],"Sun":[7,7]}},{"r":"KJ","to":"Putra Heights","seq":27,"first":"07:07","last":{"MonFri":"00:22","Sat":"00:22","Sun":"00:22"},"freq":{"MonFri":[4,7],"Sat":[7,7],"Sun":[7,7]}}]},"geometry":{"type":"Point","coordinates":[101.59062,3.09473]}},{"type":"Feature","properties":{"name":"GLENMARIE 2","routes":["SA"],"names":["LRT Shah Alam Line"],"colors":["#00A9E0"],"color":"#00A9E0","interchange":false,"oku":true,"lines":[{"r":"SA","to":"Bandar Utama","seq":19,"first":"06:52","last":{"MonFri":"00:31","Sat":"00:31","Sun":"00:01"},"freq":{"MonFri":[8,10],"Sat":[10,10],"Sun":[10,10]}},{"r":"SA","to":"Johan Setia","seq":6,"first":"06:14","last":{"MonFri":"00:13","Sat":"00:13","Sun":"23:43"},"freq":{"MonFri":[8,10],"Sat":[10,10],"Sun":[10,10]}}]},"geometry":{"type":"Point","coordinates":[101.58861,3.09528]}},{"type":"Feature","properties":{"name":"GOMBAK","routes":["KJ"],"names":["LRT Kelana Jaya Line"],"colors":["#D50032"],"color":"#D50032","interchange":false,"oku":true,"lines":[{"r":"KJ","to":"Gombak","seq":37,"first":"07:38","last":{"MonFri":"00:53","Sat":"00:53","Sun":"00:53"},"freq":{"MonFri":[4,7],"Sat":[7,7],"Sun":[7,7]}},{"r":"KJ","to":"Putra Heights","seq":1,"first":"06:00","last":{"MonFri":"23:15","Sat":"23:15","Sun":"23:15"},"freq":{"MonFri":[4,7],"Sat":[7,7],"Sun":[7,7]}}]},"geometry":{"type":"Point","coordinates":[101.72443,3.23179]}},{"type":"Feature","properties":{"name":"HANG TUAH","routes":["AG","MR","PH"],"names":["LRT Ampang Line","KL Monorail Line","LRT Sri Petaling Line"],"colors":["#e57200","#84bd00","#76232f"],"color":"#e57200","interchange":true,"oku":true,"lines":[{"r":"AG","to":"Ampang","seq":9,"first":"06:13","last":{"MonFri":"23:37","Sat":"23:37","Sun":"23:37"},"freq":{"MonFri":[3,5],"Sat":[5,5],"Sun":[5,5]}},{"r":"AG","to":"Sentul Timur","seq":10,"first":"06:15","last":{"MonFri":"23:40","Sat":"23:40","Sun":"23:40"},"freq":{"MonFri":[3,5],"Sat":[5,5],"Sun":[5,5]}},{"r":"MR","to":"KL Sentral","seq":8,"first":"06:16","last":{"MonFri":"23:46","Sat":"23:46","Sun":"23:46"},"freq":{"MonFri":[7,10],"Sat":[12,12],"Sun":[12,12]}},{"r":"MR","to":"Titiwangsa","seq":4,"first":"06:09","last":{"MonFri":"23:39","Sat":"23:39","Sun":"23:39"},"freq":{"MonFri":[7,10],"Sat":[12,12],"Sun":[12,12]}},{"r":"PH","to":"Putra Heights","seq":9,"first":"06:13","last":{"MonFri":"00:12","Sat":"00:12","Sun":"00:12"},"freq":{"MonFri":[3,5],"Sat":[5,5],"Sun":[5,5]}},{"r":"PH","to":"Sentul Timur","seq":21,"first":"06:47","last":{"MonFri":"00:46","Sat":"00:46","Sun":"00:46"},"freq":{"MonFri":[3,5],"Sat":[5,5],"Sun":[5,5]}}]},"geometry":{"type":"Point","coordinates":[101.706,3.14018]}},{"type":"Feature","properties":{"name":"HOSPITAL KUALA LUMPUR","routes":["PYL"],"names":["MRT Putrajaya Line"],"colors":["#FFCD00"],"color":"#FFCD00","interchange":false,"oku":true,"lines":[{"r":"PYL","to":"Kwasa Damansara","seq":20,"first":"06:40","last":{"MonFri":"00:40","Sat":"23:35","Sun":"23:35"},"freq":{"MonFri":[4,14],"Sat":[10,10],"Sun":[10,10]}},{"r":"PYL","to":"Putrajaya","seq":17,"first":"06:27","last":{"MonFri":"00:27","Sat":"23:22","Sun":"23:22"},"freq":{"MonFri":[5,12],"Sat":[10,10],"Sun":[10,10]}}]},"geometry":{"type":"Point","coordinates":[101.70239,3.17405]}},{"type":"Feature","properties":{"name":"IMBI","routes":["MR"],"names":["KL Monorail Line"],"colors":["#84bd00"],"color":"#84bd00","interchange":false,"oku":true,"lines":[{"r":"MR","to":"KL Sentral","seq":7,"first":"06:15","last":{"MonFri":"23:44","Sat":"23:44","Sun":"23:44"},"freq":{"MonFri":[7,10],"Sat":[12,12],"Sun":[12,12]}},{"r":"MR","to":"Titiwangsa","seq":5,"first":"06:11","last":{"MonFri":"23:41","Sat":"23:41","Sun":"23:41"},"freq":{"MonFri":[7,10],"Sat":[12,12],"Sun":[12,12]}}]},"geometry":{"type":"Point","coordinates":[101.70945,3.14283]}},{"type":"Feature","properties":{"name":"IOI PUCHONG JAYA","routes":["PH"],"names":["LRT Sri Petaling Line"],"colors":["#76232f"],"color":"#76232f","interchange":false,"oku":true,"lines":[{"r":"PH","to":"Putra Heights","seq":23,"first":"06:46","last":{"MonFri":"00:46","Sat":"00:46","Sun":"00:46"},"freq":{"MonFri":[3,5],"Sat":[5,5],"Sun":[5,5]}},{"r":"PH","to":"Sentul Timur","seq":7,"first":"06:14","last":{"MonFri":"00:13","Sat":"00:13","Sun":"00:13"},"freq":{"MonFri":[3,5],"Sat":[5,5],"Sun":[5,5]}}]},"geometry":{"type":"Point","coordinates":[101.62095,3.0481]}},{"type":"Feature","properties":{"name":"JALAN IPOH","routes":["PYL"],"names":["MRT Putrajaya Line"],"colors":["#FFCD00"],"color":"#FFCD00","interchange":false,"oku":true,"lines":[{"r":"PYL","to":"Kwasa Damansara","seq":23,"first":"06:45","last":{"MonFri":"00:45","Sat":"23:40","Sun":"23:40"},"freq":{"MonFri":[4,14],"Sat":[10,10],"Sun":[10,10]}},{"r":"PYL","to":"Putrajaya","seq":14,"first":"06:22","last":{"MonFri":"00:22","Sat":"23:17","Sun":"23:17"},"freq":{"MonFri":[5,12],"Sat":[10,10],"Sun":[10,10]}}]},"geometry":{"type":"Point","coordinates":[101.68115,3.18932]}},{"type":"Feature","properties":{"name":"JALAN MERU","routes":["SA"],"names":["LRT Shah Alam Line"],"colors":["#00A9E0"],"color":"#00A9E0","interchange":false,"oku":true,"lines":[{"r":"SA","to":"Bandar Utama","seq":8,"first":"06:19","last":{"MonFri":"23:59","Sat":"23:59","Sun":"23:29"},"freq":{"MonFri":[8,10],"Sat":[10,10],"Sun":[10,10]}},{"r":"SA","to":"Johan Setia","seq":17,"first":"06:47","last":{"MonFri":"00:46","Sat":"00:46","Sun":"00:16"},"freq":{"MonFri":[8,10],"Sat":[10,10],"Sun":[10,10]}}]},"geometry":{"type":"Point","coordinates":[101.45194,3.05889]}},{"type":"Feature","properties":{"name":"JAMBATAN KOTA","routes":["SA"],"names":["LRT Shah Alam Line"],"colors":["#00A9E0"],"color":"#00A9E0","interchange":false,"oku":true,"lines":[{"r":"SA","to":"Bandar Utama","seq":7,"first":"06:16","last":{"MonFri":"23:56","Sat":"23:56","Sun":"23:26"},"freq":{"MonFri":[8,10],"Sat":[10,10],"Sun":[10,10]}},{"r":"SA","to":"Johan Setia","seq":18,"first":"06:49","last":{"MonFri":"00:49","Sat":"00:49","Sun":"00:19"},"freq":{"MonFri":[8,10],"Sat":[10,10],"Sun":[10,10]}}]},"geometry":{"type":"Point","coordinates":[101.4475,3.04722]}},{"type":"Feature","properties":{"name":"JELATEK","routes":["KJ"],"names":["LRT Kelana Jaya Line"],"colors":["#D50032"],"color":"#D50032","interchange":false,"oku":true,"lines":[{"r":"KJ","to":"Gombak","seq":32,"first":"07:23","last":{"MonFri":"00:38","Sat":"00:38","Sun":"00:38"},"freq":{"MonFri":[4,7],"Sat":[7,7],"Sun":[7,7]}},{"r":"KJ","to":"Putra Heights","seq":6,"first":"06:14","last":{"MonFri":"23:29","Sat":"23:29","Sun":"23:29"},"freq":{"MonFri":[4,7],"Sat":[7,7],"Sun":[7,7]}}]},"geometry":{"type":"Point","coordinates":[101.73534,3.1672]}},{"type":"Feature","properties":{"name":"JINJANG","routes":["PYL"],"names":["MRT Putrajaya Line"],"colors":["#FFCD00"],"color":"#FFCD00","interchange":false,"oku":true,"lines":[{"r":"PYL","to":"Kwasa Damansara","seq":27,"first":"06:51","last":{"MonFri":"00:51","Sat":"23:46","Sun":"23:46"},"freq":{"MonFri":[4,14],"Sat":[10,10],"Sun":[10,10]}},{"r":"PYL","to":"Putrajaya","seq":10,"first":"06:17","last":{"MonFri":"00:16","Sat":"23:11","Sun":"23:11"},"freq":{"MonFri":[5,12],"Sat":[10,10],"Sun":[10,10]}}]},"geometry":{"type":"Point","coordinates":[101.65583,3.20954]}},{"type":"Feature","properties":{"name":"JOHAN SETIA","routes":["SA"],"names":["LRT Shah Alam Line"],"colors":["#00A9E0"],"color":"#00A9E0","interchange":false,"oku":true,"lines":[{"r":"SA","to":"Bandar Utama","seq":1,"first":"06:00","last":{"MonFri":"23:40","Sat":"23:40","Sun":"23:10"},"freq":{"MonFri":[8,10],"Sat":[10,10],"Sun":[10,10]}},{"r":"SA","to":"Johan Setia","seq":24,"first":"07:06","last":{"MonFri":"01:05","Sat":"01:05","Sun":"00:35"},"freq":{"MonFri":[8,10],"Sat":[10,10],"Sun":[10,10]}}]},"geometry":{"type":"Point","coordinates":[101.45917,2.97611]}},{"type":"Feature","properties":{"name":"KAMPUNG BARU - CBP COOPBANK PERTAMA","routes":["KJ"],"names":["LRT Kelana Jaya Line"],"colors":["#D50032"],"color":"#D50032","interchange":false,"oku":true,"lines":[{"r":"KJ","to":"Gombak","seq":27,"first":"07:12","last":{"MonFri":"00:27","Sat":"00:27","Sun":"00:27"},"freq":{"MonFri":[4,7],"Sat":[7,7],"Sun":[7,7]}},{"r":"KJ","to":"Putra Heights","seq":11,"first":"06:26","last":{"MonFri":"23:41","Sat":"23:41","Sun":"23:41"},"freq":{"MonFri":[4,7],"Sat":[7,7],"Sun":[7,7]}}]},"geometry":{"type":"Point","coordinates":[101.70661,3.16139]}},{"type":"Feature","properties":{"name":"KAMPUNG BATU","routes":["PYL"],"names":["MRT Putrajaya Line"],"colors":["#FFCD00"],"color":"#FFCD00","interchange":false,"oku":true,"lines":[{"r":"PYL","to":"Kwasa Damansara","seq":25,"first":"06:48","last":{"MonFri":"00:48","Sat":"23:43","Sun":"23:43"},"freq":{"MonFri":[4,14],"Sat":[10,10],"Sun":[10,10]}},{"r":"PYL","to":"Putrajaya","seq":12,"first":"06:19","last":{"MonFri":"00:19","Sat":"23:14","Sun":"23:14"},"freq":{"MonFri":[5,12],"Sat":[10,10],"Sun":[10,10]}}]},"geometry":{"type":"Point","coordinates":[101.67547,3.20552]}},{"type":"Feature","properties":{"name":"KAMPUNG SELAMAT","routes":["PYL"],"names":["MRT Putrajaya Line"],"colors":["#FFCD00"],"color":"#FFCD00","interchange":false,"oku":true,"lines":[{"r":"PYL","to":"Kwasa Damansara","seq":35,"first":"07:05","last":{"MonFri":"01:04","Sat":"23:59","Sun":"23:59"},"freq":{"MonFri":[4,14],"Sat":[10,10],"Sun":[10,10]}},{"r":"PYL","to":"Putrajaya","seq":2,"first":"06:03","last":{"MonFri":"00:03","Sat":"22:58","Sun":"22:58"},"freq":{"MonFri":[5,12],"Sat":[10,10],"Sun":[10,10]}}]},"geometry":{"type":"Point","coordinates":[101.5785,3.19727]}},{"type":"Feature","properties":{"name":"KAYU ARA","routes":["SA"],"names":["LRT Shah Alam Line"],"colors":["#00A9E0"],"color":"#00A9E0","interchange":false,"oku":true,"lines":[{"r":"SA","to":"Bandar Utama","seq":23,"first":"07:03","last":{"MonFri":"00:43","Sat":"00:43","Sun":"00:13"},"freq":{"MonFri":[8,10],"Sat":[10,10],"Sun":[10,10]}},{"r":"SA","to":"Johan Setia","seq":2,"first":"06:02","last":{"MonFri":"00:02","Sat":"00:02","Sun":"23:32"},"freq":{"MonFri":[8,10],"Sat":[10,10],"Sun":[10,10]}}]},"geometry":{"type":"Point","coordinates":[101.61667,3.13472]}},{"type":"Feature","properties":{"name":"KELANA JAYA","routes":["KJ"],"names":["LRT Kelana Jaya Line"],"colors":["#D50032"],"color":"#D50032","interchange":false,"oku":true,"lines":[{"r":"KJ","to":"Gombak","seq":14,"first":"06:38","last":{"MonFri":"23:53","Sat":"23:53","Sun":"23:53"},"freq":{"MonFri":[4,7],"Sat":[7,7],"Sun":[7,7]}},{"r":"KJ","to":"Putra Heights","seq":24,"first":"07:00","last":{"MonFri":"00:15","Sat":"00:15","Sun":"00:15"},"freq":{"MonFri":[4,7],"Sat":[7,7],"Sun":[7,7]}}]},"geometry":{"type":"Point","coordinates":[101.6043,3.1125]}},{"type":"Feature","properties":{"name":"KENTOMEN","routes":["PYL"],"names":["MRT Putrajaya Line"],"colors":["#FFCD00"],"color":"#FFCD00","interchange":false,"oku":true,"lines":[{"r":"PYL","to":"Kwasa Damansara","seq":24,"first":"06:46","last":{"MonFri":"00:46","Sat":"23:41","Sun":"23:41"},"freq":{"MonFri":[4,14],"Sat":[10,10],"Sun":[10,10]}},{"r":"PYL","to":"Putrajaya","seq":13,"first":"06:21","last":{"MonFri":"00:21","Sat":"23:16","Sun":"23:16"},"freq":{"MonFri":[5,12],"Sat":[10,10],"Sun":[10,10]}}]},"geometry":{"type":"Point","coordinates":[101.6797,3.19563]}},{"type":"Feature","properties":{"name":"KEPONG BARU","routes":["PYL"],"names":["MRT Putrajaya Line"],"colors":["#FFCD00"],"color":"#FFCD00","interchange":false,"oku":true,"lines":[{"r":"PYL","to":"Kwasa Damansara","seq":28,"first":"06:52","last":{"MonFri":"00:52","Sat":"23:47","Sun":"23:47"},"freq":{"MonFri":[4,14],"Sat":[10,10],"Sun":[10,10]}},{"r":"PYL","to":"Putrajaya","seq":9,"first":"06:15","last":{"MonFri":"00:15","Sat":"23:10","Sun":"23:10"},"freq":{"MonFri":[5,12],"Sat":[10,10],"Sun":[10,10]}}]},"geometry":{"type":"Point","coordinates":[101.64819,3.21166]}},{"type":"Feature","properties":{"name":"KERINCHI","routes":["KJ"],"names":["LRT Kelana Jaya Line"],"colors":["#D50032"],"color":"#D50032","interchange":false,"oku":true,"lines":[{"r":"KJ","to":"Gombak","seq":20,"first":"06:53","last":{"MonFri":"00:08","Sat":"00:08","Sun":"00:08"},"freq":{"MonFri":[4,7],"Sat":[7,7],"Sun":[7,7]}},{"r":"KJ","to":"Putra Heights","seq":18,"first":"06:44","last":{"MonFri":"23:59","Sat":"23:59","Sun":"23:59"},"freq":{"MonFri":[4,7],"Sat":[7,7],"Sun":[7,7]}}]},"geometry":{"type":"Point","coordinates":[101.66857,3.11551]}},{"type":"Feature","properties":{"name":"KERJAYA","routes":["SA"],"names":["LRT Shah Alam Line"],"colors":["#00A9E0"],"color":"#00A9E0","interchange":false,"oku":true,"lines":[{"r":"SA","to":"Bandar Utama","seq":17,"first":"06:46","last":{"MonFri":"00:25","Sat":"00:25","Sun":"23:55"},"freq":{"MonFri":[8,10],"Sat":[10,10],"Sun":[10,10]}},{"r":"SA","to":"Johan Setia","seq":8,"first":"06:20","last":{"MonFri":"00:20","Sat":"00:20","Sun":"23:50"},"freq":{"MonFri":[8,10],"Sat":[10,10],"Sun":[10,10]}}]},"geometry":{"type":"Point","coordinates":[101.56194,3.08222]}},{"type":"Feature","properties":{"name":"KINRARA","routes":["PH"],"names":["LRT Sri Petaling Line"],"colors":["#76232f"],"color":"#76232f","interchange":false,"oku":true,"lines":[{"r":"PH","to":"Putra Heights","seq":22,"first":"06:42","last":{"MonFri":"00:42","Sat":"00:42","Sun":"00:42"},"freq":{"MonFri":[3,5],"Sat":[5,5],"Sun":[5,5]}},{"r":"PH","to":"Sentul Timur","seq":8,"first":"06:18","last":{"MonFri":"00:17","Sat":"00:17","Sun":"00:17"},"freq":{"MonFri":[3,5],"Sat":[5,5],"Sun":[5,5]}}]},"geometry":{"type":"Point","coordinates":[101.64429,3.05051]}},{"type":"Feature","properties":{"name":"KL SENTRAL","routes":["MR"],"names":["KL Monorail Line"],"colors":["#84bd00"],"color":"#84bd00","interchange":false,"oku":true,"lines":[{"r":"MR","to":"KL Sentral","seq":11,"first":"06:26","last":{"MonFri":"23:56","Sat":"23:56","Sun":"23:56"},"freq":{"MonFri":[7,10],"Sat":[12,12],"Sun":[12,12]}},{"r":"MR","to":"Titiwangsa","seq":1,"first":"06:00","last":{"MonFri":"23:30","Sat":"23:30","Sun":"23:30"},"freq":{"MonFri":[7,10],"Sat":[12,12],"Sun":[12,12]}}]},"geometry":{"type":"Point","coordinates":[101.68782,3.13285]}},{"type":"Feature","properties":{"name":"KL SENTRAL - REDONE","routes":["KJ"],"names":["LRT Kelana Jaya Line"],"colors":["#D50032"],"color":"#D50032","interchange":false,"oku":true,"lines":[{"r":"KJ","to":"Gombak","seq":23,"first":"07:01","last":{"MonFri":"00:16","Sat":"00:16","Sun":"00:16"},"freq":{"MonFri":[4,7],"Sat":[7,7],"Sun":[7,7]}},{"r":"KJ","to":"Putra Heights","seq":15,"first":"06:37","last":{"MonFri":"23:52","Sat":"23:52","Sun":"23:52"},"freq":{"MonFri":[4,7],"Sat":[7,7],"Sun":[7,7]}}]},"geometry":{"type":"Point","coordinates":[101.68625,3.13442]}},{"type":"Feature","properties":{"name":"KLANG JAYA","routes":["SA"],"names":["LRT Shah Alam Line"],"colors":["#00A9E0"],"color":"#00A9E0","interchange":false,"oku":true,"lines":[{"r":"SA","to":"Bandar Utama","seq":4,"first":"06:07","last":{"MonFri":"23:47","Sat":"23:47","Sun":"23:17"},"freq":{"MonFri":[8,10],"Sat":[10,10],"Sun":[10,10]}},{"r":"SA","to":"Johan Setia","seq":21,"first":"06:58","last":{"MonFri":"00:58","Sat":"00:58","Sun":"00:28"},"freq":{"MonFri":[8,10],"Sat":[10,10],"Sun":[10,10]}}]},"geometry":{"type":"Point","coordinates":[101.44167,3.00528]}},{"type":"Feature","properties":{"name":"KLCC","routes":["KJ"],"names":["LRT Kelana Jaya Line"],"colors":["#D50032"],"color":"#D50032","interchange":false,"oku":true,"lines":[{"r":"KJ","to":"Gombak","seq":28,"first":"07:15","last":{"MonFri":"00:29","Sat":"00:29","Sun":"00:29"},"freq":{"MonFri":[4,7],"Sat":[7,7],"Sun":[7,7]}},{"r":"KJ","to":"Putra Heights","seq":10,"first":"06:24","last":{"MonFri":"23:38","Sat":"23:38","Sun":"23:38"},"freq":{"MonFri":[4,7],"Sat":[7,7],"Sun":[7,7]}}]},"geometry":{"type":"Point","coordinates":[101.71329,3.15894]}},{"type":"Feature","properties":{"name":"KUCHAI","routes":["PYL"],"names":["MRT Putrajaya Line"],"colors":["#FFCD00"],"color":"#FFCD00","interchange":false,"oku":true,"lines":[{"r":"PYL","to":"Kwasa Damansara","seq":13,"first":"06:25","last":{"MonFri":"00:25","Sat":"23:20","Sun":"23:20"},"freq":{"MonFri":[4,14],"Sat":[10,10],"Sun":[10,10]}},{"r":"PYL","to":"Putrajaya","seq":24,"first":"06:42","last":{"MonFri":"00:42","Sat":"23:37","Sun":"23:37"},"freq":{"MonFri":[5,12],"Sat":[10,10],"Sun":[10,10]}}]},"geometry":{"type":"Point","coordinates":[101.69412,3.08955]}},{"type":"Feature","properties":{"name":"KWASA DAMANSARA","routes":["PYL"],"names":["MRT Putrajaya Line"],"colors":["#FFCD00"],"color":"#FFCD00","interchange":false,"oku":true,"lines":[{"r":"KGL","to":"Kajang","seq":1,"first":"06:00","last":{"MonFri":"00:00","Sat":"22:55","Sun":"22:55"},"freq":{"MonFri":[6,10],"Sat":[10,10],"Sun":[10,10]}},{"r":"KGL","to":"Kwasa Damansara","seq":29,"first":"07:28","last":{"MonFri":"01:28","Sat":"00:23","Sun":"00:23"},"freq":{"MonFri":[6,10],"Sat":[10,10],"Sun":[10,10]}},{"r":"PYL","to":"Kwasa Damansara","seq":36,"first":"07:08","last":{"MonFri":"01:07","Sat":"00:02","Sun":"00:02"},"freq":{"MonFri":[4,14],"Sat":[10,10],"Sun":[10,10]}},{"r":"PYL","to":"Putrajaya","seq":1,"first":"06:00","last":{"MonFri":"00:00","Sat":"22:55","Sun":"22:55"},"freq":{"MonFri":[5,12],"Sat":[10,10],"Sun":[10,10]}}]},"geometry":{"type":"Point","coordinates":[101.57215,3.17633]}},{"type":"Feature","properties":{"name":"LEMBAH SUBANG","routes":["KJ"],"names":["LRT Kelana Jaya Line"],"colors":["#D50032"],"color":"#D50032","interchange":false,"oku":true,"lines":[{"r":"KJ","to":"Gombak","seq":13,"first":"06:35","last":{"MonFri":"23:50","Sat":"23:50","Sun":"23:50"},"freq":{"MonFri":[4,7],"Sat":[7,7],"Sun":[7,7]}},{"r":"KJ","to":"Putra Heights","seq":25,"first":"07:03","last":{"MonFri":"00:18","Sat":"00:18","Sun":"00:18"},"freq":{"MonFri":[4,7],"Sat":[7,7],"Sun":[7,7]}}]},"geometry":{"type":"Point","coordinates":[101.59103,3.11209]}},{"type":"Feature","properties":{"name":"MAHARAJALELA","routes":["MR"],"names":["KL Monorail Line"],"colors":["#84bd00"],"color":"#84bd00","interchange":false,"oku":true,"lines":[{"r":"MR","to":"KL Sentral","seq":9,"first":"06:19","last":{"MonFri":"23:49","Sat":"23:49","Sun":"23:49"},"freq":{"MonFri":[7,10],"Sat":[12,12],"Sun":[12,12]}},{"r":"MR","to":"Titiwangsa","seq":3,"first":"06:06","last":{"MonFri":"23:36","Sat":"23:36","Sun":"23:36"},"freq":{"MonFri":[7,10],"Sat":[12,12],"Sun":[12,12]}}]},"geometry":{"type":"Point","coordinates":[101.69927,3.13874]}},{"type":"Feature","properties":{"name":"MALURI","routes":["AG"],"names":["LRT Ampang Line"],"colors":["#e57200"],"color":"#e57200","interchange":false,"oku":true,"lines":[{"r":"AG","to":"Ampang","seq":13,"first":"06:19","last":{"MonFri":"23:44","Sat":"23:44","Sun":"23:44"},"freq":{"MonFri":[3,5],"Sat":[5,5],"Sun":[5,5]}},{"r":"AG","to":"Sentul Timur","seq":6,"first":"06:08","last":{"MonFri":"23:33","Sat":"23:33","Sun":"23:33"},"freq":{"MonFri":[3,5],"Sat":[5,5],"Sun":[5,5]}},{"r":"KGL","to":"Kajang","seq":17,"first":"06:51","last":{"MonFri":"00:51","Sat":"23:46","Sun":"23:46"},"freq":{"MonFri":[6,10],"Sat":[10,10],"Sun":[10,10]}},{"r":"KGL","to":"Kwasa Damansara","seq":13,"first":"06:37","last":{"MonFri":"00:37","Sat":"23:32","Sun":"23:32"},"freq":{"MonFri":[6,10],"Sat":[10,10],"Sun":[10,10]}}]},"geometry":{"type":"Point","coordinates":[101.72728,3.12329]}},{"type":"Feature","properties":{"name":"MASJID JAMEK","routes":["AG","KJ","PH"],"names":["LRT Ampang Line","LRT Kelana Jaya Line","LRT Sri Petaling Line"],"colors":["#e57200","#D50032","#76232f"],"color":"#e57200","interchange":true,"oku":true,"lines":[{"r":"AG","to":"Ampang","seq":7,"first":"06:09","last":{"MonFri":"23:34","Sat":"23:34","Sun":"23:34"},"freq":{"MonFri":[3,5],"Sat":[5,5],"Sun":[5,5]}},{"r":"AG","to":"Sentul Timur","seq":12,"first":"06:18","last":{"MonFri":"23:43","Sat":"23:43","Sun":"23:43"},"freq":{"MonFri":[3,5],"Sat":[5,5],"Sun":[5,5]}},{"r":"KJ","to":"Gombak","seq":25,"first":"07:08","last":{"MonFri":"00:23","Sat":"00:23","Sun":"00:23"},"freq":{"MonFri":[4,7],"Sat":[7,7],"Sun":[7,7]}},{"r":"KJ","to":"Putra Heights","seq":13,"first":"06:31","last":{"MonFri":"23:46","Sat":"23:46","Sun":"23:46"},"freq":{"MonFri":[4,7],"Sat":[7,7],"Sun":[7,7]}},{"r":"PH","to":"Putra Heights","seq":7,"first":"06:09","last":{"MonFri":"00:09","Sat":"00:09","Sun":"00:09"},"freq":{"MonFri":[3,5],"Sat":[5,5],"Sun":[5,5]}},{"r":"PH","to":"Sentul Timur","seq":23,"first":"06:50","last":{"MonFri":"00:50","Sat":"00:50","Sun":"00:50"},"freq":{"MonFri":[3,5],"Sat":[5,5],"Sun":[5,5]}}]},"geometry":{"type":"Point","coordinates":[101.69652,3.14942]}},{"type":"Feature","properties":{"name":"MEDAN TUANKU","routes":["MR"],"names":["KL Monorail Line"],"colors":["#84bd00"],"color":"#84bd00","interchange":false,"oku":true,"lines":[{"r":"MR","to":"KL Sentral","seq":3,"first":"06:05","last":{"MonFri":"23:35","Sat":"23:35","Sun":"23:35"},"freq":{"MonFri":[7,10],"Sat":[12,12],"Sun":[12,12]}},{"r":"MR","to":"Titiwangsa","seq":9,"first":"06:20","last":{"MonFri":"23:50","Sat":"23:50","Sun":"23:50"},"freq":{"MonFri":[7,10],"Sat":[12,12],"Sun":[12,12]}}]},"geometry":{"type":"Point","coordinates":[101.69888,3.15935]}},{"type":"Feature","properties":{"name":"METRO PRIMA","routes":["PYL"],"names":["MRT Putrajaya Line"],"colors":["#FFCD00"],"color":"#FFCD00","interchange":false,"oku":true,"lines":[{"r":"PYL","to":"Kwasa Damansara","seq":29,"first":"06:54","last":{"MonFri":"00:53","Sat":"23:48","Sun":"23:48"},"freq":{"MonFri":[4,14],"Sat":[10,10],"Sun":[10,10]}},{"r":"PYL","to":"Putrajaya","seq":8,"first":"06:14","last":{"MonFri":"00:14","Sat":"23:09","Sun":"23:09"},"freq":{"MonFri":[5,12],"Sat":[10,10],"Sun":[10,10]}}]},"geometry":{"type":"Point","coordinates":[101.6394,3.21444]}},{"type":"Feature","properties":{"name":"MIHARJA","routes":["AG"],"names":["LRT Ampang Line"],"colors":["#e57200"],"color":"#e57200","interchange":false,"oku":true,"lines":[{"r":"AG","to":"Ampang","seq":12,"first":"06:17","last":{"MonFri":"23:42","Sat":"23:42","Sun":"23:42"},"freq":{"MonFri":[3,5],"Sat":[5,5],"Sun":[5,5]}},{"r":"AG","to":"Sentul Timur","seq":7,"first":"06:10","last":{"MonFri":"23:35","Sat":"23:35","Sun":"23:35"},"freq":{"MonFri":[3,5],"Sat":[5,5],"Sun":[5,5]}}]},"geometry":{"type":"Point","coordinates":[101.71792,3.12097]}},{"type":"Feature","properties":{"name":"MUHIBBAH","routes":["PH"],"names":["LRT Sri Petaling Line"],"colors":["#76232f"],"color":"#76232f","interchange":false,"oku":true,"lines":[{"r":"PH","to":"Putra Heights","seq":20,"first":"06:36","last":{"MonFri":"00:36","Sat":"00:36","Sun":"00:36"},"freq":{"MonFri":[3,5],"Sat":[5,5],"Sun":[5,5]}},{"r":"PH","to":"Sentul Timur","seq":10,"first":"06:23","last":{"MonFri":"00:23","Sat":"00:23","Sun":"00:23"},"freq":{"MonFri":[3,5],"Sat":[5,5],"Sun":[5,5]}}]},"geometry":{"type":"Point","coordinates":[101.66255,3.06223]}},{"type":"Feature","properties":{"name":"PANDAN INDAH","routes":["AG"],"names":["LRT Ampang Line"],"colors":["#e57200"],"color":"#e57200","interchange":false,"oku":true,"lines":[{"r":"AG","to":"Ampang","seq":15,"first":"06:23","last":{"MonFri":"23:48","Sat":"23:48","Sun":"23:48"},"freq":{"MonFri":[3,5],"Sat":[5,5],"Sun":[5,5]}},{"r":"AG","to":"Sentul Timur","seq":4,"first":"06:05","last":{"MonFri":"23:29","Sat":"23:29","Sun":"23:29"},"freq":{"MonFri":[3,5],"Sat":[5,5],"Sun":[5,5]}}]},"geometry":{"type":"Point","coordinates":[101.74651,3.13458]}},{"type":"Feature","properties":{"name":"PANDAN JAYA","routes":["AG"],"names":["LRT Ampang Line"],"colors":["#e57200"],"color":"#e57200","interchange":false,"oku":true,"lines":[{"r":"AG","to":"Ampang","seq":14,"first":"06:21","last":{"MonFri":"23:46","Sat":"23:46","Sun":"23:46"},"freq":{"MonFri":[3,5],"Sat":[5,5],"Sun":[5,5]}},{"r":"AG","to":"Sentul Timur","seq":5,"first":"06:06","last":{"MonFri":"23:31","Sat":"23:31","Sun":"23:31"},"freq":{"MonFri":[3,5],"Sat":[5,5],"Sun":[5,5]}}]},"geometry":{"type":"Point","coordinates":[101.73912,3.13014]}},{"type":"Feature","properties":{"name":"PASAR KLANG","routes":["SA"],"names":["LRT Shah Alam Line"],"colors":["#00A9E0"],"color":"#00A9E0","interchange":false,"oku":true,"lines":[{"r":"SA","to":"Bandar Utama","seq":9,"first":"06:21","last":{"MonFri":"00:01","Sat":"00:01","Sun":"23:31"},"freq":{"MonFri":[8,10],"Sat":[10,10],"Sun":[10,10]}},{"r":"SA","to":"Johan Setia","seq":16,"first":"06:45","last":{"MonFri":"00:44","Sat":"00:44","Sun":"00:14"},"freq":{"MonFri":[8,10],"Sat":[10,10],"Sun":[10,10]}}]},"geometry":{"type":"Point","coordinates":[101.45083,3.06778]}},{"type":"Feature","properties":{"name":"PASAR SENI","routes":["KJ"],"names":["LRT Kelana Jaya Line"],"colors":["#D50032"],"color":"#D50032","interchange":false,"oku":true,"lines":[{"r":"KGL","to":"Kajang","seq":12,"first":"06:36","last":{"MonFri":"00:36","Sat":"23:31","Sun":"23:31"},"freq":{"MonFri":[6,10],"Sat":[10,10],"Sun":[10,10]}},{"r":"KGL","to":"Kwasa Damansara","seq":18,"first":"06:52","last":{"MonFri":"00:52","Sat":"23:47","Sun":"23:47"},"freq":{"MonFri":[6,10],"Sat":[10,10],"Sun":[10,10]}},{"r":"KJ","to":"Gombak","seq":24,"first":"07:05","last":{"MonFri":"00:19","Sat":"00:19","Sun":"00:19"},"freq":{"MonFri":[4,7],"Sat":[7,7],"Sun":[7,7]}},{"r":"KJ","to":"Putra Heights","seq":14,"first":"06:34","last":{"MonFri":"23:49","Sat":"23:49","Sun":"23:49"},"freq":{"MonFri":[4,7],"Sat":[7,7],"Sun":[7,7]}}]},"geometry":{"type":"Point","coordinates":[101.69531,3.14244]}},{"type":"Feature","properties":{"name":"PERSIARAN KLCC","routes":["PYL"],"names":["MRT Putrajaya Line"],"colors":["#FFCD00"],"color":"#FFCD00","interchange":false,"oku":true,"lines":[{"r":"PYL","to":"Kwasa Damansara","seq":17,"first":"06:36","last":{"MonFri":"00:36","Sat":"23:31","Sun":"23:31"},"freq":{"MonFri":[4,14],"Sat":[10,10],"Sun":[10,10]}},{"r":"PYL","to":"Putrajaya","seq":20,"first":"06:32","last":{"MonFri":"00:31","Sat":"23:26","Sun":"23:26"},"freq":{"MonFri":[5,12],"Sat":[10,10],"Sun":[10,10]}}]},"geometry":{"type":"Point","coordinates":[101.71834,3.15712]}},{"type":"Feature","properties":{"name":"PLAZA RAKYAT","routes":["AG","PH"],"names":["LRT Ampang Line","LRT Sri Petaling Line"],"colors":["#e57200","#76232f"],"color":"#e57200","interchange":true,"oku":true,"lines":[{"r":"AG","to":"Ampang","seq":8,"first":"06:11","last":{"MonFri":"23:36","Sat":"23:36","Sun":"23:36"},"freq":{"MonFri":[3,5],"Sat":[5,5],"Sun":[5,5]}},{"r":"AG","to":"Sentul Timur","seq":11,"first":"06:16","last":{"MonFri":"23:41","Sat":"23:41","Sun":"23:41"},"freq":{"MonFri":[3,5],"Sat":[5,5],"Sun":[5,5]}},{"r":"PH","to":"Putra Heights","seq":8,"first":"06:11","last":{"MonFri":"00:11","Sat":"00:11","Sun":"00:11"},"freq":{"MonFri":[3,5],"Sat":[5,5],"Sun":[5,5]}},{"r":"PH","to":"Sentul Timur","seq":22,"first":"06:48","last":{"MonFri":"00:48","Sat":"00:48","Sun":"00:48"},"freq":{"MonFri":[3,5],"Sat":[5,5],"Sun":[5,5]}}]},"geometry":{"type":"Point","coordinates":[101.70211,3.14405]}},{"type":"Feature","properties":{"name":"PUCHONG PERDANA","routes":["PH"],"names":["LRT Sri Petaling Line"],"colors":["#76232f"],"color":"#76232f","interchange":false,"oku":true,"lines":[{"r":"PH","to":"Putra Heights","seq":27,"first":"06:53","last":{"MonFri":"00:53","Sat":"00:53","Sun":"00:53"},"freq":{"MonFri":[3,5],"Sat":[5,5],"Sun":[5,5]}},{"r":"PH","to":"Sentul Timur","seq":3,"first":"06:06","last":{"MonFri":"00:06","Sat":"00:06","Sun":"00:06"},"freq":{"MonFri":[3,5],"Sat":[5,5],"Sun":[5,5]}}]},"geometry":{"type":"Point","coordinates":[101.60502,3.00791]}},{"type":"Feature","properties":{"name":"PUCHONG PRIMA","routes":["PH"],"names":["LRT Sri Petaling Line"],"colors":["#76232f"],"color":"#76232f","interchange":false,"oku":true,"lines":[{"r":"PH","to":"Putra Heights","seq":28,"first":"06:56","last":{"MonFri":"00:56","Sat":"00:56","Sun":"00:56"},"freq":{"MonFri":[3,5],"Sat":[5,5],"Sun":[5,5]}},{"r":"PH","to":"Sentul Timur","seq":2,"first":"06:04","last":{"MonFri":"00:03","Sat":"00:03","Sun":"00:03"},"freq":{"MonFri":[3,5],"Sat":[5,5],"Sun":[5,5]}}]},"geometry":{"type":"Point","coordinates":[101.59669,2.99981]}},{"type":"Feature","properties":{"name":"PUDU","routes":["AG","PH"],"names":["LRT Ampang Line","LRT Sri Petaling Line"],"colors":["#e57200","#76232f"],"color":"#e57200","interchange":true,"oku":true,"lines":[{"r":"AG","to":"Ampang","seq":10,"first":"06:14","last":{"MonFri":"23:39","Sat":"23:39","Sun":"23:39"},"freq":{"MonFri":[3,5],"Sat":[5,5],"Sun":[5,5]}},{"r":"AG","to":"Sentul Timur","seq":9,"first":"06:13","last":{"MonFri":"23:38","Sat":"23:38","Sun":"23:38"},"freq":{"MonFri":[3,5],"Sat":[5,5],"Sun":[5,5]}},{"r":"PH","to":"Putra Heights","seq":10,"first":"06:14","last":{"MonFri":"00:14","Sat":"00:14","Sun":"00:14"},"freq":{"MonFri":[3,5],"Sat":[5,5],"Sun":[5,5]}},{"r":"PH","to":"Sentul Timur","seq":20,"first":"06:45","last":{"MonFri":"00:45","Sat":"00:45","Sun":"00:45"},"freq":{"MonFri":[3,5],"Sat":[5,5],"Sun":[5,5]}}]},"geometry":{"type":"Point","coordinates":[101.71196,3.13488]}},{"type":"Feature","properties":{"name":"PUSAT BANDAR PUCHONG","routes":["PH"],"names":["LRT Sri Petaling Line"],"colors":["#76232f"],"color":"#76232f","interchange":false,"oku":true,"lines":[{"r":"PH","to":"Putra Heights","seq":24,"first":"06:47","last":{"MonFri":"00:47","Sat":"00:47","Sun":"00:47"},"freq":{"MonFri":[3,5],"Sat":[5,5],"Sun":[5,5]}},{"r":"PH","to":"Sentul Timur","seq":6,"first":"06:12","last":{"MonFri":"00:12","Sat":"00:12","Sun":"00:12"},"freq":{"MonFri":[3,5],"Sat":[5,5],"Sun":[5,5]}}]},"geometry":{"type":"Point","coordinates":[101.61606,3.03319]}},{"type":"Feature","properties":{"name":"PUTRA HEIGHTS","routes":["KJ","PH"],"names":["LRT Kelana Jaya Line","LRT Sri Petaling Line"],"colors":["#D50032","#76232f"],"color":"#D50032","interchange":true,"oku":true,"lines":[{"r":"KJ","to":"Gombak","seq":1,"first":"06:00","last":{"MonFri":"23:15","Sat":"23:15","Sun":"23:15"},"freq":{"MonFri":[4,7],"Sat":[7,7],"Sun":[7,7]}},{"r":"KJ","to":"Putra Heights","seq":37,"first":"07:38","last":{"MonFri":"00:53","Sat":"00:53","Sun":"00:53"},"freq":{"MonFri":[4,7],"Sat":[7,7],"Sun":[7,7]}},{"r":"PH","to":"Putra Heights","seq":29,"first":"07:00","last":{"MonFri":"01:00","Sat":"01:00","Sun":"01:00"},"freq":{"MonFri":[3,5],"Sat":[5,5],"Sun":[5,5]}},{"r":"PH","to":"Sentul Timur","seq":1,"first":"06:00","last":{"MonFri":"00:00","Sat":"00:00","Sun":"00:00"},"freq":{"MonFri":[3,5],"Sat":[5,5],"Sun":[5,5]}}]},"geometry":{"type":"Point","coordinates":[101.57549,2.99612]}},{"type":"Feature","properties":{"name":"PUTRA PERMAI","routes":["PYL"],"names":["MRT Putrajaya Line"],"colors":["#FFCD00"],"color":"#FFCD00","interchange":false,"oku":true,"lines":[{"r":"PYL","to":"Kwasa Damansara","seq":5,"first":"06:08","last":{"MonFri":"00:08","Sat":"23:03","Sun":"23:03"},"freq":{"MonFri":[4,14],"Sat":[10,10],"Sun":[10,10]}},{"r":"PYL","to":"Putrajaya","seq":32,"first":"07:00","last":{"MonFri":"00:59","Sat":"23:54","Sun":"23:54"},"freq":{"MonFri":[5,12],"Sat":[10,10],"Sun":[10,10]}}]},"geometry":{"type":"Point","coordinates":[101.66099,2.98339]}},{"type":"Feature","properties":{"name":"PUTRAJAYA SENTRAL","routes":["PYL"],"names":["MRT Putrajaya Line"],"colors":["#FFCD00"],"color":"#FFCD00","interchange":false,"oku":true,"lines":[{"r":"PYL","to":"Kwasa Damansara","seq":1,"first":"06:00","last":{"MonFri":"00:00","Sat":"22:55","Sun":"22:55"},"freq":{"MonFri":[4,14],"Sat":[10,10],"Sun":[10,10]}},{"r":"PYL","to":"Putrajaya","seq":36,"first":"07:08","last":{"MonFri":"01:07","Sat":"00:02","Sun":"00:02"},"freq":{"MonFri":[5,12],"Sat":[10,10],"Sun":[10,10]}}]},"geometry":{"type":"Point","coordinates":[101.6715,2.9313]}},{"type":"Feature","properties":{"name":"PWTC","routes":["AG","PH"],"names":["LRT Ampang Line","LRT Sri Petaling Line"],"colors":["#e57200","#76232f"],"color":"#e57200","interchange":true,"oku":true,"lines":[{"r":"AG","to":"Ampang","seq":4,"first":"06:04","last":{"MonFri":"23:29","Sat":"23:29","Sun":"23:29"},"freq":{"MonFri":[3,5],"Sat":[5,5],"Sun":[5,5]}},{"r":"AG","to":"Sentul Timur","seq":15,"first":"06:23","last":{"MonFri":"23:48","Sat":"23:48","Sun":"23:48"},"freq":{"MonFri":[3,5],"Sat":[5,5],"Sun":[5,5]}},{"r":"PH","to":"Putra Heights","seq":4,"first":"06:04","last":{"MonFri":"00:04","Sat":"00:04","Sun":"00:04"},"freq":{"MonFri":[3,5],"Sat":[5,5],"Sun":[5,5]}},{"r":"PH","to":"Sentul Timur","seq":26,"first":"06:55","last":{"MonFri":"00:55","Sat":"00:55","Sun":"00:55"},"freq":{"MonFri":[3,5],"Sat":[5,5],"Sun":[5,5]}}]},"geometry":{"type":"Point","coordinates":[101.69359,3.16633]}},{"type":"Feature","properties":{"name":"RAJA CHULAN","routes":["MR"],"names":["KL Monorail Line"],"colors":["#84bd00"],"color":"#84bd00","interchange":false,"oku":true,"lines":[{"r":"MR","to":"KL Sentral","seq":5,"first":"06:10","last":{"MonFri":"23:40","Sat":"23:40","Sun":"23:40"},"freq":{"MonFri":[7,10],"Sat":[12,12],"Sun":[12,12]}},{"r":"MR","to":"Titiwangsa","seq":7,"first":"06:16","last":{"MonFri":"23:45","Sat":"23:45","Sun":"23:45"},"freq":{"MonFri":[7,10],"Sat":[12,12],"Sun":[12,12]}}]},"geometry":{"type":"Point","coordinates":[101.71043,3.15088]}},{"type":"Feature","properties":{"name":"RAJA UDA","routes":["PYL"],"names":["MRT Putrajaya Line"],"colors":["#FFCD00"],"color":"#FFCD00","interchange":false,"oku":true,"lines":[{"r":"PYL","to":"Kwasa Damansara","seq":19,"first":"06:39","last":{"MonFri":"00:38","Sat":"23:33","Sun":"23:33"},"freq":{"MonFri":[4,14],"Sat":[10,10],"Sun":[10,10]}},{"r":"PYL","to":"Putrajaya","seq":18,"first":"06:29","last":{"MonFri":"00:29","Sat":"23:24","Sun":"23:24"},"freq":{"MonFri":[5,12],"Sat":[10,10],"Sun":[10,10]}}]},"geometry":{"type":"Point","coordinates":[101.71017,3.16794]}},{"type":"Feature","properties":{"name":"SALAK SELATAN","routes":["PH"],"names":["LRT Sri Petaling Line"],"colors":["#76232f"],"color":"#76232f","interchange":false,"oku":true,"lines":[{"r":"PH","to":"Putra Heights","seq":13,"first":"06:20","last":{"MonFri":"00:20","Sat":"00:20","Sun":"00:20"},"freq":{"MonFri":[3,5],"Sat":[5,5],"Sun":[5,5]}},{"r":"PH","to":"Sentul Timur","seq":17,"first":"06:39","last":{"MonFri":"00:38","Sat":"00:38","Sun":"00:38"},"freq":{"MonFri":[3,5],"Sat":[5,5],"Sun":[5,5]}}]},"geometry":{"type":"Point","coordinates":[101.70618,3.1022]}},{"type":"Feature","properties":{"name":"SEKSYEN 7","routes":["SA"],"names":["LRT Shah Alam Line"],"colors":["#00A9E0"],"color":"#00A9E0","interchange":false,"oku":true,"lines":[{"r":"SA","to":"Bandar Utama","seq":11,"first":"06:29","last":{"MonFri":"00:08","Sat":"00:08","Sun":"23:38"},"freq":{"MonFri":[8,10],"Sat":[10,10],"Sun":[10,10]}},{"r":"SA","to":"Johan Setia","seq":14,"first":"06:37","last":{"MonFri":"00:37","Sat":"00:37","Sun":"00:07"},"freq":{"MonFri":[8,10],"Sat":[10,10],"Sun":[10,10]}}]},"geometry":{"type":"Point","coordinates":[101.48667,3.06722]}},{"type":"Feature","properties":{"name":"SENTUL","routes":["AG","PH"],"names":["LRT Ampang Line","LRT Sri Petaling Line"],"colors":["#e57200","#76232f"],"color":"#e57200","interchange":true,"oku":true,"lines":[{"r":"AG","to":"Ampang","seq":2,"first":"06:01","last":{"MonFri":"23:26","Sat":"23:26","Sun":"23:26"},"freq":{"MonFri":[3,5],"Sat":[5,5],"Sun":[5,5]}},{"r":"AG","to":"Sentul Timur","seq":17,"first":"06:26","last":{"MonFri":"23:51","Sat":"23:51","Sun":"23:51"},"freq":{"MonFri":[3,5],"Sat":[5,5],"Sun":[5,5]}},{"r":"PH","to":"Putra Heights","seq":2,"first":"06:01","last":{"MonFri":"00:01","Sat":"00:01","Sun":"00:01"},"freq":{"MonFri":[3,5],"Sat":[5,5],"Sun":[5,5]}},{"r":"PH","to":"Sentul Timur","seq":28,"first":"06:58","last":{"MonFri":"00:58","Sat":"00:58","Sun":"00:58"},"freq":{"MonFri":[3,5],"Sat":[5,5],"Sun":[5,5]}}]},"geometry":{"type":"Point","coordinates":[101.69554,3.17848]}},{"type":"Feature","properties":{"name":"SENTUL BARAT","routes":["PYL"],"names":["MRT Putrajaya Line"],"colors":["#FFCD00"],"color":"#FFCD00","interchange":false,"oku":true,"lines":[{"r":"PYL","to":"Kwasa Damansara","seq":22,"first":"06:43","last":{"MonFri":"00:43","Sat":"23:38","Sun":"23:38"},"freq":{"MonFri":[4,14],"Sat":[10,10],"Sun":[10,10]}},{"r":"PYL","to":"Putrajaya","seq":15,"first":"06:24","last":{"MonFri":"00:24","Sat":"23:19","Sun":"23:19"},"freq":{"MonFri":[5,12],"Sat":[10,10],"Sun":[10,10]}}]},"geometry":{"type":"Point","coordinates":[101.68474,3.17937]}},{"type":"Feature","properties":{"name":"SENTUL TIMUR","routes":["AG","PH"],"names":["LRT Ampang Line","LRT Sri Petaling Line"],"colors":["#e57200","#76232f"],"color":"#e57200","interchange":true,"oku":true,"lines":[{"r":"AG","to":"Ampang","seq":1,"first":"06:00","last":{"MonFri":"23:25","Sat":"23:25","Sun":"23:25"},"freq":{"MonFri":[3,5],"Sat":[5,5],"Sun":[5,5]}},{"r":"AG","to":"Sentul Timur","seq":18,"first":"06:28","last":{"MonFri":"23:52","Sat":"23:52","Sun":"23:52"},"freq":{"MonFri":[3,5],"Sat":[5,5],"Sun":[5,5]}},{"r":"PH","to":"Putra Heights","seq":1,"first":"06:00","last":{"MonFri":"00:00","Sat":"00:00","Sun":"00:00"},"freq":{"MonFri":[3,5],"Sat":[5,5],"Sun":[5,5]}},{"r":"PH","to":"Sentul Timur","seq":29,"first":"07:00","last":{"MonFri":"00:59","Sat":"00:59","Sun":"00:59"},"freq":{"MonFri":[3,5],"Sat":[5,5],"Sun":[5,5]}}]},"geometry":{"type":"Point","coordinates":[101.69522,3.1859]}},{"type":"Feature","properties":{"name":"SERDANG JAYA","routes":["PYL"],"names":["MRT Putrajaya Line"],"colors":["#FFCD00"],"color":"#FFCD00","interchange":false,"oku":true,"lines":[{"r":"PYL","to":"Kwasa Damansara","seq":8,"first":"06:16","last":{"MonFri":"00:15","Sat":"23:10","Sun":"23:10"},"freq":{"MonFri":[4,14],"Sat":[10,10],"Sun":[10,10]}},{"r":"PYL","to":"Putrajaya","seq":29,"first":"06:52","last":{"MonFri":"00:51","Sat":"23:46","Sun":"23:46"},"freq":{"MonFri":[5,12],"Sat":[10,10],"Sun":[10,10]}}]},"geometry":{"type":"Point","coordinates":[101.709,3.0216]}},{"type":"Feature","properties":{"name":"SERDANG RAYA SELATAN","routes":["PYL"],"names":["MRT Putrajaya Line"],"colors":["#FFCD00"],"color":"#FFCD00","interchange":false,"oku":true,"lines":[{"r":"PYL","to":"Kwasa Damansara","seq":9,"first":"06:17","last":{"MonFri":"00:17","Sat":"23:12","Sun":"23:12"},"freq":{"MonFri":[4,14],"Sat":[10,10],"Sun":[10,10]}},{"r":"PYL","to":"Putrajaya","seq":28,"first":"06:51","last":{"MonFri":"00:50","Sat":"23:45","Sun":"23:45"},"freq":{"MonFri":[5,12],"Sat":[10,10],"Sun":[10,10]}}]},"geometry":{"type":"Point","coordinates":[101.70751,3.02846]}},{"type":"Feature","properties":{"name":"SERDANG RAYA UTARA","routes":["PYL"],"names":["MRT Putrajaya Line"],"colors":["#FFCD00"],"color":"#FFCD00","interchange":false,"oku":true,"lines":[{"r":"PYL","to":"Kwasa Damansara","seq":10,"first":"06:19","last":{"MonFri":"00:18","Sat":"23:13","Sun":"23:13"},"freq":{"MonFri":[4,14],"Sat":[10,10],"Sun":[10,10]}},{"r":"PYL","to":"Putrajaya","seq":27,"first":"06:49","last":{"MonFri":"00:49","Sat":"23:44","Sun":"23:44"},"freq":{"MonFri":[5,12],"Sat":[10,10],"Sun":[10,10]}}]},"geometry":{"type":"Point","coordinates":[101.70493,3.04167]}},{"type":"Feature","properties":{"name":"SERI ANDALAS","routes":["SA"],"names":["LRT Shah Alam Line"],"colors":["#00A9E0"],"color":"#00A9E0","interchange":false,"oku":true,"lines":[{"r":"SA","to":"Bandar Utama","seq":5,"first":"06:10","last":{"MonFri":"23:49","Sat":"23:49","Sun":"23:19"},"freq":{"MonFri":[8,10],"Sat":[10,10],"Sun":[10,10]}},{"r":"SA","to":"Johan Setia","seq":20,"first":"06:56","last":{"MonFri":"00:56","Sat":"00:56","Sun":"00:26"},"freq":{"MonFri":[8,10],"Sat":[10,10],"Sun":[10,10]}}]},"geometry":{"type":"Point","coordinates":[101.44056,3.01583]}},{"type":"Feature","properties":{"name":"SETIAWANGSA","routes":["KJ"],"names":["LRT Kelana Jaya Line"],"colors":["#D50032"],"color":"#D50032","interchange":false,"oku":true,"lines":[{"r":"KJ","to":"Gombak","seq":33,"first":"07:25","last":{"MonFri":"00:40","Sat":"00:40","Sun":"00:40"},"freq":{"MonFri":[4,7],"Sat":[7,7],"Sun":[7,7]}},{"r":"KJ","to":"Putra Heights","seq":5,"first":"06:12","last":{"MonFri":"23:27","Sat":"23:27","Sun":"23:27"},"freq":{"MonFri":[4,7],"Sat":[7,7],"Sun":[7,7]}}]},"geometry":{"type":"Point","coordinates":[101.73584,3.17576]}},{"type":"Feature","properties":{"name":"SRI DAMANSARA BARAT","routes":["PYL"],"names":["MRT Putrajaya Line"],"colors":["#FFCD00"],"color":"#FFCD00","interchange":false,"oku":true,"lines":[{"r":"PYL","to":"Kwasa Damansara","seq":32,"first":"06:59","last":{"MonFri":"00:59","Sat":"23:54","Sun":"23:54"},"freq":{"MonFri":[4,14],"Sat":[10,10],"Sun":[10,10]}},{"r":"PYL","to":"Putrajaya","seq":5,"first":"06:09","last":{"MonFri":"00:08","Sat":"23:03","Sun":"23:03"},"freq":{"MonFri":[5,12],"Sat":[10,10],"Sun":[10,10]}}]},"geometry":{"type":"Point","coordinates":[101.6083,3.1982]}},{"type":"Feature","properties":{"name":"SRI DAMANSARA SENTRAL","routes":["PYL"],"names":["MRT Putrajaya Line"],"colors":["#FFCD00"],"color":"#FFCD00","interchange":false,"oku":true,"lines":[{"r":"PYL","to":"Kwasa Damansara","seq":31,"first":"06:57","last":{"MonFri":"00:57","Sat":"23:52","Sun":"23:52"},"freq":{"MonFri":[4,14],"Sat":[10,10],"Sun":[10,10]}},{"r":"PYL","to":"Putrajaya","seq":6,"first":"06:10","last":{"MonFri":"00:10","Sat":"23:05","Sun":"23:05"},"freq":{"MonFri":[5,12],"Sat":[10,10],"Sun":[10,10]}}]},"geometry":{"type":"Point","coordinates":[101.6214,3.19882]}},{"type":"Feature","properties":{"name":"SRI DAMANSARA TIMUR","routes":["PYL"],"names":["MRT Putrajaya Line"],"colors":["#FFCD00"],"color":"#FFCD00","interchange":false,"oku":true,"lines":[{"r":"PYL","to":"Kwasa Damansara","seq":30,"first":"06:55","last":{"MonFri":"00:55","Sat":"23:50","Sun":"23:50"},"freq":{"MonFri":[4,14],"Sat":[10,10],"Sun":[10,10]}},{"r":"PYL","to":"Putrajaya","seq":7,"first":"06:12","last":{"MonFri":"00:12","Sat":"23:07","Sun":"23:07"},"freq":{"MonFri":[5,12],"Sat":[10,10],"Sun":[10,10]}}]},"geometry":{"type":"Point","coordinates":[101.62872,3.20783]}},{"type":"Feature","properties":{"name":"SRI DELIMA","routes":["PYL"],"names":["MRT Putrajaya Line"],"colors":["#FFCD00"],"color":"#FFCD00","interchange":false,"oku":true,"lines":[{"r":"PYL","to":"Kwasa Damansara","seq":26,"first":"06:50","last":{"MonFri":"00:49","Sat":"23:44","Sun":"23:44"},"freq":{"MonFri":[4,14],"Sat":[10,10],"Sun":[10,10]}},{"r":"PYL","to":"Putrajaya","seq":11,"first":"06:18","last":{"MonFri":"00:18","Sat":"23:13","Sun":"23:13"},"freq":{"MonFri":[5,12],"Sat":[10,10],"Sun":[10,10]}}]},"geometry":{"type":"Point","coordinates":[101.66575,3.20711]}},{"type":"Feature","properties":{"name":"SRI PETALING","routes":["PH"],"names":["LRT Sri Petaling Line"],"colors":["#76232f"],"color":"#76232f","interchange":false,"oku":true,"lines":[{"r":"PH","to":"Putra Heights","seq":18,"first":"06:32","last":{"MonFri":"00:32","Sat":"00:32","Sun":"00:32"},"freq":{"MonFri":[3,5],"Sat":[5,5],"Sun":[5,5]}},{"r":"PH","to":"Sentul Timur","seq":12,"first":"06:27","last":{"MonFri":"00:27","Sat":"00:27","Sun":"00:27"},"freq":{"MonFri":[3,5],"Sat":[5,5],"Sun":[5,5]}}]},"geometry":{"type":"Point","coordinates":[101.68707,3.06145]}},{"type":"Feature","properties":{"name":"SRI RAMPAI","routes":["KJ"],"names":["LRT Kelana Jaya Line"],"colors":["#D50032"],"color":"#D50032","interchange":false,"oku":true,"lines":[{"r":"KJ","to":"Gombak","seq":34,"first":"07:30","last":{"MonFri":"00:45","Sat":"00:45","Sun":"00:45"},"freq":{"MonFri":[4,7],"Sat":[7,7],"Sun":[7,7]}},{"r":"KJ","to":"Putra Heights","seq":4,"first":"06:08","last":{"MonFri":"23:22","Sat":"23:22","Sun":"23:22"},"freq":{"MonFri":[4,7],"Sat":[7,7],"Sun":[7,7]}}]},"geometry":{"type":"Point","coordinates":[101.73747,3.19918]}},{"type":"Feature","properties":{"name":"SS 15","routes":["KJ"],"names":["LRT Kelana Jaya Line"],"colors":["#D50032"],"color":"#D50032","interchange":false,"oku":true,"lines":[{"r":"KJ","to":"Gombak","seq":9,"first":"06:24","last":{"MonFri":"23:38","Sat":"23:38","Sun":"23:38"},"freq":{"MonFri":[4,7],"Sat":[7,7],"Sun":[7,7]}},{"r":"KJ","to":"Putra Heights","seq":29,"first":"07:14","last":{"MonFri":"00:28","Sat":"00:28","Sun":"00:28"},"freq":{"MonFri":[4,7],"Sat":[7,7],"Sun":[7,7]}}]},"geometry":{"type":"Point","coordinates":[101.58598,3.07597]}},{"type":"Feature","properties":{"name":"SS 18","routes":["KJ"],"names":["LRT Kelana Jaya Line"],"colors":["#D50032"],"color":"#D50032","interchange":false,"oku":true,"lines":[{"r":"KJ","to":"Gombak","seq":8,"first":"06:21","last":{"MonFri":"23:36","Sat":"23:36","Sun":"23:36"},"freq":{"MonFri":[4,7],"Sat":[7,7],"Sun":[7,7]}},{"r":"KJ","to":"Putra Heights","seq":30,"first":"07:16","last":{"MonFri":"00:31","Sat":"00:31","Sun":"00:31"},"freq":{"MonFri":[4,7],"Sat":[7,7],"Sun":[7,7]}}]},"geometry":{"type":"Point","coordinates":[101.58595,3.06718]}},{"type":"Feature","properties":{"name":"STADIUM SHAH ALAM","routes":["SA"],"names":["LRT Shah Alam Line"],"colors":["#00A9E0"],"color":"#00A9E0","interchange":false,"oku":true,"lines":[{"r":"SA","to":"Bandar Utama","seq":16,"first":"06:43","last":{"MonFri":"00:22","Sat":"00:22","Sun":"23:52"},"freq":{"MonFri":[8,10],"Sat":[10,10],"Sun":[10,10]}},{"r":"SA","to":"Johan Setia","seq":9,"first":"06:23","last":{"MonFri":"00:22","Sat":"00:22","Sun":"23:52"},"freq":{"MonFri":[8,10],"Sat":[10,10],"Sun":[10,10]}}]},"geometry":{"type":"Point","coordinates":[101.54889,3.07972]}},{"type":"Feature","properties":{"name":"SUBANG","routes":["SA"],"names":["LRT Shah Alam Line"],"colors":["#00A9E0"],"color":"#00A9E0","interchange":false,"oku":true,"lines":[{"r":"SA","to":"Bandar Utama","seq":20,"first":"06:54","last":{"MonFri":"00:34","Sat":"00:34","Sun":"00:04"},"freq":{"MonFri":[8,10],"Sat":[10,10],"Sun":[10,10]}},{"r":"SA","to":"Johan Setia","seq":5,"first":"06:11","last":{"MonFri":"00:11","Sat":"00:11","Sun":"23:41"},"freq":{"MonFri":[8,10],"Sat":[10,10],"Sun":[10,10]}}]},"geometry":{"type":"Point","coordinates":[101.59111,3.10611]}},{"type":"Feature","properties":{"name":"SUBANG ALAM","routes":["KJ"],"names":["LRT Kelana Jaya Line"],"colors":["#D50032"],"color":"#D50032","interchange":false,"oku":true,"lines":[{"r":"KJ","to":"Gombak","seq":2,"first":"06:03","last":{"MonFri":"23:18","Sat":"23:18","Sun":"23:18"},"freq":{"MonFri":[4,7],"Sat":[7,7],"Sun":[7,7]}},{"r":"KJ","to":"Putra Heights","seq":36,"first":"07:35","last":{"MonFri":"00:49","Sat":"00:49","Sun":"00:49"},"freq":{"MonFri":[4,7],"Sat":[7,7],"Sun":[7,7]}}]},"geometry":{"type":"Point","coordinates":[101.57228,3.00942]}},{"type":"Feature","properties":{"name":"SUBANG JAYA","routes":["KJ"],"names":["LRT Kelana Jaya Line"],"colors":["#D50032"],"color":"#D50032","interchange":false,"oku":true,"lines":[{"r":"KJ","to":"Gombak","seq":10,"first":"06:27","last":{"MonFri":"23:42","Sat":"23:42","Sun":"23:42"},"freq":{"MonFri":[4,7],"Sat":[7,7],"Sun":[7,7]}},{"r":"KJ","to":"Putra Heights","seq":28,"first":"07:10","last":{"MonFri":"00:25","Sat":"00:25","Sun":"00:25"},"freq":{"MonFri":[4,7],"Sat":[7,7],"Sun":[7,7]}}]},"geometry":{"type":"Point","coordinates":[101.58813,3.08466]}},{"type":"Feature","properties":{"name":"SULTAN ISMAIL","routes":["AG","PH"],"names":["LRT Ampang Line","LRT Sri Petaling Line"],"colors":["#e57200","#76232f"],"color":"#e57200","interchange":true,"oku":true,"lines":[{"r":"AG","to":"Ampang","seq":5,"first":"06:06","last":{"MonFri":"23:31","Sat":"23:31","Sun":"23:31"},"freq":{"MonFri":[3,5],"Sat":[5,5],"Sun":[5,5]}},{"r":"AG","to":"Sentul Timur","seq":14,"first":"06:21","last":{"MonFri":"23:46","Sat":"23:46","Sun":"23:46"},"freq":{"MonFri":[3,5],"Sat":[5,5],"Sun":[5,5]}},{"r":"PH","to":"Putra Heights","seq":5,"first":"06:06","last":{"MonFri":"00:06","Sat":"00:06","Sun":"00:06"},"freq":{"MonFri":[3,5],"Sat":[5,5],"Sun":[5,5]}},{"r":"PH","to":"Sentul Timur","seq":25,"first":"06:53","last":{"MonFri":"00:53","Sat":"00:53","Sun":"00:53"},"freq":{"MonFri":[3,5],"Sat":[5,5],"Sun":[5,5]}}]},"geometry":{"type":"Point","coordinates":[101.69411,3.16125]}},{"type":"Feature","properties":{"name":"SUNGAI BESI","routes":["PH","PYL"],"names":["LRT Sri Petaling Line","MRT Putrajaya Line"],"colors":["#76232f","#FFCD00"],"color":"#76232f","interchange":true,"oku":true,"lines":[{"r":"PH","to":"Putra Heights","seq":16,"first":"06:27","last":{"MonFri":"00:27","Sat":"00:27","Sun":"00:27"},"freq":{"MonFri":[3,5],"Sat":[5,5],"Sun":[5,5]}},{"r":"PH","to":"Sentul Timur","seq":14,"first":"06:32","last":{"MonFri":"00:31","Sat":"00:31","Sun":"00:31"},"freq":{"MonFri":[3,5],"Sat":[5,5],"Sun":[5,5]}},{"r":"PYL","to":"Kwasa Damansara","seq":11,"first":"06:21","last":{"MonFri":"00:21","Sat":"23:16","Sun":"23:16"},"freq":{"MonFri":[4,14],"Sat":[10,10],"Sun":[10,10]}},{"r":"PYL","to":"Putrajaya","seq":26,"first":"06:46","last":{"MonFri":"00:46","Sat":"23:41","Sun":"23:41"},"freq":{"MonFri":[5,12],"Sat":[10,10],"Sun":[10,10]}}]},"geometry":{"type":"Point","coordinates":[101.70823,3.06379]}},{"type":"Feature","properties":{"name":"SUNGAI BULOH","routes":["PYL"],"names":["MRT Putrajaya Line"],"colors":["#FFCD00"],"color":"#FFCD00","interchange":false,"oku":true,"lines":[{"r":"PYL","to":"Kwasa Damansara","seq":34,"first":"07:03","last":{"MonFri":"01:02","Sat":"23:57","Sun":"23:57"},"freq":{"MonFri":[4,14],"Sat":[10,10],"Sun":[10,10]}},{"r":"PYL","to":"Putrajaya","seq":3,"first":"06:05","last":{"MonFri":"00:04","Sat":"22:59","Sun":"22:59"},"freq":{"MonFri":[5,12],"Sat":[10,10],"Sun":[10,10]}}]},"geometry":{"type":"Point","coordinates":[101.58178,3.20643]}},{"type":"Feature","properties":{"name":"TAIPAN","routes":["KJ"],"names":["LRT Kelana Jaya Line"],"colors":["#D50032"],"color":"#D50032","interchange":false,"oku":true,"lines":[{"r":"KJ","to":"Gombak","seq":6,"first":"06:15","last":{"MonFri":"23:30","Sat":"23:30","Sun":"23:30"},"freq":{"MonFri":[4,7],"Sat":[7,7],"Sun":[7,7]}},{"r":"KJ","to":"Putra Heights","seq":32,"first":"07:23","last":{"MonFri":"00:37","Sat":"00:37","Sun":"00:37"},"freq":{"MonFri":[4,7],"Sat":[7,7],"Sun":[7,7]}}]},"geometry":{"type":"Point","coordinates":[101.59023,3.04815]}},{"type":"Feature","properties":{"name":"TAMAN BAHAGIA","routes":["KJ"],"names":["LRT Kelana Jaya Line"],"colors":["#D50032"],"color":"#D50032","interchange":false,"oku":true,"lines":[{"r":"KJ","to":"Gombak","seq":15,"first":"06:40","last":{"MonFri":"23:55","Sat":"23:55","Sun":"23:55"},"freq":{"MonFri":[4,7],"Sat":[7,7],"Sun":[7,7]}},{"r":"KJ","to":"Putra Heights","seq":23,"first":"06:57","last":{"MonFri":"00:12","Sat":"00:12","Sun":"00:12"},"freq":{"MonFri":[4,7],"Sat":[7,7],"Sun":[7,7]}}]},"geometry":{"type":"Point","coordinates":[101.61286,3.11079]}},{"type":"Feature","properties":{"name":"TAMAN EQUINE","routes":["PYL"],"names":["MRT Putrajaya Line"],"colors":["#FFCD00"],"color":"#FFCD00","interchange":false,"oku":true,"lines":[{"r":"PYL","to":"Kwasa Damansara","seq":6,"first":"06:10","last":{"MonFri":"00:09","Sat":"23:04","Sun":"23:04"},"freq":{"MonFri":[4,14],"Sat":[10,10],"Sun":[10,10]}},{"r":"PYL","to":"Putrajaya","seq":31,"first":"06:58","last":{"MonFri":"00:58","Sat":"23:53","Sun":"23:53"},"freq":{"MonFri":[5,12],"Sat":[10,10],"Sun":[10,10]}}]},"geometry":{"type":"Point","coordinates":[101.67244,2.98942]}},{"type":"Feature","properties":{"name":"TAMAN JAYA","routes":["KJ"],"names":["LRT Kelana Jaya Line"],"colors":["#D50032"],"color":"#D50032","interchange":false,"oku":true,"lines":[{"r":"KJ","to":"Gombak","seq":18,"first":"06:47","last":{"MonFri":"00:02","Sat":"00:02","Sun":"00:02"},"freq":{"MonFri":[4,7],"Sat":[7,7],"Sun":[7,7]}},{"r":"KJ","to":"Putra Heights","seq":20,"first":"06:50","last":{"MonFri":"00:05","Sat":"00:05","Sun":"00:05"},"freq":{"MonFri":[4,7],"Sat":[7,7],"Sun":[7,7]}}]},"geometry":{"type":"Point","coordinates":[101.64525,3.10409]}},{"type":"Feature","properties":{"name":"TAMAN MELATI","routes":["KJ"],"names":["LRT Kelana Jaya Line"],"colors":["#D50032"],"color":"#D50032","interchange":false,"oku":true,"lines":[{"r":"KJ","to":"Gombak","seq":36,"first":"07:35","last":{"MonFri":"00:50","Sat":"00:50","Sun":"00:50"},"freq":{"MonFri":[4,7],"Sat":[7,7],"Sun":[7,7]}},{"r":"KJ","to":"Putra Heights","seq":2,"first":"06:03","last":{"MonFri":"23:17","Sat":"23:17","Sun":"23:17"},"freq":{"MonFri":[4,7],"Sat":[7,7],"Sun":[7,7]}}]},"geometry":{"type":"Point","coordinates":[101.72197,3.21956]}},{"type":"Feature","properties":{"name":"TAMAN NAGA EMAS","routes":["PYL"],"names":["MRT Putrajaya Line"],"colors":["#FFCD00"],"color":"#FFCD00","interchange":false,"oku":true,"lines":[{"r":"PYL","to":"Kwasa Damansara","seq":12,"first":"06:24","last":{"MonFri":"00:23","Sat":"23:18","Sun":"23:18"},"freq":{"MonFri":[4,14],"Sat":[10,10],"Sun":[10,10]}},{"r":"PYL","to":"Putrajaya","seq":25,"first":"06:44","last":{"MonFri":"00:43","Sat":"23:38","Sun":"23:38"},"freq":{"MonFri":[5,12],"Sat":[10,10],"Sun":[10,10]}}]},"geometry":{"type":"Point","coordinates":[101.69987,3.07769]}},{"type":"Feature","properties":{"name":"TAMAN PARAMOUNT","routes":["KJ"],"names":["LRT Kelana Jaya Line"],"colors":["#D50032"],"color":"#D50032","interchange":false,"oku":true,"lines":[{"r":"KJ","to":"Gombak","seq":16,"first":"06:43","last":{"MonFri":"23:58","Sat":"23:58","Sun":"23:58"},"freq":{"MonFri":[4,7],"Sat":[7,7],"Sun":[7,7]}},{"r":"KJ","to":"Putra Heights","seq":22,"first":"06:54","last":{"MonFri":"00:09","Sat":"00:09","Sun":"00:09"},"freq":{"MonFri":[4,7],"Sat":[7,7],"Sun":[7,7]}}]},"geometry":{"type":"Point","coordinates":[101.62319,3.10472]}},{"type":"Feature","properties":{"name":"TAMAN PERINDUSTRIAN PUCHONG","routes":["PH"],"names":["LRT Sri Petaling Line"],"colors":["#76232f"],"color":"#76232f","interchange":false,"oku":true,"lines":[{"r":"PH","to":"Putra Heights","seq":25,"first":"06:49","last":{"MonFri":"00:49","Sat":"00:49","Sun":"00:49"},"freq":{"MonFri":[3,5],"Sat":[5,5],"Sun":[5,5]}},{"r":"PH","to":"Sentul Timur","seq":5,"first":"06:10","last":{"MonFri":"00:10","Sat":"00:10","Sun":"00:10"},"freq":{"MonFri":[3,5],"Sat":[5,5],"Sun":[5,5]}}]},"geometry":{"type":"Point","coordinates":[101.61351,3.02281]}},{"type":"Feature","properties":{"name":"TAMAN SELATAN","routes":["SA"],"names":["LRT Shah Alam Line"],"colors":["#00A9E0"],"color":"#00A9E0","interchange":false,"oku":true,"lines":[{"r":"SA","to":"Bandar Utama","seq":6,"first":"06:12","last":{"MonFri":"23:52","Sat":"23:52","Sun":"23:22"},"freq":{"MonFri":[8,10],"Sat":[10,10],"Sun":[10,10]}},{"r":"SA","to":"Johan Setia","seq":19,"first":"06:54","last":{"MonFri":"00:53","Sat":"00:53","Sun":"00:23"},"freq":{"MonFri":[8,10],"Sat":[10,10],"Sun":[10,10]}}]},"geometry":{"type":"Point","coordinates":[101.44222,3.02667]}},{"type":"Feature","properties":{"name":"TITIWANGSA","routes":["AG","MR","PH","PYL"],"names":["LRT Ampang Line","KL Monorail Line","LRT Sri Petaling Line","MRT Putrajaya Line"],"colors":["#e57200","#84bd00","#76232f","#FFCD00"],"color":"#e57200","interchange":true,"oku":true,"lines":[{"r":"AG","to":"Ampang","seq":3,"first":"06:03","last":{"MonFri":"23:27","Sat":"23:27","Sun":"23:27"},"freq":{"MonFri":[3,5],"Sat":[5,5],"Sun":[5,5]}},{"r":"AG","to":"Sentul Timur","seq":16,"first":"06:25","last":{"MonFri":"23:49","Sat":"23:49","Sun":"23:49"},"freq":{"MonFri":[3,5],"Sat":[5,5],"Sun":[5,5]}},{"r":"MR","to":"KL Sentral","seq":1,"first":"06:00","last":{"MonFri":"23:30","Sat":"23:30","Sun":"23:30"},"freq":{"MonFri":[7,10],"Sat":[12,12],"Sun":[12,12]}},{"r":"MR","to":"Titiwangsa","seq":11,"first":"06:26","last":{"MonFri":"23:56","Sat":"23:56","Sun":"23:56"},"freq":{"MonFri":[7,10],"Sat":[12,12],"Sun":[12,12]}},{"r":"PH","to":"Putra Heights","seq":3,"first":"06:03","last":{"MonFri":"00:02","Sat":"00:02","Sun":"00:02"},"freq":{"MonFri":[3,5],"Sat":[5,5],"Sun":[5,5]}},{"r":"PH","to":"Sentul Timur","seq":27,"first":"06:57","last":{"MonFri":"00:56","Sat":"00:56","Sun":"00:56"},"freq":{"MonFri":[3,5],"Sat":[5,5],"Sun":[5,5]}},{"r":"PYL","to":"Kwasa Damansara","seq":21,"first":"06:42","last":{"MonFri":"00:41","Sat":"23:36","Sun":"23:36"},"freq":{"MonFri":[4,14],"Sat":[10,10],"Sun":[10,10]}},{"r":"PYL","to":"Putrajaya","seq":16,"first":"06:26","last":{"MonFri":"00:26","Sat":"23:21","Sun":"23:21"},"freq":{"MonFri":[5,12],"Sat":[10,10],"Sun":[10,10]}}]},"geometry":{"type":"Point","coordinates":[101.69564,3.17357]}},{"type":"Feature","properties":{"name":"TUN RAZAK EXCHANGE","routes":["PYL"],"names":["MRT Putrajaya Line"],"colors":["#FFCD00"],"color":"#FFCD00","interchange":false,"oku":true,"lines":[{"r":"KGL","to":"Kajang","seq":15,"first":"06:46","last":{"MonFri":"00:46","Sat":"23:41","Sun":"23:41"},"freq":{"MonFri":[6,10],"Sat":[10,10],"Sun":[10,10]}},{"r":"KGL","to":"Kwasa Damansara","seq":15,"first":"06:42","last":{"MonFri":"00:42","Sat":"23:37","Sun":"23:37"},"freq":{"MonFri":[6,10],"Sat":[10,10],"Sun":[10,10]}},{"r":"PYL","to":"Kwasa Damansara","seq":15,"first":"06:33","last":{"MonFri":"00:33","Sat":"23:28","Sun":"23:28"},"freq":{"MonFri":[4,14],"Sat":[10,10],"Sun":[10,10]}},{"r":"PYL","to":"Putrajaya","seq":22,"first":"06:34","last":{"MonFri":"00:34","Sat":"23:29","Sun":"23:29"},"freq":{"MonFri":[5,12],"Sat":[10,10],"Sun":[10,10]}}]},"geometry":{"type":"Point","coordinates":[101.72034,3.14289]}},{"type":"Feature","properties":{"name":"TUN SAMBANTHAN","routes":["MR"],"names":["KL Monorail Line"],"colors":["#84bd00"],"color":"#84bd00","interchange":false,"oku":true,"lines":[{"r":"MR","to":"KL Sentral","seq":10,"first":"06:23","last":{"MonFri":"23:53","Sat":"23:53","Sun":"23:53"},"freq":{"MonFri":[7,10],"Sat":[12,12],"Sun":[12,12]}},{"r":"MR","to":"Titiwangsa","seq":2,"first":"06:03","last":{"MonFri":"23:32","Sat":"23:32","Sun":"23:32"},"freq":{"MonFri":[7,10],"Sat":[12,12],"Sun":[12,12]}}]},"geometry":{"type":"Point","coordinates":[101.69085,3.13132]}},{"type":"Feature","properties":{"name":"UITM SHAH ALAM","routes":["SA"],"names":["LRT Shah Alam Line"],"colors":["#00A9E0"],"color":"#00A9E0","interchange":false,"oku":true,"lines":[{"r":"SA","to":"Bandar Utama","seq":12,"first":"06:32","last":{"MonFri":"00:12","Sat":"00:12","Sun":"23:42"},"freq":{"MonFri":[8,10],"Sat":[10,10],"Sun":[10,10]}},{"r":"SA","to":"Johan Setia","seq":13,"first":"06:34","last":{"MonFri":"00:33","Sat":"00:33","Sun":"00:03"},"freq":{"MonFri":[8,10],"Sat":[10,10],"Sun":[10,10]}}]},"geometry":{"type":"Point","coordinates":[101.50111,3.0625]}},{"type":"Feature","properties":{"name":"UNIVERSITI","routes":["KJ"],"names":["LRT Kelana Jaya Line"],"colors":["#D50032"],"color":"#D50032","interchange":false,"oku":true,"lines":[{"r":"KJ","to":"Gombak","seq":19,"first":"06:51","last":{"MonFri":"00:06","Sat":"00:06","Sun":"00:06"},"freq":{"MonFri":[4,7],"Sat":[7,7],"Sun":[7,7]}},{"r":"KJ","to":"Putra Heights","seq":19,"first":"06:46","last":{"MonFri":"00:01","Sat":"00:01","Sun":"00:01"},"freq":{"MonFri":[4,7],"Sat":[7,7],"Sun":[7,7]}}]},"geometry":{"type":"Point","coordinates":[101.66164,3.11462]}},{"type":"Feature","properties":{"name":"UPM","routes":["PYL"],"names":["MRT Putrajaya Line"],"colors":["#FFCD00"],"color":"#FFCD00","interchange":false,"oku":true,"lines":[{"r":"PYL","to":"Kwasa Damansara","seq":7,"first":"06:14","last":{"MonFri":"00:13","Sat":"23:08","Sun":"23:08"},"freq":{"MonFri":[4,14],"Sat":[10,10],"Sun":[10,10]}},{"r":"PYL","to":"Putrajaya","seq":30,"first":"06:54","last":{"MonFri":"00:54","Sat":"23:49","Sun":"23:49"},"freq":{"MonFri":[5,12],"Sat":[10,10],"Sun":[10,10]}}]},"geometry":{"type":"Point","coordinates":[101.7054,3.00849]}},{"type":"Feature","properties":{"name":"USJ 21","routes":["KJ"],"names":["LRT Kelana Jaya Line"],"colors":["#D50032"],"color":"#D50032","interchange":false,"oku":true,"lines":[{"r":"KJ","to":"Gombak","seq":4,"first":"06:10","last":{"MonFri":"23:24","Sat":"23:24","Sun":"23:24"},"freq":{"MonFri":[4,7],"Sat":[7,7],"Sun":[7,7]}},{"r":"KJ","to":"Putra Heights","seq":34,"first":"07:28","last":{"MonFri":"00:43","Sat":"00:43","Sun":"00:43"},"freq":{"MonFri":[4,7],"Sat":[7,7],"Sun":[7,7]}}]},"geometry":{"type":"Point","coordinates":[101.58171,3.02988]}},{"type":"Feature","properties":{"name":"USJ 7","routes":["KJ"],"names":["LRT Kelana Jaya Line"],"colors":["#D50032"],"color":"#D50032","interchange":false,"oku":true,"lines":[{"r":"KJ","to":"Gombak","seq":7,"first":"06:17","last":{"MonFri":"23:32","Sat":"23:32","Sun":"23:32"},"freq":{"MonFri":[4,7],"Sat":[7,7],"Sun":[7,7]}},{"r":"KJ","to":"Putra Heights","seq":31,"first":"07:21","last":{"MonFri":"00:35","Sat":"00:35","Sun":"00:35"},"freq":{"MonFri":[4,7],"Sat":[7,7],"Sun":[7,7]}}]},"geometry":{"type":"Point","coordinates":[101.59219,3.05496]}},{"type":"Feature","properties":{"name":"WANGSA MAJU","routes":["KJ"],"names":["LRT Kelana Jaya Line"],"colors":["#D50032"],"color":"#D50032","interchange":false,"oku":true,"lines":[{"r":"KJ","to":"Gombak","seq":35,"first":"07:32","last":{"MonFri":"00:47","Sat":"00:47","Sun":"00:47"},"freq":{"MonFri":[4,7],"Sat":[7,7],"Sun":[7,7]}},{"r":"KJ","to":"Putra Heights","seq":3,"first":"06:06","last":{"MonFri":"23:20","Sat":"23:20","Sun":"23:20"},"freq":{"MonFri":[4,7],"Sat":[7,7],"Sun":[7,7]}}]},"geometry":{"type":"Point","coordinates":[101.7318,3.20575]}},{"type":"Feature","properties":{"name":"WAWASAN","routes":["KJ"],"names":["LRT Kelana Jaya Line"],"colors":["#D50032"],"color":"#D50032","interchange":false,"oku":true,"lines":[{"r":"KJ","to":"Gombak","seq":5,"first":"06:12","last":{"MonFri":"23:27","Sat":"23:27","Sun":"23:27"},"freq":{"MonFri":[4,7],"Sat":[7,7],"Sun":[7,7]}},{"r":"KJ","to":"Putra Heights","seq":33,"first":"07:25","last":{"MonFri":"00:40","Sat":"00:40","Sun":"00:40"},"freq":{"MonFri":[4,7],"Sat":[7,7],"Sun":[7,7]}}]},"geometry":{"type":"Point","coordinates":[101.58835,3.03506]}}]}