{"type":"FeatureCollection","features":[{"type":"Feature","properties":{"id":"AG","name":"LRT Ampang Line","short":"AGL","category":"LRT","color":"#e57200"},"geometry":{"type":"LineString","coordinates":[[101.76036,3.15079],[101.7602,3.14458],[101.75999,3.14388],[101.75951,3.14286],[101.75888,3.14203],[101.75677,3.14058],[101.75597,3.14002],[101.75371,3.13883],[101.75317,3.1385],[101.74685,3.13474],[101.74619,3.13435],[101.73906,3.13021],[101.73153,3.12596],[101.72898,3.12444],[101.72799,3.12386],[101.72699,3.12327],[101.72588,3.12263],[101.72488,3.12199],[101.72339,3.12116],[101.72237,3.12063],[101.72171,3.12042],[101.72122,3.12032],[101.72054,3.12026],[101.72017,3.12026],[101.71974,3.12031],[101.71948,3.12039],[101.719,3.12051],[101.71847,3.12074],[101.71823,3.12083],[101.71787,3.12103],[101.71748,3.12125],[101.71729,3.12138],[101.71712,3.12151],[101.71659,3.12196],[101.71606,3.12304],[101.71582,3.12363],[101.71557,3.12429],[101.7154,3.12486],[101.71532,3.1253],[101.71527,3.12612],[101.71534,3.12667],[101.71543,3.12717],[101.71558,3.12792],[101.71565,3.12825],[101.71571,3.12868],[101.71582,3.12931],[101.71586,3.12983],[101.71585,3.13031],[101.71569,3.13096],[101.7155,3.13137],[101.71531,3.13173],[101.71496,3.13214],[101.71445,3.13263],[101.71432,3.13271],[101.71377,3.13311],[101.71342,3.13335],[101.71301,3.13367],[101.71278,3.13387],[101.71263,3.13409],[101.71231,3.13452],[101.71206,3.13488],[101.71191,3.1351],[101.71145,3.13578],[101.71118,3.13608],[101.71076,3.13647],[101.71033,3.1368],[101.70972,3.13723],[101.70913,3.13768],[101.70829,3.13833],[101.70755,3.13886],[101.70683,3.1394],[101.70611,3.1399],[101.70586,3.14012],[101.70491,3.14093],[101.70462,3.1412],[101.7043,3.14153],[101.70392,3.14194],[101.7036,3.14229],[101.70326,3.14271],[101.70297,3.14311],[101.70263,3.14367],[101.70225,3.14405],[101.7019,3.14439],[101.70157,3.14474],[101.70133,3.14501],[101.70114,3.1452],[101.70091,3.14535],[101.70072,3.14541],[101.70051,3.14548],[101.7002,3.14556],[101.70001,3.14563],[101.69989,3.14569],[101.69971,3.14581],[101.69958,3.14594],[101.69946,3.14609],[101.69921,3.14644],[101.69894,3.14671],[101.6985,3.14714],[101.69815,3.14759],[101.69761,3.14812],[101.69687,3.1489],[101.69655,3.1493],[101.69615,3.1498],[101.69559,3.15042],[101.69527,3.15078],[101.69503,3.15098],[101.6948,3.15112],[101.69457,3.15124],[101.69424,3.15137],[101.69403,3.15154],[101.69385,3.15178],[101.69376,3.15196],[101.69369,3.15219],[101.69367,3.15242],[101.6937,3.15276],[101.69377,3.1531],[101.69384,3.15345],[101.69396,3.15391],[101.69409,3.15439],[101.69424,3.15486],[101.69436,3.15534],[101.6944,3.1555],[101.6945,3.156],[101.69451,3.15627],[101.6945,3.15672],[101.69438,3.15731],[101.69425,3.15761],[101.69409,3.15801],[101.69393,3.1585],[101.69382,3.15885],[101.69375,3.15917],[101.69372,3.15952],[101.69377,3.15989],[101.69383,3.1602],[101.69397,3.16066],[101.69405,3.16097],[101.69411,3.16117],[101.69423,3.16164],[101.69432,3.16199],[101.69437,3.16226],[101.69436,3.16243],[101.6943,3.16265],[101.69425,3.16276],[101.69411,3.16301],[101.69387,3.16336],[101.69369,3.16365],[101.69362,3.1639],[101.69359,3.16412],[101.6936,3.16432],[101.69363,3.16453],[101.69373,3.16485],[101.69381,3.16517],[101.69386,3.16538],[101.69384,3.16579],[101.69363,3.16653],[101.69353,3.16693],[101.6933,3.16776],[101.69329,3.16807],[101.6933,3.16828],[101.69334,3.16843],[101.69351,3.16876],[101.69362,3.16892],[101.69387,3.16919],[101.69411,3.16945],[101.69442,3.16983],[101.69468,3.17014],[101.69491,3.1704],[101.69505,3.1706],[101.69518,3.17085],[101.69533,3.17117],[101.6954,3.17146],[101.69544,3.17173],[101.69546,3.17212],[101.69544,3.17246],[101.6954,3.17303],[101.69533,3.17345],[101.69525,3.17399],[101.6952,3.17444],[101.69523,3.1749],[101.69525,3.17522],[101.69536,3.1755],[101.69543,3.17566],[101.69554,3.17585],[101.69566,3.17611],[101.69583,3.1765],[101.69592,3.17686],[101.69594,3.17711],[101.69594,3.17738],[101.69586,3.1778],[101.69577,3.17807],[101.69558,3.1786],[101.69538,3.17918],[101.69502,3.18011],[101.69469,3.18104],[101.69455,3.18157],[101.69452,3.18185],[101.69452,3.18207],[101.69455,3.18235],[101.69461,3.18257],[101.69469,3.18282],[101.6948,3.18304],[101.69495,3.18329],[101.69511,3.18358],[101.69532,3.18395],[101.69547,3.18436],[101.69552,3.18452],[101.69554,3.18474],[101.69543,3.18536],[101.69534,3.18587],[101.69521,3.1866]]}},{"type":"Feature","properties":{"id":"KJ","name":"LRT Kelana Jaya Line","short":"KJL","category":"LRT","color":"#D50032"},"geometry":{"type":"LineString","coordinates":[[101.57461,2.99665],[101.57402,2.99699],[101.57362,2.99719],[101.5733,2.99744],[101.57323,2.99755],[101.57314,2.99767],[101.57307,2.99782],[101.57303,2.99794],[101.57298,2.99815],[101.57297,2.99831],[101.57296,2.9985],[101.57295,2.99889],[101.57291,2.99935],[101.57288,2.99975],[101.57287,3.00098],[101.57287,3.00115],[101.57286,3.00143],[101.57286,3.00169],[101.57285,3.00194],[101.57284,3.00218],[101.5728,3.00235],[101.57272,3.00268],[101.57267,3.00285],[101.57257,3.00311],[101.57249,3.00334],[101.5724,3.00363],[101.57232,3.00384],[101.57224,3.00411],[101.57219,3.00434],[101.57215,3.00465],[101.57213,3.00508],[101.57211,3.0056],[101.57211,3.00608],[101.57211,3.00647],[101.57212,3.00698],[101.57211,3.00755],[101.57212,3.00784],[101.57214,3.00854],[101.57215,3.00955],[101.57218,3.01015],[101.57216,3.01084],[101.57213,3.01113],[101.57212,3.01136],[101.57206,3.01155],[101.572,3.01184],[101.57186,3.01233],[101.57178,3.01268],[101.57171,3.01301],[101.57167,3.0134],[101.57167,3.01375],[101.57171,3.01403],[101.57173,3.0143],[101.57182,3.01477],[101.57191,3.01518],[101.57201,3.01559],[101.57206,3.01589],[101.57208,3.01627],[101.57207,3.01685],[101.57206,3.01726],[101.57205,3.0177],[101.57203,3.0188],[101.572,3.01982],[101.57198,3.02043],[101.57202,3.02151],[101.57203,3.02317],[101.57205,3.02407],[101.57207,3.02509],[101.57205,3.02651],[101.57204,3.02735],[101.57204,3.02819],[101.57204,3.02843],[101.57204,3.02867],[101.57204,3.02891],[101.57207,3.02908],[101.57212,3.02923],[101.5722,3.02943],[101.57229,3.02964],[101.5724,3.02978],[101.57253,3.02991],[101.57265,3.03001],[101.57276,3.0301],[101.5729,3.03018],[101.57307,3.03026],[101.57323,3.03031],[101.57344,3.03037],[101.57364,3.0304],[101.57394,3.03044],[101.57427,3.03048],[101.57457,3.03053],[101.57478,3.03055],[101.57504,3.03055],[101.57556,3.03051],[101.57608,3.03044],[101.57667,3.03038],[101.577,3.03035],[101.57739,3.03031],[101.57764,3.03026],[101.57793,3.03018],[101.57824,3.03004],[101.57858,3.02983],[101.57889,3.02959],[101.57922,3.02931],[101.5795,3.0291],[101.57971,3.02897],[101.5799,3.02889],[101.58006,3.02884],[101.58031,3.02884],[101.58053,3.02889],[101.5807,3.02897],[101.58095,3.02912],[101.58136,3.02944],[101.58172,3.02969],[101.58217,3.03004],[101.58258,3.03034],[101.58279,3.03046],[101.58298,3.03055],[101.58314,3.03062],[101.58338,3.03071],[101.58362,3.03076],[101.58393,3.0308],[101.58409,3.03081],[101.58423,3.03082],[101.58463,3.03084],[101.58501,3.03088],[101.58527,3.0309],[101.58565,3.03095],[101.58591,3.03101],[101.58626,3.03108],[101.58653,3.03117],[101.58675,3.03125],[101.58698,3.03136],[101.58719,3.03149],[101.58743,3.03169],[101.58761,3.03187],[101.58772,3.03204],[101.5879,3.03233],[101.58803,3.03267],[101.58808,3.03304],[101.5881,3.03347],[101.58812,3.03405],[101.58811,3.03445],[101.58811,3.03502],[101.58809,3.03536],[101.5881,3.03595],[101.58811,3.03669],[101.58813,3.03858],[101.58812,3.03938],[101.58811,3.04066],[101.58811,3.04214],[101.58811,3.04358],[101.58811,3.0443],[101.58812,3.0446],[101.58818,3.04494],[101.58825,3.04525],[101.58834,3.04547],[101.58851,3.04579],[101.58871,3.04611],[101.58907,3.04658],[101.58949,3.04706],[101.58986,3.04747],[101.59011,3.04778],[101.59048,3.04822],[101.59089,3.04867],[101.59125,3.04907],[101.59152,3.04943],[101.59167,3.04973],[101.59179,3.05],[101.59187,3.05027],[101.59191,3.05056],[101.59192,3.0509],[101.59194,3.05129],[101.59193,3.05169],[101.59191,3.05422],[101.59191,3.05493],[101.5919,3.05567],[101.59195,3.05661],[101.59198,3.0575],[101.59198,3.05794],[101.592,3.05818],[101.59206,3.05848],[101.59217,3.05879],[101.59234,3.05926],[101.59264,3.06005],[101.59294,3.06078],[101.59312,3.06125],[101.59318,3.06159],[101.59318,3.06183],[101.59314,3.062],[101.59306,3.06223],[101.59293,3.06241],[101.59278,3.06258],[101.59263,3.0627],[101.59247,3.06278],[101.59233,3.06283],[101.59211,3.06286],[101.59188,3.06286],[101.59154,3.06284],[101.59111,3.06283],[101.59076,3.06282],[101.59038,3.06282],[101.58998,3.06284],[101.5896,3.06286],[101.58915,3.0629],[101.58861,3.06293],[101.58796,3.06295],[101.58754,3.06296],[101.58726,3.06296],[101.58706,3.06299],[101.58685,3.06304],[101.58662,3.06316],[101.58645,3.06327],[101.58633,3.06343],[101.58618,3.0636],[101.58609,3.06381],[101.58607,3.06416],[101.58606,3.06526],[101.58606,3.06661],[101.58608,3.06746],[101.58609,3.06851],[101.58609,3.06908],[101.58608,3.07145],[101.58608,3.07277],[101.58609,3.07428],[101.58609,3.07554],[101.58614,3.07661],[101.58615,3.07716],[101.58615,3.07745],[101.58611,3.07773],[101.58604,3.07798],[101.58592,3.07828],[101.58562,3.07878],[101.58515,3.07955],[101.58484,3.08005],[101.58463,3.08039],[101.58446,3.0807],[101.58422,3.08116],[101.584,3.08159],[101.58378,3.0821],[101.58361,3.08251],[101.58355,3.08276],[101.58356,3.08299],[101.58363,3.08329],[101.5838,3.08359],[101.58405,3.08382],[101.5844,3.08404],[101.58477,3.08423],[101.58533,3.08451],[101.58583,3.08476],[101.5862,3.08489],[101.58654,3.08492],[101.58683,3.08494],[101.58763,3.08487],[101.58862,3.08481],[101.58921,3.08483],[101.58971,3.08481],[101.5901,3.08491],[101.59049,3.08512],[101.5907,3.08535],[101.59085,3.08565],[101.59094,3.08602],[101.59096,3.08627],[101.59088,3.08666],[101.59069,3.08698],[101.59051,3.08733],[101.59035,3.08772],[101.59025,3.08803],[101.59021,3.08834],[101.5902,3.08865],[101.59022,3.08901],[101.59028,3.08945],[101.59042,3.09],[101.59074,3.09146],[101.59093,3.09232],[101.59102,3.0928],[101.59108,3.0933],[101.59108,3.09394],[101.59093,3.09457],[101.59066,3.09534],[101.5903,3.09628],[101.5899,3.09721],[101.58935,3.0986],[101.58908,3.09908],[101.58881,3.09947],[101.58853,3.09983],[101.5883,3.10012],[101.58812,3.10049],[101.58794,3.10086],[101.58766,3.10157],[101.58738,3.10225],[101.58692,3.10354],[101.58645,3.10471],[101.58598,3.10587],[101.5859,3.10623],[101.58589,3.1066],[101.58601,3.10696],[101.58623,3.1076],[101.58668,3.10865],[101.58777,3.11138],[101.58804,3.11191],[101.58828,3.11221],[101.58852,3.11241],[101.58885,3.11261],[101.58926,3.11272],[101.5896,3.11277],[101.58996,3.11272],[101.59022,3.11267],[101.59061,3.11249],[101.59089,3.11231],[101.59125,3.11208],[101.59165,3.11181],[101.59202,3.11154],[101.59238,3.11132],[101.59261,3.1112],[101.59287,3.11116],[101.59318,3.11114],[101.5939,3.11102],[101.59495,3.11108],[101.59552,3.11127],[101.59615,3.11174],[101.59669,3.11206],[101.59726,3.11218],[101.59771,3.11228],[101.59872,3.11291],[101.59958,3.11339],[101.59989,3.11347],[101.60011,3.11347],[101.60051,3.11341],[101.60104,3.11329],[101.6043,3.1125],[101.61214,3.11085],[101.61279,3.11071],[101.61516,3.1102],[101.61549,3.11011],[101.61597,3.10982],[101.6166,3.10937],[101.61938,3.10726],[101.62112,3.106],[101.62248,3.10518],[101.62319,3.10472],[101.62413,3.10409],[101.62473,3.10363],[101.62495,3.10355],[101.62679,3.10334],[101.6276,3.10327],[101.62813,3.10329],[101.62897,3.10336],[101.63244,3.10375],[101.63398,3.10394],[101.6359,3.10417],[101.63768,3.10438],[101.63912,3.10456],[101.64029,3.10473],[101.64107,3.10481],[101.64129,3.10479],[101.64203,3.10468],[101.64447,3.10421],[101.64525,3.10409],[101.64591,3.10398],[101.64696,3.10385],[101.64753,3.10386],[101.64806,3.10385],[101.6485,3.10379],[101.64904,3.1037],[101.64953,3.10365],[101.64983,3.1037],[101.65014,3.10383],[101.6514,3.10459],[101.65235,3.10515],[101.65318,3.10568],[101.65413,3.10627],[101.65525,3.10697],[101.65593,3.10741],[101.65637,3.1077],[101.65669,3.10801],[101.6569,3.10825],[101.65713,3.10865],[101.65726,3.10892],[101.65786,3.11033],[101.65838,3.1115],[101.65882,3.11254],[101.65891,3.11278],[101.65902,3.11304],[101.6592,3.11338],[101.65938,3.11359],[101.65953,3.11374],[101.65986,3.11396],[101.66075,3.11444],[101.66115,3.11454],[101.66168,3.11456],[101.66197,3.11458],[101.66275,3.11461],[101.66368,3.11466],[101.66433,3.11468],[101.66518,3.1147],[101.66559,3.1147],[101.66593,3.11477],[101.66629,3.11494],[101.66664,3.11516],[101.66691,3.1153],[101.66717,3.11543],[101.66739,3.11554],[101.66805,3.11553],[101.66857,3.11551],[101.66915,3.11546],[101.66955,3.11545],[101.66984,3.11536],[101.66995,3.11531],[101.67039,3.11511],[101.67069,3.11502],[101.67103,3.115],[101.67141,3.11511],[101.67161,3.1152],[101.6718,3.11535],[101.67201,3.11563],[101.6721,3.11582],[101.67219,3.11616],[101.67224,3.11654],[101.67228,3.11693],[101.6724,3.11741],[101.67275,3.11833],[101.67289,3.11874],[101.67302,3.11912],[101.67316,3.11945],[101.6733,3.11987],[101.67341,3.12007],[101.67363,3.12035],[101.67451,3.12133],[101.67499,3.12185],[101.67551,3.12242],[101.67605,3.12289],[101.6763,3.12313],[101.67661,3.12344],[101.67687,3.12371],[101.67717,3.12411],[101.67739,3.12439],[101.67751,3.12459],[101.67768,3.12486],[101.67783,3.12517],[101.6781,3.12576],[101.67828,3.12626],[101.67841,3.12658],[101.67856,3.12687],[101.67864,3.12699],[101.67907,3.12759],[101.67928,3.12788],[101.67951,3.12819],[101.67979,3.12848],[101.68017,3.12876],[101.68048,3.12892],[101.68078,3.1291],[101.6811,3.12934],[101.68125,3.12948],[101.68144,3.12969],[101.68164,3.13001],[101.6827,3.13128],[101.68321,3.13186],[101.6838,3.13242],[101.68457,3.13303],[101.68521,3.13346],[101.6859,3.13385],[101.68704,3.13446],[101.68747,3.13469],[101.68793,3.13499],[101.68861,3.1355],[101.68933,3.13595],[101.69012,3.13637],[101.69094,3.13672],[101.69166,3.13697],[101.69189,3.13705],[101.69218,3.1372],[101.69241,3.13735],[101.69259,3.13746],[101.69284,3.13763],[101.69357,3.13795],[101.69404,3.13821],[101.69431,3.13847],[101.69453,3.13884],[101.69478,3.13968],[101.6951,3.14063],[101.69528,3.14122],[101.69533,3.14138],[101.69537,3.14158],[101.6954,3.14172],[101.6954,3.14189],[101.6954,3.14213],[101.69539,3.14253],[101.69537,3.14296],[101.69538,3.14334],[101.69535,3.14364],[101.69533,3.14378],[101.69526,3.144],[101.69518,3.14418],[101.69511,3.14443],[101.695,3.1449],[101.69494,3.1451],[101.69493,3.14519],[101.69494,3.14529],[101.69499,3.14559],[101.69512,3.14625],[101.69515,3.14642],[101.69532,3.14715],[101.69541,3.14749],[101.69546,3.14768],[101.69557,3.14786],[101.69564,3.14801],[101.69585,3.14824],[101.69604,3.14849],[101.69632,3.14907],[101.6964,3.14918],[101.69658,3.14945],[101.69682,3.14971],[101.69696,3.14986],[101.69718,3.15008],[101.69737,3.15027],[101.69749,3.15042],[101.69754,3.15073],[101.69776,3.15147],[101.69796,3.15184],[101.6981,3.15196],[101.69828,3.15207],[101.69921,3.15244],[101.69952,3.15262],[101.69979,3.15281],[101.70002,3.15301],[101.70042,3.15371],[101.70095,3.15465],[101.70129,3.15528],[101.70151,3.15548],[101.70155,3.15558],[101.70164,3.15578],[101.70163,3.15589],[101.70174,3.15628],[101.70198,3.15694],[101.70222,3.15736],[101.70227,3.15747],[101.70312,3.15831],[101.70358,3.15888],[101.70377,3.15937],[101.70402,3.15986],[101.70409,3.16],[101.70429,3.16024],[101.70481,3.16059],[101.70561,3.16087],[101.7059,3.161],[101.70608,3.16106],[101.70631,3.16118],[101.70646,3.16127],[101.70668,3.16133],[101.70682,3.16137],[101.70703,3.16128],[101.70747,3.16127],[101.70774,3.1613],[101.70797,3.16119],[101.70829,3.16095],[101.70854,3.16077],[101.70864,3.16069],[101.70878,3.16056],[101.70893,3.16045],[101.70916,3.16016],[101.70938,3.15985],[101.70966,3.15933],[101.70982,3.15917],[101.71026,3.15909],[101.71073,3.15916],[101.71134,3.15927],[101.71205,3.1593],[101.71256,3.15933],[101.7131,3.15937],[101.71355,3.1594],[101.71403,3.15942],[101.71432,3.15943],[101.71456,3.15948],[101.71495,3.15973],[101.71561,3.16015],[101.71611,3.1604],[101.71654,3.16054],[101.71727,3.16052],[101.71769,3.16036],[101.71805,3.16017],[101.71827,3.16006],[101.71861,3.15995],[101.71901,3.15993],[101.71909,3.15992],[101.71956,3.15991],[101.72004,3.16001],[101.72042,3.16017],[101.72071,3.16037],[101.72096,3.1606],[101.72119,3.1609],[101.72134,3.1612],[101.72145,3.16154],[101.72149,3.16194],[101.72149,3.16243],[101.72149,3.16275],[101.72152,3.16319],[101.72165,3.16373],[101.72187,3.16408],[101.72204,3.16427],[101.72231,3.16448],[101.72252,3.16457],[101.72271,3.16464],[101.72288,3.16469],[101.72311,3.16473],[101.72356,3.16472],[101.7241,3.16461],[101.72438,3.16454],[101.72503,3.16436],[101.7254,3.16429],[101.72568,3.16428],[101.72606,3.16434],[101.72647,3.16442],[101.72732,3.16462],[101.72813,3.16479],[101.72847,3.16477],[101.72969,3.16492],[101.73099,3.16497],[101.73184,3.16496],[101.73436,3.16493],[101.73475,3.16503],[101.7351,3.16518],[101.73519,3.16541],[101.73524,3.16585],[101.73525,3.1675],[101.73527,3.16918],[101.73512,3.17194],[101.7351,3.1727],[101.73516,3.17368],[101.73541,3.17461],[101.73578,3.17564],[101.73619,3.17663],[101.73698,3.17798],[101.73773,3.17952],[101.739,3.18292],[101.73969,3.18529],[101.74019,3.18723],[101.74051,3.18842],[101.74069,3.18946],[101.74072,3.19096],[101.74029,3.19299],[101.73934,3.19461],[101.73876,3.19539],[101.73823,3.19629],[101.73798,3.19707],[101.73777,3.19792],[101.73747,3.19918],[101.73692,3.2008],[101.73663,3.20169],[101.73631,3.20241],[101.73583,3.20288],[101.73395,3.20415],[101.73218,3.20547],[101.7318,3.20575],[101.72983,3.20722],[101.72865,3.20824],[101.7281,3.20873],[101.72761,3.2091],[101.72665,3.21028],[101.72613,3.21131],[101.7258,3.21306],[101.72555,3.21409],[101.72545,3.21452],[101.72529,3.21502],[101.72509,3.21558],[101.72442,3.21674],[101.72327,3.21817],[101.72197,3.21956],[101.72154,3.22003],[101.72062,3.22098],[101.71991,3.22187],[101.71982,3.22235],[101.71983,3.22264],[101.71992,3.22292],[101.72002,3.22321],[101.7216,3.22481],[101.72243,3.22564],[101.72319,3.22638],[101.72354,3.22669],[101.72393,3.22707],[101.72415,3.22734],[101.72433,3.22769],[101.72437,3.22818],[101.72443,3.23179]]}},{"type":"Feature","properties":{"id":"PH","name":"LRT Sri Petaling Line","short":"SPL","category":"LRT","color":"#76232f"},"geometry":{"type":"LineString","coordinates":[[101.57332,2.99714],[101.57379,2.99686],[101.57444,2.99653],[101.57538,2.99605],[101.57593,2.99576],[101.57672,2.99536],[101.5772,2.99511],[101.5776,2.99489],[101.57861,2.99433],[101.57896,2.99416],[101.57961,2.99387],[101.5801,2.99376],[101.58057,2.99379],[101.58101,2.99389],[101.58145,2.99411],[101.58183,2.99433],[101.58228,2.99461],[101.58262,2.99482],[101.5832,2.99509],[101.58378,2.99525],[101.58446,2.99532],[101.58524,2.99527],[101.58591,2.99523],[101.58662,2.99519],[101.58735,2.99515],[101.58783,2.99512],[101.58849,2.99509],[101.58963,2.99504],[101.59061,2.99498],[101.59115,2.99494],[101.59157,2.99486],[101.59199,2.99476],[101.59249,2.99465],[101.59302,2.99454],[101.59346,2.99445],[101.59389,2.9944],[101.59412,2.99444],[101.59441,2.99457],[101.59465,2.99473],[101.59484,2.99498],[101.595,2.99533],[101.59512,2.99562],[101.5953,2.9961],[101.59542,2.99642],[101.59573,2.9972],[101.59606,2.99807],[101.59634,2.99885],[101.59658,2.9995],[101.59675,2.99996],[101.5971,3.0009],[101.59721,3.0012],[101.59736,3.00158],[101.5976,3.00219],[101.59772,3.00251],[101.59786,3.00287],[101.59799,3.00319],[101.59811,3.00352],[101.59816,3.00371],[101.5982,3.00386],[101.59823,3.00401],[101.59824,3.00418],[101.59823,3.00432],[101.59823,3.00443],[101.59821,3.00464],[101.59819,3.00481],[101.59815,3.00506],[101.5981,3.00543],[101.59805,3.00584],[101.59797,3.00633],[101.59793,3.00667],[101.59794,3.00691],[101.59795,3.00703],[101.59801,3.0072],[101.59807,3.00731],[101.59813,3.00744],[101.59823,3.00757],[101.59837,3.00771],[101.59851,3.0078],[101.59868,3.0079],[101.59881,3.00794],[101.59905,3.00797],[101.59919,3.00797],[101.59929,3.00797],[101.59933,3.00797],[101.59944,3.00796],[101.59966,3.00796],[101.59993,3.00794],[101.60022,3.00791],[101.60057,3.00789],[101.601,3.00786],[101.60134,3.00786],[101.60208,3.00786],[101.60266,3.00787],[101.60312,3.00786],[101.60378,3.00786],[101.60412,3.00785],[101.60443,3.00785],[101.60482,3.00786],[101.60511,3.00786],[101.60543,3.00785],[101.60579,3.00785],[101.6061,3.00786],[101.60629,3.00788],[101.60645,3.00791],[101.60647,3.00793],[101.60657,3.00795],[101.60681,3.00808],[101.6071,3.00829],[101.60738,3.00854],[101.60772,3.00887],[101.60805,3.00923],[101.60824,3.00943],[101.60846,3.00962],[101.60868,3.00976],[101.6089,3.00987],[101.60893,3.00989],[101.60909,3.00992],[101.60934,3.00994],[101.60984,3.00995],[101.61054,3.00997],[101.61092,3.00998],[101.61127,3.01007],[101.61159,3.01027],[101.61186,3.01059],[101.61207,3.01096],[101.61234,3.01141],[101.61258,3.01183],[101.61272,3.01214],[101.6128,3.01249],[101.61282,3.01275],[101.61281,3.013],[101.61279,3.0132],[101.61275,3.01333],[101.61264,3.01377],[101.61256,3.01425],[101.61251,3.0145],[101.61249,3.01471],[101.61248,3.01483],[101.61249,3.01499],[101.61254,3.01539],[101.61262,3.01592],[101.61271,3.01641],[101.61283,3.01707],[101.61296,3.0177],[101.61308,3.0182],[101.6131,3.01839],[101.61311,3.01861],[101.61311,3.01888],[101.61309,3.01926],[101.61305,3.01963],[101.61299,3.02043],[101.61297,3.02089],[101.61299,3.02104],[101.6132,3.02188],[101.61345,3.02284],[101.6136,3.02331],[101.61371,3.02367],[101.61383,3.02415],[101.61393,3.02472],[101.61407,3.0254],[101.61424,3.02633],[101.61453,3.02783],[101.6146,3.02813],[101.61464,3.02828],[101.61466,3.02861],[101.61467,3.02876],[101.61468,3.02886],[101.61466,3.02948],[101.61468,3.02978],[101.61472,3.03012],[101.61477,3.03044],[101.61482,3.03061],[101.61492,3.03089],[101.61497,3.03101],[101.61507,3.03115],[101.61516,3.03131],[101.61522,3.03142],[101.61543,3.03182],[101.61581,3.03266],[101.61596,3.03303],[101.61616,3.03351],[101.61624,3.03371],[101.61629,3.03385],[101.61642,3.03423],[101.61648,3.03443],[101.61661,3.03486],[101.61677,3.03555],[101.61685,3.03587],[101.61703,3.03678],[101.61721,3.03773],[101.61734,3.03822],[101.61744,3.03851],[101.61759,3.03896],[101.61772,3.03951],[101.61782,3.04007],[101.61795,3.04086],[101.6181,3.04162],[101.61833,3.04243],[101.6187,3.04373],[101.61938,3.04502],[101.62038,3.04694],[101.62083,3.04781],[101.62172,3.04944],[101.62193,3.04985],[101.62217,3.05023],[101.62242,3.05059],[101.62256,3.05077],[101.6228,3.05106],[101.62292,3.05115],[101.62305,3.05122],[101.62323,3.05128],[101.62338,3.0513],[101.62348,3.05131],[101.62363,3.05129],[101.62379,3.05126],[101.62397,3.05121],[101.62411,3.05114],[101.62435,3.05099],[101.62459,3.05085],[101.62493,3.05061],[101.6251,3.05051],[101.62529,3.05041],[101.62545,3.05032],[101.62565,3.05024],[101.62592,3.05015],[101.62615,3.05009],[101.62657,3.05002],[101.62714,3.04994],[101.62768,3.04985],[101.62809,3.04978],[101.6283,3.04976],[101.62897,3.04973],[101.62949,3.04969],[101.63094,3.04962],[101.63336,3.04955],[101.63474,3.04952],[101.63678,3.04951],[101.63994,3.04945],[101.64087,3.04944],[101.64131,3.04944],[101.64161,3.04945],[101.64182,3.04948],[101.64206,3.04953],[101.64228,3.04961],[101.64269,3.04978],[101.64293,3.04988],[101.64398,3.05033],[101.64489,3.05073],[101.64554,3.05101],[101.6463,3.05117],[101.64728,3.05122],[101.64914,3.05137],[101.64981,3.05149],[101.65039,3.05172],[101.65126,3.05219],[101.65233,3.05276],[101.65341,3.05328],[101.65479,3.05392],[101.65582,3.05435],[101.65649,3.05467],[101.65689,3.05485],[101.65724,3.05499],[101.65822,3.05541],[101.65875,3.05568],[101.65902,3.05593],[101.65922,3.05623],[101.65934,3.05651],[101.65938,3.05683],[101.6594,3.05724],[101.65937,3.05784],[101.65933,3.0589],[101.65931,3.05962],[101.65933,3.06013],[101.65939,3.06041],[101.65952,3.06074],[101.65973,3.06109],[101.65998,3.06137],[101.66035,3.06163],[101.66069,3.0618],[101.66114,3.0619],[101.66158,3.06191],[101.66254,3.06192],[101.6633,3.06192],[101.66421,3.06192],[101.66613,3.06191],[101.66791,3.06191],[101.66897,3.0619],[101.66946,3.06195],[101.66992,3.06201],[101.67058,3.06214],[101.67119,3.06229],[101.67161,3.06237],[101.67209,3.06245],[101.67252,3.06251],[101.67357,3.06272],[101.67428,3.06288],[101.67514,3.06306],[101.67582,3.06315],[101.67631,3.06311],[101.67699,3.06293],[101.67817,3.06253],[101.6795,3.06206],[101.68038,3.06175],[101.68094,3.06157],[101.68172,3.06127],[101.68239,3.06109],[101.68289,3.06105],[101.68357,3.06113],[101.68406,3.06126],[101.68464,3.06136],[101.6853,3.06142],[101.6863,3.06147],[101.68778,3.06158],[101.68823,3.0616],[101.68869,3.06162],[101.68898,3.06162],[101.68923,3.0616],[101.68987,3.0614],[101.69019,3.06121],[101.69046,3.06096],[101.69073,3.06063],[101.69091,3.06028],[101.69116,3.05951],[101.69135,3.05911],[101.69224,3.05807],[101.69261,3.05771],[101.69287,3.05744],[101.69322,3.05719],[101.69347,3.05705],[101.69378,3.0569],[101.69406,3.05685],[101.69435,3.0568],[101.69478,3.0568],[101.69523,3.05688],[101.69574,3.05707],[101.69602,3.05726],[101.69637,3.05757],[101.69668,3.05786],[101.69703,3.05809],[101.69745,3.05827],[101.69961,3.05878],[101.70006,3.05889],[101.70036,3.05896],[101.7007,3.05908],[101.70102,3.05918],[101.70142,3.05936],[101.70164,3.05947],[101.70192,3.05963],[101.70215,3.05974],[101.70244,3.05986],[101.70297,3.06004],[101.70338,3.06011],[101.70368,3.06016],[101.70416,3.06022],[101.70551,3.06042],[101.70615,3.06051],[101.70668,3.06076],[101.70687,3.06089],[101.70737,3.06136],[101.70756,3.06169],[101.70779,3.06229],[101.70794,3.06338],[101.70811,3.06462],[101.70839,3.06714],[101.70868,3.0693],[101.70886,3.07095],[101.70895,3.07165],[101.70904,3.07219],[101.70916,3.07268],[101.70927,3.07311],[101.70951,3.07373],[101.70987,3.07442],[101.7104,3.07525],[101.71095,3.07583],[101.71198,3.07691],[101.71258,3.07737],[101.71336,3.07792],[101.71416,3.07849],[101.71471,3.07901],[101.715,3.07932],[101.71534,3.07999],[101.71569,3.0814],[101.71595,3.08278],[101.71599,3.08379],[101.71579,3.08433],[101.71553,3.08471],[101.71524,3.085],[101.71479,3.08545],[101.71464,3.0857],[101.71439,3.08621],[101.71412,3.08668],[101.71397,3.08695],[101.71323,3.08787],[101.7127,3.08875],[101.71242,3.08958],[101.71205,3.09186],[101.71191,3.0929],[101.71169,3.09353],[101.71132,3.09405],[101.71066,3.09463],[101.70989,3.09524],[101.70791,3.09677],[101.70711,3.0974],[101.70648,3.09813],[101.70623,3.09859],[101.70597,3.09928],[101.70592,3.10009],[101.70592,3.10069],[101.70603,3.10129],[101.70624,3.10199],[101.70655,3.1031],[101.70696,3.104],[101.70774,3.10489],[101.70888,3.10569],[101.7133,3.11147],[101.71528,3.11404],[101.71641,3.11564],[101.71682,3.11679],[101.71686,3.11772],[101.71689,3.11826],[101.71697,3.11898],[101.71705,3.1197],[101.71689,3.12069],[101.71659,3.12196],[101.71606,3.12304],[101.71582,3.12363],[101.71557,3.12429],[101.7154,3.12486],[101.71532,3.1253],[101.71527,3.12612],[101.71534,3.12667],[101.71543,3.12717],[101.71564,3.12825],[101.71571,3.12868],[101.71582,3.12931],[101.71586,3.12983],[101.71585,3.13031],[101.71569,3.13096],[101.7155,3.13137],[101.71531,3.13172],[101.71496,3.13214],[101.71445,3.13263],[101.71432,3.13271],[101.71377,3.13311],[101.71342,3.13335],[101.71301,3.13367],[101.71278,3.13387],[101.71263,3.13409],[101.71231,3.13452],[101.7119,3.1351],[101.71145,3.13578],[101.71118,3.13608],[101.71076,3.13647],[101.71033,3.1368],[101.70972,3.13723],[101.70913,3.13768],[101.70829,3.13833],[101.70755,3.13886],[101.70683,3.1394],[101.70611,3.1399],[101.70586,3.14012],[101.70491,3.14093],[101.70462,3.1412],[101.7043,3.14153],[101.70392,3.14194],[101.7036,3.14229],[101.70326,3.14271],[101.70297,3.14311],[101.70263,3.14366],[101.7019,3.14439],[101.70157,3.14474],[101.70133,3.14501],[101.70114,3.1452],[101.70091,3.14535],[101.70072,3.14541],[101.70051,3.14548],[101.7002,3.14556],[101.70001,3.14563],[101.69989,3.14569],[101.69971,3.14581],[101.69958,3.14594],[101.69946,3.14609],[101.69921,3.14644],[101.69894,3.14671],[101.6985,3.14714],[101.69815,3.14759],[101.69761,3.14812],[101.69687,3.1489],[101.69615,3.1498],[101.69559,3.15042],[101.69527,3.15078],[101.69503,3.15098],[101.6948,3.15112],[101.69457,3.15124],[101.69424,3.15137],[101.69403,3.15154],[101.69385,3.15178],[101.69376,3.15196],[101.69369,3.15219],[101.69367,3.15242],[101.6937,3.15276],[101.69377,3.1531],[101.69384,3.15345],[101.69396,3.15391],[101.69409,3.15439],[101.69424,3.15486],[101.69436,3.15534],[101.69449,3.156],[101.69451,3.15627],[101.6945,3.15672],[101.69438,3.15731],[101.69425,3.15761],[101.69409,3.15801],[101.69393,3.1585],[101.69381,3.15885],[101.69375,3.15917],[101.69372,3.15952],[101.69377,3.15989],[101.69383,3.1602],[101.69397,3.16066],[101.69405,3.16097],[101.69423,3.16164],[101.69432,3.16199],[101.69437,3.16226],[101.69435,3.16243],[101.6943,3.16265],[101.69425,3.16276],[101.69411,3.16301],[101.69387,3.16336],[101.69369,3.16365],[101.69362,3.1639],[101.69359,3.16412],[101.6936,3.16432],[101.69363,3.16453],[101.69373,3.16485],[101.69381,3.16517],[101.69386,3.16538],[101.69384,3.16579],[101.69353,3.16693],[101.6933,3.16776],[101.69329,3.16807],[101.6933,3.16828],[101.69334,3.16843],[101.69351,3.16876],[101.69362,3.16892],[101.69387,3.16919],[101.69411,3.16945],[101.69442,3.16983],[101.69468,3.17014],[101.69491,3.1704],[101.69505,3.1706],[101.69518,3.17085],[101.69533,3.17117],[101.6954,3.17146],[101.69544,3.17173],[101.69546,3.17212],[101.69544,3.17246],[101.6954,3.17303],[101.69525,3.17399],[101.6952,3.17444],[101.69523,3.1749],[101.69525,3.17522],[101.69536,3.1755],[101.69543,3.17566],[101.69554,3.17585],[101.69566,3.17611],[101.69583,3.1765],[101.69592,3.17686],[101.69594,3.17711],[101.69594,3.17738],[101.69586,3.17779],[101.69577,3.17807],[101.69538,3.17918],[101.69502,3.18011],[101.69469,3.18104],[101.69455,3.18157],[101.69452,3.18185],[101.69452,3.18207],[101.69455,3.18235],[101.69461,3.18256],[101.69469,3.18282],[101.6948,3.18304],[101.69495,3.18329],[101.69511,3.18358],[101.69532,3.18395],[101.69547,3.18436],[101.69552,3.18452],[101.69554,3.18473],[101.69543,3.18536],[101.69521,3.1866]]}},{"type":"Feature","properties":{"id":"KGL","name":"MRT Kajang Line","short":"KGL","category":"MRT","color":"#047940"},"geometry":{"type":"LineString","coordinates":[[101.58667,3.20351],[101.58553,3.20428],[101.58369,3.20559],[101.58337,3.20577],[101.58287,3.20599],[101.58259,3.20608],[101.58183,3.20634],[101.58109,3.20654],[101.58051,3.20666],[101.58016,3.20664],[101.57982,3.20657],[101.57942,3.20639],[101.57897,3.20603],[101.57866,3.20545],[101.57858,3.20489],[101.57864,3.20424],[101.57868,3.20339],[101.57859,3.20244],[101.57849,3.20188],[101.57849,3.20136],[101.57859,3.20024],[101.57869,3.19914],[101.57868,3.19855],[101.57859,3.19813],[101.5784,3.19721],[101.57815,3.19566],[101.57804,3.19483],[101.57816,3.19401],[101.57851,3.19271],[101.57878,3.19179],[101.57883,3.19124],[101.57868,3.19066],[101.5785,3.19009],[101.57828,3.1894],[101.57829,3.18885],[101.57846,3.18828],[101.57885,3.18762],[101.57906,3.18725],[101.57918,3.18682],[101.57922,3.18612],[101.57894,3.18532],[101.57866,3.18463],[101.57797,3.18293],[101.57715,3.18089],[101.57664,3.17948],[101.57608,3.17856],[101.57536,3.17776],[101.5747,3.17734],[101.57381,3.17691],[101.57191,3.17626],[101.56969,3.17564],[101.56864,3.17541],[101.56795,3.17497],[101.56755,3.1745],[101.56657,3.17282],[101.56471,3.1697],[101.56424,3.16877],[101.5639,3.16813],[101.56379,3.16756],[101.56379,3.16686],[101.56399,3.16616],[101.56439,3.1655],[101.56518,3.16461],[101.56561,3.16413],[101.56694,3.16263],[101.56853,3.16088],[101.56918,3.16016],[101.56972,3.15966],[101.57094,3.15875],[101.57166,3.15821],[101.5721,3.15778],[101.57244,3.15726],[101.5727,3.15649],[101.57298,3.15567],[101.5734,3.15498],[101.57448,3.15336],[101.57551,3.15179],[101.576,3.15112],[101.57646,3.15074],[101.5769,3.1505],[101.57744,3.15037],[101.57796,3.1503],[101.58008,3.15023],[101.58294,3.15008],[101.58782,3.14989],[101.58969,3.1498],[101.59262,3.14969],[101.59559,3.14961],[101.59666,3.14948],[101.59765,3.14939],[101.59872,3.14941],[101.59937,3.14953],[101.60013,3.14995],[101.60101,3.15075],[101.60177,3.15147],[101.6024,3.15245],[101.60296,3.15341],[101.60346,3.15415],[101.60395,3.15463],[101.60466,3.155],[101.6053,3.15514],[101.60634,3.15524],[101.60799,3.15525],[101.61122,3.15529],[101.61282,3.15523],[101.61333,3.15503],[101.61375,3.15477],[101.61427,3.15426],[101.61488,3.15328],[101.61601,3.15137],[101.61704,3.14958],[101.61813,3.14776],[101.61952,3.14533],[101.6199,3.14474],[101.62023,3.14443],[101.62062,3.14422],[101.62119,3.14398],[101.62157,3.1437],[101.62216,3.1432],[101.62297,3.14245],[101.62337,3.14213],[101.6238,3.14197],[101.62448,3.14179],[101.62505,3.1417],[101.62568,3.14151],[101.62624,3.1411],[101.62657,3.14065],[101.62699,3.13995],[101.62759,3.13905],[101.62816,3.13823],[101.62898,3.13763],[101.62973,3.13702],[101.63125,3.13566],[101.63258,3.13448],[101.63363,3.13358],[101.63422,3.13322],[101.63506,3.13296],[101.6359,3.1327],[101.63648,3.13246],[101.6371,3.13214],[101.63787,3.13168],[101.63859,3.13126],[101.63924,3.13093],[101.64001,3.13057],[101.64079,3.13031],[101.6412,3.13017],[101.6419,3.12987],[101.64317,3.12914],[101.64416,3.12854],[101.64476,3.12832],[101.64526,3.12829],[101.64582,3.1284],[101.64641,3.12872],[101.64691,3.12925],[101.64739,3.13001],[101.64802,3.13089],[101.6485,3.13142],[101.6491,3.13197],[101.65021,3.13295],[101.65123,3.13387],[101.65202,3.13457],[101.65261,3.13502],[101.65322,3.13539],[101.65387,3.13573],[101.65449,3.13599],[101.65546,3.13621],[101.65627,3.13643],[101.65689,3.13669],[101.65735,3.13706],[101.65763,3.13745],[101.65792,3.13801],[101.65824,3.13897],[101.65862,3.13989],[101.65904,3.14058],[101.65979,3.14143],[101.66048,3.1422],[101.66094,3.14263],[101.66143,3.143],[101.66185,3.14317],[101.66294,3.14359],[101.66345,3.14384],[101.66376,3.1441],[101.66402,3.14451],[101.66424,3.14504],[101.66423,3.14553],[101.66413,3.14596],[101.66394,3.14639],[101.66375,3.14692],[101.66364,3.14729],[101.6636,3.14816],[101.66358,3.149],[101.66358,3.14955],[101.66374,3.15008],[101.66402,3.15047],[101.66435,3.15069],[101.66476,3.15082],[101.66592,3.15121],[101.66632,3.15129],[101.66668,3.15125],[101.66696,3.15114],[101.6673,3.15094],[101.66769,3.15069],[101.66809,3.15052],[101.66847,3.15048],[101.66886,3.15049],[101.66933,3.15059],[101.67,3.15091],[101.67064,3.15123],[101.67133,3.15159],[101.67175,3.15179],[101.67213,3.15189],[101.67258,3.1519],[101.673,3.15179],[101.67341,3.15156],[101.6737,3.15131],[101.67403,3.15085],[101.67445,3.15023],[101.67486,3.14968],[101.67559,3.14894],[101.67616,3.1484],[101.67662,3.14792],[101.67696,3.14736],[101.67719,3.14674],[101.67766,3.14535],[101.6779,3.14476],[101.67814,3.14417],[101.67834,3.14355],[101.67857,3.14265],[101.67884,3.14223],[101.67916,3.14178],[101.67962,3.14123],[101.68023,3.14065],[101.68103,3.13995],[101.68163,3.13941],[101.68226,3.13898],[101.68319,3.13852],[101.68409,3.13814],[101.68481,3.13793],[101.68532,3.13769],[101.68579,3.1374],[101.68634,3.13719],[101.68693,3.13719],[101.68764,3.1372],[101.68805,3.13725],[101.68893,3.13742],[101.69002,3.13766],[101.69113,3.13787],[101.69171,3.13802],[101.69225,3.13829],[101.69265,3.13871],[101.69284,3.13911],[101.69313,3.13984],[101.69329,3.14038],[101.69348,3.14092],[101.69376,3.14146],[101.69412,3.14185],[101.69459,3.14208],[101.69498,3.1422],[101.69556,3.14229],[101.69612,3.14234],[101.69667,3.14239],[101.69717,3.14245],[101.69771,3.14252],[101.69822,3.14261],[101.69859,3.14267],[101.69892,3.14268],[101.69944,3.14271],[101.70006,3.14271],[101.70076,3.1426],[101.70129,3.14238],[101.70183,3.14209],[101.70242,3.14177],[101.70292,3.14151],[101.7032,3.14133],[101.7036,3.14117],[101.70407,3.14108],[101.70445,3.14109],[101.70475,3.1412],[101.70506,3.14138],[101.70536,3.1416],[101.7057,3.14195],[101.70592,3.14234],[101.70599,3.14262],[101.70608,3.14296],[101.7062,3.14323],[101.70639,3.14349],[101.70658,3.14368],[101.70683,3.14382],[101.70739,3.144],[101.70789,3.14419],[101.70829,3.14444],[101.70909,3.14503],[101.70953,3.14537],[101.71002,3.14575],[101.71056,3.14612],[101.71133,3.14668],[101.71169,3.147],[101.71222,3.14737],[101.71281,3.14773],[101.71329,3.14788],[101.71371,3.14795],[101.71415,3.14797],[101.71477,3.14805],[101.71541,3.14807],[101.7159,3.14808],[101.71651,3.14799],[101.71699,3.14781],[101.71736,3.14764],[101.71776,3.14738],[101.71807,3.14711],[101.71831,3.1468],[101.71853,3.14625],[101.71876,3.14563],[101.71907,3.14483],[101.71938,3.14404],[101.71966,3.14313],[101.71988,3.14226],[101.72013,3.14154],[101.7204,3.1407],[101.72081,3.13943],[101.72116,3.13834],[101.72151,3.1373],[101.72184,3.13626],[101.72223,3.13484],[101.72265,3.13321],[101.72289,3.13234],[101.723,3.13184],[101.72315,3.13135],[101.72329,3.13085],[101.72337,3.13055],[101.72357,3.13025],[101.72385,3.12992],[101.72441,3.12905],[101.72536,3.12755],[101.72605,3.12655],[101.72657,3.12571],[101.72706,3.12509],[101.72753,3.12432],[101.728,3.12345],[101.72816,3.12311],[101.72833,3.1226],[101.72833,3.12199],[101.7282,3.12145],[101.72798,3.12106],[101.72751,3.12065],[101.72665,3.12034],[101.72623,3.1202],[101.72562,3.11976],[101.72527,3.11929],[101.7248,3.11849],[101.72465,3.11794],[101.72467,3.11727],[101.72492,3.11671],[101.72534,3.11626],[101.72591,3.1159],[101.72698,3.11529],[101.72773,3.11488],[101.72833,3.11451],[101.72884,3.11405],[101.72911,3.1134],[101.72934,3.11265],[101.72955,3.11192],[101.73006,3.11034],[101.73071,3.10813],[101.73098,3.10726],[101.73124,3.10647],[101.73136,3.10596],[101.73149,3.10563],[101.7317,3.10527],[101.73219,3.10451],[101.73276,3.10368],[101.73326,3.10301],[101.73383,3.1024],[101.73455,3.10166],[101.73546,3.10068],[101.73625,3.0998],[101.73713,3.09879],[101.73778,3.098],[101.73815,3.09745],[101.73846,3.09667],[101.73871,3.09585],[101.73895,3.09518],[101.73925,3.09449],[101.73967,3.09345],[101.73997,3.09257],[101.74036,3.09145],[101.74072,3.09021],[101.74113,3.08889],[101.74147,3.08794],[101.74163,3.08692],[101.74181,3.08632],[101.74207,3.0854],[101.74213,3.08501],[101.74217,3.08429],[101.74219,3.08325],[101.74224,3.08224],[101.74236,3.08157],[101.74257,3.08099],[101.74281,3.08056],[101.74311,3.08015],[101.74346,3.07976],[101.74368,3.0796],[101.74404,3.07939],[101.7444,3.0793],[101.74522,3.07917],[101.74626,3.07903],[101.74684,3.07898],[101.74742,3.07897],[101.748,3.07891],[101.74868,3.07878],[101.74964,3.07862],[101.75056,3.07834],[101.75233,3.07774],[101.75395,3.07716],[101.75505,3.07675],[101.75578,3.07648],[101.75658,3.07624],[101.75733,3.07604],[101.75801,3.07592],[101.75892,3.07575],[101.7596,3.07564],[101.76016,3.07551],[101.76062,3.07532],[101.7609,3.07511],[101.76119,3.07482],[101.76143,3.07446],[101.76167,3.07398],[101.76202,3.07336],[101.76226,3.07289],[101.76252,3.07245],[101.76288,3.07205],[101.76355,3.07158],[101.76439,3.07087],[101.7652,3.07022],[101.76614,3.06943],[101.76708,3.06866],[101.76772,3.0681],[101.76838,3.06751],[101.76892,3.06708],[101.7693,3.06669],[101.76957,3.06637],[101.77002,3.06577],[101.77052,3.06515],[101.77107,3.06443],[101.77173,3.06364],[101.7723,3.0629],[101.77298,3.06213],[101.77364,3.06123],[101.77394,3.06076],[101.77414,3.06032],[101.77426,3.0598],[101.77437,3.05886],[101.7744,3.0583],[101.77432,3.05777],[101.77419,3.05722],[101.77404,3.05666],[101.77399,3.05607],[101.77398,3.05553],[101.77394,3.0544],[101.77391,3.05351],[101.7739,3.05276],[101.77403,3.0522],[101.77425,3.05163],[101.77451,3.05115],[101.77483,3.05057],[101.77503,3.05002],[101.7751,3.04949],[101.7751,3.0491],[101.7751,3.04835],[101.77504,3.04739],[101.77504,3.0467],[101.77505,3.04606],[101.77504,3.0455],[101.77495,3.04499],[101.77473,3.0444],[101.77425,3.04348],[101.77394,3.04284],[101.77358,3.042],[101.77338,3.04134],[101.773,3.04024],[101.77286,3.03979],[101.7726,3.03922],[101.77226,3.03867],[101.77199,3.03828],[101.77176,3.0379],[101.77152,3.03741],[101.77125,3.0367],[101.77103,3.036],[101.77068,3.03519],[101.77022,3.03444],[101.76974,3.03371],[101.76943,3.03322],[101.76922,3.03273],[101.76912,3.0323],[101.76911,3.03183],[101.76921,3.03116],[101.76936,3.03072],[101.76966,3.0302],[101.76987,3.02979],[101.77007,3.02946],[101.7702,3.02907],[101.77041,3.02833],[101.77057,3.02776],[101.7708,3.02713],[101.77114,3.0263],[101.77202,3.02407],[101.77233,3.02317],[101.77265,3.02228],[101.77294,3.02152],[101.77321,3.02075],[101.77336,3.02014],[101.77349,3.01912],[101.77361,3.01795],[101.77368,3.01694],[101.77381,3.01616],[101.77395,3.01566],[101.77421,3.01492],[101.77471,3.01382],[101.77547,3.01214],[101.77601,3.01082],[101.77658,3.00976],[101.77692,3.0091],[101.77719,3.00855],[101.7775,3.00793],[101.77783,3.00715],[101.7781,3.0063],[101.77837,3.00557],[101.77865,3.00503],[101.77906,3.00464],[101.77951,3.00434],[101.77991,3.00412],[101.78041,3.00399],[101.78093,3.00388],[101.78127,3.0038],[101.7817,3.00362],[101.78197,3.00341],[101.78221,3.00317],[101.78239,3.00293],[101.78269,3.00246],[101.78295,3.00209],[101.78321,3.00177],[101.78348,3.0014],[101.78403,3.00083],[101.78478,2.99987],[101.78541,2.99911],[101.78595,2.99854],[101.78629,2.99817],[101.78646,2.99786],[101.78662,2.99746],[101.78674,2.99696],[101.78678,2.99647],[101.78674,2.99599],[101.78661,2.99533],[101.78647,2.99473],[101.78633,2.99404],[101.78614,2.99335],[101.78601,2.99291],[101.78592,2.99248],[101.78596,2.99192],[101.78608,2.99146],[101.78636,2.99095],[101.78667,2.9906],[101.78698,2.99036],[101.78746,2.99013],[101.78806,2.98988],[101.78846,2.98968],[101.78894,2.98938],[101.78937,2.98899],[101.78969,2.98857],[101.78996,2.98811],[101.79011,2.98776],[101.79021,2.98742],[101.7903,2.98697],[101.79038,2.98635],[101.7904,2.98577],[101.79039,2.98525],[101.79035,2.98454],[101.79035,2.98387],[101.79033,2.98289],[101.79028,2.9813]]}},{"type":"Feature","properties":{"id":"PYL","name":"MRT Putrajaya Line","short":"PYL","category":"MRT","color":"#FFCD00"},"geometry":{"type":"LineString","coordinates":[[101.57225,3.17631],[101.57386,3.1767],[101.57453,3.17707],[101.57529,3.1776],[101.57584,3.17816],[101.57634,3.17887],[101.57662,3.17939],[101.57678,3.17976],[101.57696,3.1802],[101.57718,3.18074],[101.57758,3.18176],[101.57826,3.18341],[101.57863,3.1844],[101.57923,3.18586],[101.57932,3.18617],[101.57933,3.18652],[101.57928,3.1869],[101.579,3.18753],[101.5786,3.18815],[101.57844,3.18854],[101.57835,3.18897],[101.57836,3.18939],[101.57848,3.18983],[101.5787,3.19034],[101.57883,3.19081],[101.5789,3.19116],[101.57891,3.19166],[101.57873,3.19227],[101.5782,3.19415],[101.57814,3.19452],[101.57813,3.19486],[101.57816,3.19527],[101.57824,3.19583],[101.5783,3.19627],[101.5784,3.19665],[101.57847,3.19699],[101.57857,3.1973],[101.57861,3.19756],[101.57864,3.19778],[101.57877,3.19905],[101.57861,3.2006],[101.57855,3.20133],[101.57856,3.20195],[101.57876,3.20302],[101.5788,3.20386],[101.57865,3.20518],[101.57882,3.20556],[101.57899,3.2059],[101.57914,3.20608],[101.57926,3.20618],[101.57938,3.2063],[101.57965,3.20646],[101.57995,3.20662],[101.58023,3.20662],[101.58059,3.2066],[101.5809,3.20655],[101.58121,3.20649],[101.58165,3.20636],[101.5824,3.20615],[101.58312,3.20587],[101.58357,3.20565],[101.58456,3.20503],[101.58512,3.20457],[101.58634,3.20373],[101.587,3.20331],[101.5876,3.20274],[101.588,3.20213],[101.58825,3.20168],[101.58848,3.20147],[101.58895,3.20107],[101.58954,3.20074],[101.59008,3.20059],[101.59044,3.20046],[101.59128,3.20025],[101.59205,3.2],[101.59329,3.19965],[101.59437,3.19935],[101.59582,3.19918],[101.59699,3.19931],[101.59762,3.19952],[101.59799,3.19958],[101.59858,3.19982],[101.59919,3.19978],[101.59973,3.19967],[101.60033,3.19946],[101.60102,3.19926],[101.60358,3.19871],[101.60475,3.19846],[101.60657,3.1981],[101.60766,3.19818],[101.60838,3.19827],[101.60899,3.19832],[101.60938,3.19834],[101.60995,3.19846],[101.61066,3.19863],[101.61121,3.19893],[101.61193,3.19933],[101.61256,3.19974],[101.61289,3.1999],[101.61347,3.20008],[101.61402,3.20013],[101.61456,3.20011],[101.61511,3.20002],[101.61555,3.1999],[101.61594,3.19968],[101.61646,3.19941],[101.61702,3.199],[101.61741,3.19874],[101.61772,3.19857],[101.61806,3.19836],[101.61844,3.19829],[101.61893,3.1982],[101.61938,3.19821],[101.6199,3.1983],[101.62045,3.1984],[101.62088,3.19852],[101.62127,3.1986],[101.62195,3.19873],[101.62251,3.19881],[101.623,3.19895],[101.62343,3.19912],[101.62379,3.1994],[101.62431,3.19984],[101.62508,3.20108],[101.62576,3.20223],[101.62685,3.20401],[101.62759,3.20548],[101.62839,3.20723],[101.62872,3.20787],[101.6295,3.2094],[101.62958,3.21027],[101.62969,3.21086],[101.6299,3.21136],[101.63015,3.2118],[101.63086,3.21239],[101.63151,3.21265],[101.6328,3.21336],[101.63369,3.2136],[101.63475,3.21363],[101.63607,3.21385],[101.63753,3.21409],[101.63853,3.21433],[101.63938,3.2145],[101.6399,3.21454],[101.64101,3.21464],[101.64186,3.21461],[101.64266,3.21444],[101.64296,3.21425],[101.64398,3.21384],[101.6452,3.21333],[101.64599,3.21298],[101.6465,3.21264],[101.64704,3.21236],[101.64746,3.21219],[101.64821,3.21169],[101.64902,3.21128],[101.64991,3.21071],[101.65081,3.2101],[101.65114,3.20984],[101.65156,3.20966],[101.6518,3.2095],[101.65215,3.2094],[101.65254,3.20928],[101.65297,3.2092],[101.65403,3.20923],[101.65466,3.20938],[101.65534,3.20941],[101.6558,3.20947],[101.65639,3.20952],[101.65686,3.20956],[101.65725,3.20958],[101.65768,3.20951],[101.65814,3.20939],[101.6584,3.20934],[101.65857,3.20929],[101.65925,3.20898],[101.66002,3.20855],[101.66048,3.20834],[101.66117,3.208],[101.66154,3.20782],[101.662,3.20777],[101.66297,3.20777],[101.66343,3.20775],[101.66407,3.20778],[101.6645,3.20765],[101.66473,3.20756],[101.66504,3.20745],[101.66522,3.20735],[101.66558,3.20719],[101.66611,3.20695],[101.66657,3.20676],[101.66721,3.20642],[101.66834,3.20614],[101.66907,3.20626],[101.66963,3.20646],[101.67032,3.20673],[101.67103,3.20707],[101.67186,3.20741],[101.67252,3.20752],[101.67318,3.20745],[101.67367,3.20733],[101.67422,3.20705],[101.67492,3.20644],[101.67564,3.20558],[101.67607,3.2049],[101.67626,3.20423],[101.67629,3.20327],[101.67637,3.20273],[101.67656,3.20204],[101.67674,3.20163],[101.67695,3.20133],[101.67716,3.20098],[101.67776,3.19999],[101.67817,3.19932],[101.67853,3.1987],[101.67893,3.19793],[101.67915,3.19755],[101.67926,3.19735],[101.67937,3.19711],[101.67949,3.19676],[101.67956,3.19637],[101.67959,3.19608],[101.67963,3.19541],[101.67968,3.19474],[101.67972,3.19408],[101.67977,3.19343],[101.67983,3.19262],[101.67995,3.19205],[101.6801,3.19165],[101.68019,3.19141],[101.68039,3.19097],[101.68081,3.19009],[101.68114,3.18937],[101.68155,3.18844],[101.68182,3.18778],[101.68193,3.18743],[101.68195,3.18712],[101.68186,3.18635],[101.68173,3.18591],[101.68161,3.18547],[101.68145,3.18498],[101.68143,3.18432],[101.68155,3.18401],[101.68163,3.18348],[101.68173,3.18294],[101.6818,3.18261],[101.68194,3.18214],[101.68215,3.18145],[101.68244,3.18106],[101.68274,3.18063],[101.68302,3.18035],[101.68323,3.18016],[101.68376,3.17987],[101.68407,3.17968],[101.6842,3.17958],[101.68438,3.17948],[101.68459,3.17941],[101.68474,3.17937],[101.68492,3.17928],[101.68511,3.17918],[101.68531,3.17909],[101.68551,3.179],[101.68604,3.1787],[101.68702,3.17816],[101.68775,3.17754],[101.68803,3.17748],[101.68863,3.17706],[101.68935,3.17658],[101.68979,3.17625],[101.6903,3.1759],[101.6906,3.17555],[101.69106,3.17472],[101.69153,3.17387],[101.6921,3.17327],[101.69251,3.1728],[101.69312,3.17275],[101.69398,3.17295],[101.69472,3.17335],[101.69562,3.17385],[101.69583,3.17402],[101.69667,3.17428],[101.69726,3.17428],[101.69777,3.17383],[101.69805,3.17358],[101.69833,3.17354],[101.69879,3.17361],[101.69975,3.17412],[101.70036,3.17421],[101.70102,3.17432],[101.70159,3.17432],[101.70207,3.17413],[101.70254,3.17391],[101.70315,3.17375],[101.70393,3.17355],[101.70469,3.17311],[101.70498,3.17256],[101.70565,3.17194],[101.70618,3.17127],[101.70637,3.17093],[101.70664,3.17034],[101.70716,3.16939],[101.70745,3.16894],[101.70787,3.16849],[101.70821,3.16823],[101.70856,3.16802],[101.71017,3.16794],[101.71174,3.16794],[101.71342,3.16795],[101.71429,3.16763],[101.71534,3.16708],[101.71597,3.16663],[101.71669,3.16526],[101.71716,3.16444],[101.71739,3.16379],[101.71771,3.16292],[101.71781,3.16252],[101.71799,3.16175],[101.7181,3.16112],[101.71828,3.16012],[101.71829,3.15944],[101.71822,3.15742],[101.71817,3.15677],[101.71813,3.15563],[101.71817,3.15454],[101.71808,3.15362],[101.71811,3.15291],[101.71815,3.15256],[101.71814,3.1521],[101.71817,3.15172],[101.7182,3.1514],[101.71822,3.15117],[101.71838,3.15073],[101.71852,3.15039],[101.71862,3.1501],[101.71887,3.14967],[101.71897,3.14941],[101.71913,3.1487],[101.7192,3.1482],[101.71926,3.14675],[101.71928,3.14631],[101.71933,3.14574],[101.71986,3.14353],[101.72002,3.14293],[101.72011,3.14259],[101.72012,3.1423],[101.72009,3.14193],[101.72002,3.14143],[101.71982,3.14098],[101.71976,3.14048],[101.71976,3.14021],[101.71936,3.13943],[101.71899,3.13889],[101.7189,3.13866],[101.7184,3.13811],[101.71816,3.13762],[101.71811,3.13716],[101.71839,3.13671],[101.71846,3.1362],[101.71872,3.13588],[101.71881,3.13534],[101.71882,3.1349],[101.71883,3.13466],[101.71873,3.13414],[101.71874,3.13393],[101.7186,3.13356],[101.71849,3.13325],[101.71833,3.13281],[101.7183,3.1327],[101.71812,3.13224],[101.71796,3.13184],[101.71758,3.13079],[101.71743,3.13046],[101.71729,3.13023],[101.7172,3.12998],[101.71709,3.12974],[101.71687,3.12938],[101.71639,3.12866],[101.71504,3.12607],[101.71287,3.12317],[101.71229,3.12251],[101.71023,3.12153],[101.70895,3.12116],[101.7073,3.12031],[101.70473,3.11823],[101.69719,3.10802],[101.69486,3.10103],[101.6948,3.10075],[101.69479,3.10024],[101.69482,3.09981],[101.69495,3.09936],[101.69514,3.09871],[101.69522,3.09812],[101.6952,3.09765],[101.69503,3.09672],[101.69482,3.0958],[101.69447,3.09442],[101.69429,3.09241],[101.69421,3.09095],[101.69411,3.0895],[101.69404,3.08846],[101.6941,3.08789],[101.69416,3.08757],[101.69433,3.08713],[101.69448,3.08681],[101.69465,3.08659],[101.69492,3.08629],[101.69589,3.08545],[101.69669,3.08463],[101.69719,3.08413],[101.6974,3.08384],[101.69751,3.08357],[101.69771,3.08312],[101.69787,3.08221],[101.69796,3.08136],[101.69827,3.08052],[101.69888,3.0792],[101.69924,3.07839],[101.69957,3.07763],[101.69993,3.07687],[101.70034,3.07624],[101.70076,3.0758],[101.70127,3.07545],[101.70155,3.07534],[101.7023,3.07516],[101.70287,3.07505],[101.70355,3.07482],[101.704,3.07455],[101.70436,3.0742],[101.70456,3.07397],[101.70493,3.07331],[101.70509,3.07275],[101.70532,3.07204],[101.70581,3.07074],[101.70619,3.06964],[101.70636,3.0692],[101.70661,3.06867],[101.70689,3.06829],[101.70712,3.06803],[101.7077,3.06754],[101.708,3.06726],[101.70809,3.06716],[101.70821,3.06698],[101.70838,3.06665],[101.70854,3.06614],[101.70859,3.06571],[101.70859,3.06554],[101.70856,3.06517],[101.70847,3.06444],[101.70841,3.06381],[101.70832,3.06314],[101.70829,3.06282],[101.70823,3.0625],[101.70813,3.0621],[101.70786,3.06155],[101.70761,3.06119],[101.70736,3.06079],[101.70711,3.06037],[101.70691,3.05995],[101.70683,3.0595],[101.70679,3.05888],[101.70677,3.05853],[101.70675,3.05821],[101.70672,3.05777],[101.70668,3.05687],[101.70666,3.05626],[101.70663,3.05579],[101.70656,3.05483],[101.70652,3.05437],[101.70647,3.05365],[101.70644,3.0532],[101.7064,3.05299],[101.70632,3.05268],[101.70606,3.05201],[101.70601,3.05188],[101.70583,3.05143],[101.70573,3.05113],[101.70546,3.05046],[101.70526,3.04995],[101.70515,3.04962],[101.70502,3.04918],[101.70498,3.04862],[101.70499,3.04839],[101.70504,3.04799],[101.70506,3.04774],[101.70509,3.04735],[101.70514,3.0466],[101.70517,3.04601],[101.7052,3.04503],[101.70523,3.04447],[101.70523,3.04397],[101.70522,3.04355],[101.70513,3.04301],[101.70505,3.04245],[101.70491,3.04168],[101.70481,3.04097],[101.70469,3.04004],[101.7047,3.03948],[101.70485,3.03867],[101.70504,3.03795],[101.7053,3.03706],[101.7054,3.03667],[101.70549,3.0362],[101.70557,3.03554],[101.7056,3.03499],[101.70576,3.03329],[101.70586,3.03224],[101.70593,3.03174],[101.70602,3.03135],[101.70615,3.03084],[101.70644,3.0301],[101.70664,3.02978],[101.70691,3.02937],[101.70752,3.02846],[101.7079,3.02796],[101.70826,3.02751],[101.70864,3.02694],[101.70876,3.02668],[101.70887,3.02633],[101.70891,3.02587],[101.70888,3.02533],[101.70884,3.02471],[101.70879,3.02418],[101.70879,3.02368],[101.70883,3.02281],[101.70894,3.02161],[101.70907,3.0202],[101.70919,3.01978],[101.70969,3.01895],[101.71032,3.01801],[101.71093,3.01716],[101.7112,3.01674],[101.71134,3.01641],[101.71146,3.016],[101.71148,3.01567],[101.71147,3.01533],[101.71133,3.01461],[101.71121,3.01417],[101.71104,3.01365],[101.71077,3.01308],[101.71027,3.01211],[101.70979,3.01115],[101.7094,3.01042],[101.70911,3.00987],[101.7089,3.00954],[101.70863,3.00925],[101.70831,3.00896],[101.70791,3.00871],[101.70738,3.00856],[101.70703,3.00849],[101.70668,3.00845],[101.70539,3.0085],[101.70449,3.00854],[101.70393,3.00853],[101.70247,3.00861],[101.70125,3.00865],[101.70069,3.00859],[101.69986,3.00831],[101.69921,3.00785],[101.69876,3.00729],[101.69839,3.00659],[101.6981,3.00565],[101.69768,3.00441],[101.69744,3.00382],[101.69727,3.00348],[101.69676,3.00276],[101.69642,3.00241],[101.69605,3.00212],[101.69561,3.00184],[101.69513,3.00158],[101.69407,3.00125],[101.69305,3.00109],[101.69197,3.00085],[101.69088,3.00061],[101.69018,3.00046],[101.68977,3.00034],[101.68879,3.00003],[101.68774,2.99969],[101.68701,2.9994],[101.68607,2.99902],[101.68557,2.9988],[101.68506,2.99849],[101.68456,2.9981],[101.684,2.99766],[101.68345,2.99721],[101.68268,2.99665],[101.68208,2.9963],[101.68152,2.99603],[101.68083,2.99579],[101.68019,2.99562],[101.67939,2.99545],[101.67833,2.99518],[101.67806,2.99505],[101.67748,2.99477],[101.67698,2.99445],[101.67659,2.99414],[101.67624,2.99382],[101.67592,2.99344],[101.67572,2.99319],[101.67546,2.99288],[101.67505,2.99236],[101.67452,2.99171],[101.67405,2.99113],[101.6732,2.9901],[101.67257,2.98932],[101.67141,2.98789],[101.6706,2.98691],[101.67002,2.98616],[101.66972,2.9858],[101.66909,2.98509],[101.66847,2.98445],[101.66818,2.98423],[101.66771,2.98399],[101.66711,2.98385],[101.66673,2.98381],[101.66625,2.98384],[101.66586,2.98393],[101.6655,2.98407],[101.66456,2.98439],[101.66397,2.98452],[101.66341,2.98457],[101.66299,2.98452],[101.66261,2.98443],[101.66228,2.98431],[101.66206,2.9842],[101.66156,2.98391],[101.66102,2.98345],[101.66059,2.9831],[101.66022,2.98281],[101.65948,2.98224],[101.65897,2.98182],[101.65866,2.98151],[101.65849,2.98128],[101.65827,2.98089],[101.65814,2.98063],[101.65799,2.98035],[101.65786,2.98009],[101.65761,2.97975],[101.65724,2.97941],[101.657,2.9792],[101.65682,2.97905],[101.6566,2.97883],[101.65641,2.97857],[101.65607,2.97804],[101.65553,2.9772],[101.6552,2.9767],[101.65484,2.97622],[101.65426,2.97546],[101.654,2.97502],[101.65387,2.97473],[101.65378,2.97442],[101.65371,2.97405],[101.6537,2.97355],[101.65376,2.97303],[101.65395,2.97256],[101.65457,2.97148],[101.65476,2.97108],[101.65489,2.97071],[101.65495,2.97026],[101.65494,2.96977],[101.6549,2.96901],[101.65484,2.96792],[101.65481,2.9662],[101.65482,2.96529],[101.65484,2.96416],[101.65476,2.96365],[101.65452,2.9631],[101.65402,2.96206],[101.65379,2.96148],[101.65369,2.96081],[101.65369,2.96054],[101.65379,2.96006],[101.65442,2.95835],[101.6547,2.9575],[101.65533,2.95565],[101.65594,2.95385],[101.65643,2.95251],[101.65686,2.9511],[101.65724,2.95],[101.65749,2.94926],[101.6577,2.94869],[101.65791,2.94785],[101.65806,2.94706],[101.65835,2.94642],[101.65887,2.94567],[101.65953,2.94528],[101.66027,2.94476],[101.66075,2.94437],[101.66127,2.94387],[101.66187,2.94315],[101.66236,2.94255],[101.66282,2.94205],[101.66372,2.94118],[101.66408,2.94084],[101.66449,2.94045],[101.66481,2.94003],[101.66522,2.93948],[101.66561,2.93897],[101.66592,2.93849],[101.66635,2.93792],[101.66657,2.93767],[101.66687,2.9374],[101.66736,2.93707],[101.66785,2.93678],[101.66963,2.93574],[101.67056,2.93519],[101.67102,2.93484],[101.67151,2.93422],[101.67169,2.93369],[101.67179,2.93318],[101.67182,2.93297],[101.67177,2.93248],[101.67167,2.93194],[101.67154,2.93132],[101.67078,2.92766]]}},{"type":"Feature","properties":{"id":"MR","name":"KL Monorail Line","short":"MRL","category":"MRL","color":"#84bd00"},"geometry":{"type":"LineString","coordinates":[[101.68782,3.13285],[101.68804,3.13259],[101.68878,3.13172],[101.68896,3.13142],[101.68926,3.1308],[101.68949,3.13042],[101.68967,3.13017],[101.68983,3.13009],[101.69006,3.13008],[101.69029,3.13012],[101.69055,3.13032],[101.69072,3.13066],[101.69092,3.13141],[101.69108,3.13179],[101.69118,3.13193],[101.69132,3.13217],[101.69155,3.13241],[101.69186,3.13267],[101.69209,3.13279],[101.69229,3.13285],[101.69258,3.13289],[101.69298,3.13295],[101.69325,3.13301],[101.69342,3.13305],[101.69363,3.1332],[101.69382,3.13338],[101.69395,3.13359],[101.69404,3.13388],[101.69409,3.13419],[101.69416,3.13469],[101.6942,3.13498],[101.69419,3.13575],[101.69425,3.13636],[101.69432,3.13668],[101.69437,3.13681],[101.69447,3.13706],[101.69465,3.13727],[101.69498,3.13746],[101.69529,3.1377],[101.69549,3.1379],[101.69579,3.13829],[101.69646,3.13915],[101.69695,3.1396],[101.69733,3.13972],[101.69758,3.13973],[101.69795,3.13971],[101.69814,3.13969],[101.69839,3.13963],[101.69867,3.13942],[101.69913,3.139],[101.69926,3.13889],[101.69985,3.1384],[101.70028,3.13802],[101.7005,3.13786],[101.70081,3.13768],[101.70156,3.13743],[101.7025,3.13715],[101.70299,3.137],[101.7031,3.13699],[101.7032,3.13699],[101.70329,3.13699],[101.7034,3.13701],[101.7035,3.13703],[101.70366,3.13708],[101.70382,3.13716],[101.70403,3.13729],[101.70408,3.13734],[101.70427,3.13762],[101.70458,3.13807],[101.70487,3.13851],[101.70506,3.13883],[101.70516,3.13906],[101.70521,3.13923],[101.70526,3.1395],[101.7053,3.13972],[101.70538,3.13995],[101.70551,3.1402],[101.70585,3.14057],[101.7061,3.14079],[101.70641,3.14106],[101.70696,3.14149],[101.70765,3.14198],[101.70815,3.14231],[101.70849,3.14252],[101.70914,3.14274],[101.70962,3.14291],[101.7098,3.14297],[101.71056,3.14316],[101.71124,3.14336],[101.71171,3.14348],[101.71187,3.14353],[101.71204,3.14364],[101.71215,3.14381],[101.71216,3.14403],[101.71207,3.14428],[101.71198,3.1446],[101.71183,3.14503],[101.7117,3.14545],[101.71154,3.14596],[101.71152,3.14602],[101.71144,3.14627],[101.71131,3.1467],[101.71113,3.14712],[101.711,3.1475],[101.71098,3.14771],[101.71098,3.14812],[101.71099,3.14847],[101.711,3.14892],[101.711,3.14931],[101.71098,3.14952],[101.71091,3.14968],[101.71081,3.1499],[101.71068,3.15014],[101.71057,3.15044],[101.71045,3.15076],[101.7104,3.1509],[101.71022,3.15139],[101.71003,3.1519],[101.70986,3.15224],[101.70965,3.15249],[101.70937,3.15275],[101.70911,3.15295],[101.70892,3.15307],[101.70861,3.15322],[101.70821,3.15345],[101.70798,3.15363],[101.70762,3.15401],[101.70748,3.15418],[101.70712,3.15446],[101.70652,3.15494],[101.70628,3.15506],[101.70595,3.15515],[101.70567,3.15529],[101.70539,3.1555],[101.70521,3.15569],[101.70508,3.15586],[101.70492,3.15611],[101.70488,3.15619],[101.70471,3.15648],[101.70457,3.15678],[101.70443,3.15706],[101.70428,3.15727],[101.70411,3.15752],[101.70385,3.15779],[101.70359,3.15798],[101.70331,3.15817],[101.70265,3.15847],[101.70182,3.15874],[101.7011,3.15896],[101.70058,3.15911],[101.70013,3.15917],[101.69928,3.15925],[101.69894,3.15927],[101.69863,3.1593],[101.6982,3.15934],[101.69778,3.15948],[101.69737,3.15965],[101.69725,3.15977],[101.69712,3.15996],[101.69706,3.16013],[101.69705,3.16027],[101.69708,3.16046],[101.69743,3.16131],[101.6977,3.16191],[101.69784,3.16221],[101.6979,3.16243],[101.69797,3.16284],[101.69805,3.16343],[101.6982,3.16459],[101.69831,3.16589],[101.69844,3.16737],[101.69843,3.16875],[101.69841,3.17015],[101.69843,3.17037],[101.69858,3.17089],[101.69886,3.17182],[101.69907,3.17263],[101.69924,3.17311],[101.69932,3.17334],[101.69932,3.17344],[101.69928,3.17357],[101.69918,3.17372],[101.69902,3.1739],[101.69887,3.17397],[101.69865,3.174],[101.69832,3.17396],[101.69793,3.1739],[101.69764,3.17384],[101.6972,3.17372],[101.69664,3.17352],[101.69603,3.17325],[101.69581,3.17315]]}},{"type":"Feature","properties":{"id":"SA","name":"LRT Shah Alam Line","short":"SAL","category":"LRT","color":"#00A9E0"},"geometry":{"type":"LineString","coordinates":[[101.61893,3.14482],[101.61857,3.14453],[101.6182,3.14424],[101.61784,3.14395],[101.61748,3.14366],[101.61741,3.1435],[101.61734,3.14335],[101.61727,3.14319],[101.61721,3.14303],[101.61724,3.14236],[101.61728,3.1417],[101.61731,3.14103],[101.61735,3.14036],[101.61739,3.14009],[101.61744,3.13982],[101.61748,3.13955],[101.61753,3.13928],[101.61753,3.13901],[101.61752,3.13874],[101.61752,3.13847],[101.61752,3.1382],[101.61746,3.13767],[101.61739,3.13714],[101.61732,3.13662],[101.61726,3.13609],[101.61707,3.13556],[101.61688,3.13503],[101.61669,3.13451],[101.6165,3.13398],[101.61641,3.13384],[101.61632,3.1337],[101.61623,3.13355],[101.61614,3.13341],[101.61601,3.13331],[101.61588,3.13322],[101.61575,3.13312],[101.61562,3.13302],[101.61545,3.133],[101.61529,3.13297],[101.61513,3.13294],[101.61497,3.13292],[101.61356,3.13309],[101.61215,3.13326],[101.61073,3.13343],[101.60932,3.1336],[101.60917,3.13357],[101.60902,3.13353],[101.60886,3.1335],[101.60871,3.13347],[101.60848,3.13336],[101.60825,3.13326],[101.60803,3.13315],[101.6078,3.13305],[101.60769,3.13304],[101.60757,3.13304],[101.60746,3.13303],[101.60735,3.13303],[101.60514,3.13329],[101.60292,3.13355],[101.60071,3.13382],[101.59849,3.13408],[101.59827,3.13404],[101.59805,3.134],[101.59783,3.13396],[101.59761,3.13392],[101.59737,3.13377],[101.59713,3.13363],[101.59689,3.13349],[101.59664,3.13334],[101.59649,3.13307],[101.59633,3.13279],[101.59617,3.13251],[101.59602,3.13223],[101.59587,3.13091],[101.59572,3.12959],[101.59557,3.12826],[101.59542,3.12694],[101.5948,3.12456],[101.59418,3.12217],[101.59357,3.11979],[101.59295,3.11741],[101.59271,3.11573],[101.59248,3.11405],[101.59225,3.11238],[101.59201,3.1107],[101.59183,3.11018],[101.59165,3.10967],[101.59147,3.10916],[101.59129,3.10864],[101.59124,3.10774],[101.5912,3.10683],[101.59115,3.10593],[101.59111,3.10503],[101.59085,3.10468],[101.59059,3.10433],[101.59033,3.10399],[101.59006,3.10364],[101.58998,3.10338],[101.58989,3.10313],[101.58981,3.10287],[101.58972,3.10262],[101.5897,3.10167],[101.58968,3.10072],[101.58965,3.09977],[101.58963,3.09883],[101.58971,3.09851],[101.58979,3.0982],[101.58987,3.09788],[101.58995,3.09756],[101.58991,3.09733],[101.58988,3.09709],[101.58984,3.09685],[101.5898,3.09661],[101.58943,3.09612],[101.58906,3.09563],[101.58869,3.09514],[101.58832,3.09466],[101.58818,3.09455],[101.58804,3.09444],[101.5879,3.09433],[101.58776,3.09422],[101.58722,3.094],[101.58667,3.09378],[101.58613,3.09356],[101.58559,3.09334],[101.58488,3.09297],[101.58417,3.09261],[101.58347,3.09224],[101.58276,3.09188],[101.58217,3.09183],[101.58159,3.09179],[101.581,3.09175],[101.58042,3.09171],[101.57947,3.09132],[101.57853,3.09093],[101.57759,3.09054],[101.57664,3.09016],[101.57568,3.08958],[101.57472,3.089],[101.57376,3.08842],[101.5728,3.08784],[101.57249,3.08746],[101.57218,3.08708],[101.57187,3.0867],[101.57156,3.08633],[101.5714,3.08582],[101.57124,3.08531],[101.57108,3.08481],[101.57092,3.0843],[101.57084,3.08415],[101.57076,3.084],[101.57068,3.08385],[101.57061,3.0837],[101.57051,3.08363],[101.57041,3.08357],[101.57031,3.0835],[101.57022,3.08344],[101.56983,3.08338],[101.56944,3.08333],[101.56905,3.08327],[101.56866,3.08322],[101.56839,3.08299],[101.56811,3.08277],[101.56783,3.08254],[101.56756,3.08232],[101.56737,3.08227],[101.56718,3.08222],[101.56699,3.08217],[101.56681,3.08213],[101.56647,3.08217],[101.56613,3.08221],[101.56579,3.08225],[101.56545,3.0823],[101.56246,3.08229],[101.55947,3.08228],[101.55648,3.08227],[101.55348,3.08227],[101.55324,3.08219],[101.55299,3.08211],[101.55274,3.08204],[101.5525,3.08196],[101.55166,3.08144],[101.55082,3.08092],[101.54999,3.08039],[101.54915,3.07987],[101.54888,3.07973],[101.54861,3.07959],[101.54833,3.07946],[101.54806,3.07932],[101.54692,3.07923],[101.54579,3.07915],[101.54465,3.07906],[101.54352,3.07897],[101.54284,3.07885],[101.54217,3.07872],[101.5415,3.07859],[101.54082,3.07847],[101.54043,3.07829],[101.54003,3.07812],[101.53964,3.07794],[101.53924,3.07777],[101.53891,3.07779],[101.53858,3.07781],[101.53825,3.07784],[101.53791,3.07786],[101.53701,3.0774],[101.53611,3.07695],[101.5352,3.07649],[101.5343,3.07604],[101.53403,3.07581],[101.53376,3.07559],[101.53349,3.07536],[101.53322,3.07513],[101.53309,3.07447],[101.53297,3.07381],[101.53284,3.07315],[101.53271,3.07248],[101.53272,3.0722],[101.53273,3.07191],[101.53273,3.07163],[101.53274,3.07135],[101.53271,3.07118],[101.53268,3.07102],[101.53265,3.07086],[101.53262,3.07069],[101.53241,3.07031],[101.5322,3.06992],[101.53199,3.06953],[101.53177,3.06914],[101.53164,3.06899],[101.5315,3.06884],[101.53136,3.06868],[101.53122,3.06853],[101.53109,3.06849],[101.53095,3.06845],[101.53082,3.06841],[101.53068,3.06837],[101.52979,3.0683],[101.5289,3.06823],[101.52801,3.06816],[101.52712,3.06809],[101.52693,3.06814],[101.52674,3.06819],[101.52654,3.06824],[101.52635,3.06828],[101.52554,3.06867],[101.52474,3.06905],[101.52393,3.06943],[101.52313,3.06981],[101.52296,3.06983],[101.52279,3.06986],[101.52262,3.06989],[101.52245,3.06992],[101.52186,3.0699],[101.52127,3.06989],[101.52068,3.06988],[101.5201,3.06986],[101.51994,3.06981],[101.51979,3.06976],[101.51963,3.06971],[101.51948,3.06966],[101.51924,3.06951],[101.519,3.06937],[101.51877,3.06923],[101.51853,3.06909],[101.51844,3.06898],[101.51836,3.06887],[101.51828,3.06876],[101.51819,3.06865],[101.51811,3.06838],[101.51803,3.0681],[101.51795,3.06783],[101.51786,3.06756],[101.51778,3.0674],[101.5177,3.06725],[101.51761,3.0671],[101.51753,3.06694],[101.51701,3.06654],[101.51648,3.06614],[101.51596,3.06574],[101.51544,3.06534],[101.51368,3.06482],[101.51192,3.0643],[101.51016,3.06379],[101.5084,3.06327],[101.50742,3.06312],[101.50644,3.06296],[101.50545,3.06281],[101.50447,3.06266],[101.503,3.06269],[101.50154,3.06273],[101.50007,3.06276],[101.49861,3.0628],[101.49722,3.06306],[101.49584,3.06332],[101.49445,3.06358],[101.49307,3.06384],[101.4929,3.06392],[101.49273,3.06399],[101.49256,3.06407],[101.49239,3.06415],[101.49226,3.06428],[101.49214,3.06441],[101.49201,3.06454],[101.49188,3.06468],[101.49183,3.0648],[101.49177,3.06492],[101.49172,3.06504],[101.49166,3.06516],[101.4916,3.06557],[101.49153,3.06598],[101.49147,3.06639],[101.4914,3.0668],[101.4913,3.06692],[101.4912,3.06704],[101.49109,3.06716],[101.49099,3.06728],[101.49089,3.06732],[101.4908,3.06736],[101.49071,3.06741],[101.49061,3.06745],[101.48866,3.06743],[101.4867,3.06741],[101.48475,3.06739],[101.48279,3.06737],[101.48259,3.06747],[101.48239,3.06757],[101.48218,3.06767],[101.48198,3.06777],[101.48175,3.06804],[101.48152,3.06831],[101.48128,3.06858],[101.48105,3.06884],[101.48082,3.06889],[101.48059,3.06894],[101.48036,3.06899],[101.48013,3.06904],[101.47999,3.06899],[101.47985,3.06894],[101.47971,3.06889],[101.47957,3.06884],[101.47746,3.06725],[101.47535,3.06566],[101.47324,3.06407],[101.47113,3.06248],[101.471,3.06245],[101.47086,3.06242],[101.47073,3.06239],[101.47059,3.06237],[101.46989,3.06243],[101.46918,3.0625],[101.46847,3.06257],[101.46776,3.06264],[101.46699,3.06264],[101.46622,3.06264],[101.46545,3.06263],[101.46468,3.06263],[101.46441,3.06273],[101.46414,3.06283],[101.46387,3.06294],[101.46359,3.06304],[101.46326,3.0633],[101.46293,3.06356],[101.4626,3.06382],[101.46227,3.06408],[101.46171,3.06463],[101.46114,3.06518],[101.46057,3.06574],[101.46001,3.06629],[101.45921,3.06642],[101.45842,3.06655],[101.45763,3.06667],[101.45684,3.0668],[101.45665,3.06688],[101.45646,3.06695],[101.45628,3.06703],[101.45609,3.0671],[101.45566,3.06736],[101.45522,3.06761],[101.45479,3.06787],[101.45435,3.06812],[101.45422,3.06825],[101.4541,3.06838],[101.45397,3.06852],[101.45385,3.06865],[101.45375,3.06894],[101.45365,3.06923],[101.45355,3.06953],[101.45345,3.06982],[101.45332,3.06995],[101.4532,3.07007],[101.45308,3.0702],[101.45295,3.07033],[101.45274,3.07036],[101.45253,3.0704],[101.45231,3.07044],[101.4521,3.07048],[101.45182,3.07036],[101.45154,3.07024],[101.45126,3.07013],[101.45098,3.07001],[101.45091,3.0699],[101.45083,3.06978],[101.45075,3.06967],[101.45067,3.06955],[101.45066,3.06937],[101.45064,3.06919],[101.45063,3.06901],[101.45061,3.06883],[101.45088,3.06798],[101.45116,3.06714],[101.45143,3.06629],[101.45171,3.06544],[101.45193,3.06462],[101.45216,3.0638],[101.45238,3.06298],[101.4526,3.06216],[101.45261,3.06197],[101.45262,3.06178],[101.45262,3.06159],[101.45263,3.06141],[101.4519,3.05855],[101.45117,3.05569],[101.45044,3.05284],[101.4497,3.04998],[101.4494,3.04966],[101.4491,3.04933],[101.4488,3.049],[101.4485,3.04868],[101.44768,3.04761],[101.44686,3.04655],[101.44603,3.04549],[101.44521,3.04443],[101.44511,3.04435],[101.44501,3.04428],[101.44491,3.0442],[101.44481,3.04413],[101.44447,3.04399],[101.44414,3.04384],[101.4438,3.0437],[101.44347,3.04355],[101.44338,3.04345],[101.44329,3.04336],[101.4432,3.04326],[101.44311,3.04316],[101.44303,3.04299],[101.44296,3.04283],[101.44289,3.04266],[101.44282,3.0425],[101.44281,3.04182],[101.44281,3.04114],[101.44281,3.04047],[101.44281,3.03979],[101.44301,3.03919],[101.44321,3.03859],[101.44341,3.038],[101.4436,3.0374],[101.44361,3.03726],[101.44361,3.03712],[101.44362,3.03698],[101.44362,3.03684],[101.44359,3.03675],[101.44357,3.03666],[101.44354,3.03657],[101.44351,3.03648],[101.44309,3.03583],[101.44268,3.03518],[101.44226,3.03453],[101.44185,3.03388],[101.44179,3.03369],[101.44174,3.0335],[101.44168,3.03331],[101.44163,3.03312],[101.44169,3.03279],[101.44175,3.03247],[101.44181,3.03214],[101.44187,3.03181],[101.44191,3.03106],[101.44196,3.03031],[101.442,3.02956],[101.44204,3.02881],[101.44224,3.02786],[101.44244,3.02691],[101.44264,3.02595],[101.44284,3.025],[101.44284,3.0247],[101.44284,3.0244],[101.44284,3.02411],[101.44284,3.02381],[101.4428,3.02357],[101.44276,3.02333],[101.44272,3.02309],[101.44268,3.02285],[101.44215,3.02097],[101.44162,3.0191],[101.44109,3.01722],[101.44056,3.01534],[101.4404,3.01498],[101.44025,3.01462],[101.4401,3.01426],[101.43994,3.0139],[101.43991,3.01357],[101.43988,3.01324],[101.43985,3.01291],[101.43982,3.01257],[101.43986,3.01204],[101.43989,3.01151],[101.43993,3.01097],[101.43996,3.01044],[101.44005,3.01013],[101.44014,3.00982],[101.44023,3.00951],[101.44032,3.0092],[101.44065,3.00875],[101.44097,3.00829],[101.4413,3.00784],[101.44162,3.00739],[101.4417,3.00721],[101.44178,3.00704],[101.44186,3.00686],[101.44193,3.00668],[101.44195,3.00604],[101.44196,3.0054],[101.44197,3.00476],[101.44198,3.00412],[101.4421,3.00349],[101.44222,3.00286],[101.44234,3.00222],[101.44247,3.00159],[101.44342,2.99938],[101.44437,2.99717],[101.44532,2.99497],[101.44627,2.99276],[101.44676,2.99185],[101.44724,2.99094],[101.44772,2.99004],[101.4482,2.98913],[101.44838,2.98887],[101.44856,2.98861],[101.44874,2.98836],[101.44891,2.9881],[101.45111,2.9857],[101.45331,2.9833],[101.45551,2.9809],[101.45771,2.9785],[101.45814,2.97799],[101.45856,2.97747],[101.45899,2.97695],[101.45941,2.97643]]}}]}